<?xml version="1.0" encoding="UTF-8"?>
<gpx version="1.1">
  <trk>
    <trkseg>
      
      <trkpt lat="43.434923" lon="144.100902">
        <ele>437.4</ele>
        <time>2023-10-02T00:26:30.000Z</time>
        
      </trkpt>
      <trkpt lat="43.434151" lon="144.101235">
        <ele>441.2</ele>
        <time>2023-10-02T00:27:58.000Z</time>
        
      </trkpt>
      <trkpt lat="43.433249" lon="144.102073">
        <ele>443</ele>
        <time>2023-10-02T00:28:26.000Z</time>
        
      </trkpt>
      <trkpt lat="43.433428" lon="144.103026">
        <ele>446.6</ele>
        <time>2023-10-02T00:28:54.000Z</time>
        
      </trkpt>
      <trkpt lat="43.433652" lon="144.104032">
        <ele>450.2</ele>
        <time>2023-10-02T00:29:22.000Z</time>
        
      </trkpt>
      <trkpt lat="43.433741" lon="144.105127">
        <ele>452.4</ele>
        <time>2023-10-02T00:29:50.000Z</time>
        
      </trkpt>
      <trkpt lat="43.433561" lon="144.107162">
        <ele>448.6</ele>
        <time>2023-10-02T00:30:23.000Z</time>
        
      </trkpt>
      <trkpt lat="43.433297" lon="144.109988">
        <ele>441.6</ele>
        <time>2023-10-02T00:30:51.000Z</time>
        
      </trkpt>
      <trkpt lat="43.433059" lon="144.11258">
        <ele>439</ele>
        <time>2023-10-02T00:31:19.000Z</time>
        
      </trkpt>
      <trkpt lat="43.432844" lon="144.114888">
        <ele>437.6</ele>
        <time>2023-10-02T00:31:47.000Z</time>
        
      </trkpt>
      <trkpt lat="43.432637" lon="144.11716">
        <ele>436.6</ele>
        <time>2023-10-02T00:32:15.000Z</time>
        
      </trkpt>
      <trkpt lat="43.432431" lon="144.119316">
        <ele>436</ele>
        <time>2023-10-02T00:32:43.000Z</time>
        
      </trkpt>
      <trkpt lat="43.432277" lon="144.121128">
        <ele>436.4</ele>
        <time>2023-10-02T00:33:11.000Z</time>
        
      </trkpt>
      <trkpt lat="43.432136" lon="144.122619">
        <ele>439</ele>
        <time>2023-10-02T00:33:39.000Z</time>
        
      </trkpt>
      <trkpt lat="43.432014" lon="144.123971">
        <ele>441.6</ele>
        <time>2023-10-02T00:34:07.000Z</time>
        
      </trkpt>
      <trkpt lat="43.431903" lon="144.125206">
        <ele>444.2</ele>
        <time>2023-10-02T00:34:35.000Z</time>
        
      </trkpt>
      <trkpt lat="43.431789" lon="144.12652">
        <ele>445.8</ele>
        <time>2023-10-02T00:35:26.000Z</time>
        
      </trkpt>
      <trkpt lat="43.431696" lon="144.128704">
        <ele>445.8</ele>
        <time>2023-10-02T00:35:54.000Z</time>
        
      </trkpt>
      <trkpt lat="43.431618" lon="144.131194">
        <ele>443.4</ele>
        <time>2023-10-02T00:36:22.000Z</time>
        
      </trkpt>
      <trkpt lat="43.431513" lon="144.13417">
        <ele>437.8</ele>
        <time>2023-10-02T00:36:50.000Z</time>
        
      </trkpt>
      <trkpt lat="43.430203" lon="144.137882">
        <ele>419.2</ele>
        <time>2023-10-02T00:37:18.000Z</time>
        
      </trkpt>
      <trkpt lat="43.429507" lon="144.142134">
        <ele>401.4</ele>
        <time>2023-10-02T00:37:46.000Z</time>
        
      </trkpt>
      <trkpt lat="43.427597" lon="144.142512">
        <ele>401.8</ele>
        <time>2023-10-02T00:38:14.000Z</time>
        
      </trkpt>
      <trkpt lat="43.426485" lon="144.142393">
        <ele>405.8</ele>
        <time>2023-10-02T00:38:42.000Z</time>
        
      </trkpt>
      <trkpt lat="43.425525" lon="144.142324">
        <ele>409.8</ele>
        <time>2023-10-02T00:39:10.000Z</time>
        
      </trkpt>
      <trkpt lat="43.424338" lon="144.142436">
        <ele>411.2</ele>
        <time>2023-10-02T00:39:38.000Z</time>
        
      </trkpt>
      <trkpt lat="43.422919" lon="144.144864">
        <ele>402.8</ele>
        <time>2023-10-02T00:40:06.000Z</time>
        
      </trkpt>
      <trkpt lat="43.420205" lon="144.145306">
        <ele>391.4</ele>
        <time>2023-10-02T00:40:34.000Z</time>
        
      </trkpt>
      <trkpt lat="43.417939" lon="144.144816">
        <ele>387.8</ele>
        <time>2023-10-02T00:41:02.000Z</time>
        
      </trkpt>
      <trkpt lat="43.41649" lon="144.144194">
        <ele>389.6</ele>
        <time>2023-10-02T00:41:30.000Z</time>
        
      </trkpt>
      <trkpt lat="43.41523" lon="144.143188">
        <ele>391.6</ele>
        <time>2023-10-02T00:41:58.000Z</time>
        
      </trkpt>
      <trkpt lat="43.414038" lon="144.142264">
        <ele>392.6</ele>
        <time>2023-10-02T00:42:26.000Z</time>
        
      </trkpt>
      <trkpt lat="43.412883" lon="144.141333">
        <ele>394</ele>
        <time>2023-10-02T00:42:54.000Z</time>
        
      </trkpt>
      <trkpt lat="43.411671" lon="144.140402">
        <ele>395.2</ele>
        <time>2023-10-02T00:43:22.000Z</time>
        
      </trkpt>
      <trkpt lat="43.409326" lon="144.14055">
        <ele>383</ele>
        <time>2023-10-02T00:43:50.000Z</time>
        
      </trkpt>
      <trkpt lat="43.406498" lon="144.142049">
        <ele>366.8</ele>
        <time>2023-10-02T00:44:18.000Z</time>
        
      </trkpt>
      <trkpt lat="43.404628" lon="144.142994">
        <ele>365.8</ele>
        <time>2023-10-02T00:44:46.000Z</time>
        
      </trkpt>
      <trkpt lat="43.402671" lon="144.142813">
        <ele>364</ele>
        <time>2023-10-02T00:45:14.000Z</time>
        
      </trkpt>
      <trkpt lat="43.401458" lon="144.141803">
        <ele>367.8</ele>
        <time>2023-10-02T00:45:42.000Z</time>
        
      </trkpt>
      <trkpt lat="43.400826" lon="144.140719">
        <ele>371</ele>
        <time>2023-10-02T00:46:10.000Z</time>
        
      </trkpt>
      <trkpt lat="43.399563" lon="144.139114">
        <ele>367.8</ele>
        <time>2023-10-02T00:46:38.000Z</time>
        
      </trkpt>
      <trkpt lat="43.397611" lon="144.137797">
        <ele>360.4</ele>
        <time>2023-10-02T00:47:06.000Z</time>
        
      </trkpt>
      <trkpt lat="43.396356" lon="144.138048">
        <ele>362.6</ele>
        <time>2023-10-02T00:47:34.000Z</time>
        
      </trkpt>
      <trkpt lat="43.395435" lon="144.138253">
        <ele>364.8</ele>
        <time>2023-10-02T00:48:02.000Z</time>
        
      </trkpt>
      <trkpt lat="43.394696" lon="144.138407">
        <ele>368.8</ele>
        <time>2023-10-02T00:48:30.000Z</time>
        
      </trkpt>
      <trkpt lat="43.393991" lon="144.138599">
        <ele>373</ele>
        <time>2023-10-02T00:48:58.000Z</time>
        
      </trkpt>
      <trkpt lat="43.393268" lon="144.138792">
        <ele>377.4</ele>
        <time>2023-10-02T00:49:26.000Z</time>
        
      </trkpt>
      <trkpt lat="43.392498" lon="144.139013">
        <ele>380.6</ele>
        <time>2023-10-02T00:49:54.000Z</time>
        
      </trkpt>
      <trkpt lat="43.391238" lon="144.13869">
        <ele>380.2</ele>
        <time>2023-10-02T00:50:22.000Z</time>
        
      </trkpt>
      <trkpt lat="43.390633" lon="144.135283">
        <ele>365.6</ele>
        <time>2023-10-02T00:50:50.000Z</time>
        
      </trkpt>
      <trkpt lat="43.389698" lon="144.13226">
        <ele>358.4</ele>
        <time>2023-10-02T00:51:18.000Z</time>
        
      </trkpt>
      <trkpt lat="43.38749" lon="144.131142">
        <ele>351.6</ele>
        <time>2023-10-02T00:51:46.000Z</time>
        
      </trkpt>
      <trkpt lat="43.385781" lon="144.13041">
        <ele>349.6</ele>
        <time>2023-10-02T00:52:14.000Z</time>
        
      </trkpt>
      <trkpt lat="43.384349" lon="144.131674">
        <ele>347.6</ele>
        <time>2023-10-02T00:52:42.000Z</time>
        
      </trkpt>
      <trkpt lat="43.382499" lon="144.132454">
        <ele>343.8</ele>
        <time>2023-10-02T00:53:10.000Z</time>
        
      </trkpt>
      <trkpt lat="43.380519" lon="144.1322">
        <ele>340</ele>
        <time>2023-10-02T00:53:38.000Z</time>
        
      </trkpt>
      <trkpt lat="43.378834" lon="144.131978">
        <ele>339.6</ele>
        <time>2023-10-02T00:54:06.000Z</time>
        
      </trkpt>
      <trkpt lat="43.377274" lon="144.131786">
        <ele>339</ele>
        <time>2023-10-02T00:54:34.000Z</time>
        
      </trkpt>
      <trkpt lat="43.375678" lon="144.131942">
        <ele>339</ele>
        <time>2023-10-02T00:55:02.000Z</time>
        
      </trkpt>
      <trkpt lat="43.374183" lon="144.132489">
        <ele>338.6</ele>
        <time>2023-10-02T00:55:30.000Z</time>
        
      </trkpt>
      <trkpt lat="43.373115" lon="144.132882">
        <ele>337</ele>
        <time>2023-10-02T00:56:24.000Z</time>
        
      </trkpt>
      <trkpt lat="43.371838" lon="144.133322">
        <ele>333.8</ele>
        <time>2023-10-02T00:56:52.000Z</time>
        
      </trkpt>
      <trkpt lat="43.36988" lon="144.133976">
        <ele>329.2</ele>
        <time>2023-10-02T00:57:20.000Z</time>
        
      </trkpt>
      <trkpt lat="43.368114" lon="144.133787">
        <ele>328.4</ele>
        <time>2023-10-02T00:57:48.000Z</time>
        
      </trkpt>
      <trkpt lat="43.366451" lon="144.134121">
        <ele>328</ele>
        <time>2023-10-02T00:58:16.000Z</time>
        
      </trkpt>
      <trkpt lat="43.364445" lon="144.13433">
        <ele>323.8</ele>
        <time>2023-10-02T00:58:44.000Z</time>
        
      </trkpt>
      <trkpt lat="43.363045" lon="144.134442">
        <ele>325.8</ele>
        <time>2023-10-02T00:59:12.000Z</time>
        
      </trkpt>
      <trkpt lat="43.361738" lon="144.134636">
        <ele>325.8</ele>
        <time>2023-10-02T00:59:40.000Z</time>
        
      </trkpt>
      <trkpt lat="43.359968" lon="144.134644">
        <ele>321.6</ele>
        <time>2023-10-02T01:00:08.000Z</time>
        
      </trkpt>
      <trkpt lat="43.357832" lon="144.134148">
        <ele>315.6</ele>
        <time>2023-10-02T01:00:36.000Z</time>
        
      </trkpt>
      <trkpt lat="43.356694" lon="144.133894">
        <ele>319.4</ele>
        <time>2023-10-02T01:01:04.000Z</time>
        
      </trkpt>
      <trkpt lat="43.35577" lon="144.133686">
        <ele>322</ele>
        <time>2023-10-02T01:01:32.000Z</time>
        
      </trkpt>
      <trkpt lat="43.35439" lon="144.133346">
        <ele>321</ele>
        <time>2023-10-02T01:02:00.000Z</time>
        
      </trkpt>
      <trkpt lat="43.352069" lon="144.13202">
        <ele>307.6</ele>
        <time>2023-10-02T01:02:28.000Z</time>
        
      </trkpt>
      <trkpt lat="43.349687" lon="144.130545">
        <ele>297.4</ele>
        <time>2023-10-02T01:02:56.000Z</time>
        
      </trkpt>
      <trkpt lat="43.347798" lon="144.129426">
        <ele>292.2</ele>
        <time>2023-10-02T01:03:24.000Z</time>
        
      </trkpt>
      <trkpt lat="43.346406" lon="144.128585">
        <ele>292.8</ele>
        <time>2023-10-02T01:03:52.000Z</time>
        
      </trkpt>
      <trkpt lat="43.34492" lon="144.127663">
        <ele>291.4</ele>
        <time>2023-10-02T01:04:20.000Z</time>
        
      </trkpt>
      <trkpt lat="43.343438" lon="144.126135">
        <ele>289.2</ele>
        <time>2023-10-02T01:04:48.000Z</time>
        
      </trkpt>
      <trkpt lat="43.341989" lon="144.124472">
        <ele>287.6</ele>
        <time>2023-10-02T01:05:16.000Z</time>
        
      </trkpt>
      <trkpt lat="43.340533" lon="144.122798">
        <ele>284</ele>
        <time>2023-10-02T01:05:44.000Z</time>
        
      </trkpt>
      <trkpt lat="43.339096" lon="144.121099">
        <ele>280.6</ele>
        <time>2023-10-02T01:06:12.000Z</time>
        
      </trkpt>
      <trkpt lat="43.338132" lon="144.11922">
        <ele>278.6</ele>
        <time>2023-10-02T01:06:40.000Z</time>
        
      </trkpt>
      <trkpt lat="43.337637" lon="144.11707">
        <ele>277.4</ele>
        <time>2023-10-02T01:07:08.000Z</time>
        
      </trkpt>
      <trkpt lat="43.33716" lon="144.11472">
        <ele>275</ele>
        <time>2023-10-02T01:07:36.000Z</time>
        
      </trkpt>
      <trkpt lat="43.336595" lon="144.112958">
        <ele>276.2</ele>
        <time>2023-10-02T01:08:04.000Z</time>
        
      </trkpt>
      <trkpt lat="43.335825" lon="144.111927">
        <ele>278</ele>
        <time>2023-10-02T01:08:32.000Z</time>
        
      </trkpt>
      <trkpt lat="43.334788" lon="144.110721">
        <ele>279</ele>
        <time>2023-10-02T01:09:00.000Z</time>
        
      </trkpt>
      <trkpt lat="43.333492" lon="144.109071">
        <ele>276.4</ele>
        <time>2023-10-02T01:09:28.000Z</time>
        
      </trkpt>
      <trkpt lat="43.332818" lon="144.106765">
        <ele>272.4</ele>
        <time>2023-10-02T01:09:56.000Z</time>
        
      </trkpt>
      <trkpt lat="43.332035" lon="144.103962">
        <ele>265.6</ele>
        <time>2023-10-02T01:10:24.000Z</time>
        
      </trkpt>
      <trkpt lat="43.330975" lon="144.101614">
        <ele>264.6</ele>
        <time>2023-10-02T01:10:52.000Z</time>
        
      </trkpt>
      <trkpt lat="43.329421" lon="144.100505">
        <ele>264.4</ele>
        <time>2023-10-02T01:11:20.000Z</time>
        
      </trkpt>
      <trkpt lat="43.328085" lon="144.10028">
        <ele>265.8</ele>
        <time>2023-10-02T01:11:48.000Z</time>
        
      </trkpt>
      <trkpt lat="43.327126" lon="144.100125">
        <ele>269.4</ele>
        <time>2023-10-02T01:12:16.000Z</time>
        
      </trkpt>
      <trkpt lat="43.326037" lon="144.099615">
        <ele>270</ele>
        <time>2023-10-02T01:12:44.000Z</time>
        
      </trkpt>
      <trkpt lat="43.324661" lon="144.097767">
        <ele>257.8</ele>
        <time>2023-10-02T01:13:12.000Z</time>
        
      </trkpt>
      <trkpt lat="43.323543" lon="144.096078">
        <ele>250.8</ele>
        <time>2023-10-02T01:13:40.000Z</time>
        
      </trkpt>
      <trkpt lat="43.32252" lon="144.095096">
        <ele>247.8</ele>
        <time>2023-10-02T01:14:33.000Z</time>
        
      </trkpt>
      <trkpt lat="43.320312" lon="144.094624">
        <ele>243</ele>
        <time>2023-10-02T01:15:01.000Z</time>
        
      </trkpt>
      <trkpt lat="43.318128" lon="144.095401">
        <ele>237.2</ele>
        <time>2023-10-02T01:15:29.000Z</time>
        
      </trkpt>
      <trkpt lat="43.316147" lon="144.096868">
        <ele>232</ele>
        <time>2023-10-02T01:15:57.000Z</time>
        
      </trkpt>
      <trkpt lat="43.314145" lon="144.096135">
        <ele>226.6</ele>
        <time>2023-10-02T01:16:25.000Z</time>
        
      </trkpt>
      <trkpt lat="43.313597" lon="144.095468">
        <ele>223.2</ele>
        <time>2023-10-02T01:19:19.000Z</time>
        
      </trkpt>
      <trkpt lat="43.312363" lon="144.094016">
        <ele>221.6</ele>
        <time>2023-10-02T01:19:47.000Z</time>
        
      </trkpt>
      <trkpt lat="43.310924" lon="144.093026">
        <ele>219.6</ele>
        <time>2023-10-02T01:20:15.000Z</time>
        
      </trkpt>
      <trkpt lat="43.309328" lon="144.092989">
        <ele>218.8</ele>
        <time>2023-10-02T01:20:43.000Z</time>
        
      </trkpt>
      <trkpt lat="43.307316" lon="144.093423">
        <ele>215</ele>
        <time>2023-10-02T01:21:11.000Z</time>
        
      </trkpt>
      <trkpt lat="43.304865" lon="144.094209">
        <ele>207</ele>
        <time>2023-10-02T01:21:39.000Z</time>
        
      </trkpt>
      <trkpt lat="43.302698" lon="144.095588">
        <ele>201.2</ele>
        <time>2023-10-02T01:22:07.000Z</time>
        
      </trkpt>
      <trkpt lat="43.301084" lon="144.096692">
        <ele>200.8</ele>
        <time>2023-10-02T01:22:35.000Z</time>
        
      </trkpt>
      <trkpt lat="43.299711" lon="144.097625">
        <ele>198.8</ele>
        <time>2023-10-02T01:23:03.000Z</time>
        
      </trkpt>
      <trkpt lat="43.298449" lon="144.09848">
        <ele>197.6</ele>
        <time>2023-10-02T01:23:31.000Z</time>
        
      </trkpt>
      <trkpt lat="43.297221" lon="144.099291">
        <ele>198.4</ele>
        <time>2023-10-02T01:23:59.000Z</time>
        
      </trkpt>
      <trkpt lat="43.296102" lon="144.099909">
        <ele>200.2</ele>
        <time>2023-10-02T01:24:27.000Z</time>
        
      </trkpt>
      <trkpt lat="43.294467" lon="144.100721">
        <ele>197.6</ele>
        <time>2023-10-02T01:24:55.000Z</time>
        
      </trkpt>
      <trkpt lat="43.292515" lon="144.101835">
        <ele>192.4</ele>
        <time>2023-10-02T01:25:23.000Z</time>
        
      </trkpt>
      <trkpt lat="43.290775" lon="144.103184">
        <ele>190.4</ele>
        <time>2023-10-02T01:25:51.000Z</time>
        
      </trkpt>
      <trkpt lat="43.289537" lon="144.104137">
        <ele>192.4</ele>
        <time>2023-10-02T01:26:19.000Z</time>
        
      </trkpt>
      <trkpt lat="43.288328" lon="144.104795">
        <ele>193.8</ele>
        <time>2023-10-02T01:26:47.000Z</time>
        
      </trkpt>
      <trkpt lat="43.28688" lon="144.105319">
        <ele>193</ele>
        <time>2023-10-02T01:27:15.000Z</time>
        
      </trkpt>
      <trkpt lat="43.285158" lon="144.105922">
        <ele>192.6</ele>
        <time>2023-10-02T01:27:43.000Z</time>
        
      </trkpt>
      <trkpt lat="43.283466" lon="144.106501">
        <ele>191.8</ele>
        <time>2023-10-02T01:28:11.000Z</time>
        
      </trkpt>
      <trkpt lat="43.281898" lon="144.107249">
        <ele>191</ele>
        <time>2023-10-02T01:28:39.000Z</time>
        
      </trkpt>
      <trkpt lat="43.280345" lon="144.108222">
        <ele>190.4</ele>
        <time>2023-10-02T01:29:07.000Z</time>
        
      </trkpt>
      <trkpt lat="43.278807" lon="144.109203">
        <ele>189.6</ele>
        <time>2023-10-02T01:29:35.000Z</time>
        
      </trkpt>
      <trkpt lat="43.277289" lon="144.110146">
        <ele>189.4</ele>
        <time>2023-10-02T01:30:03.000Z</time>
        
      </trkpt>
      <trkpt lat="43.275695" lon="144.111154">
        <ele>187</ele>
        <time>2023-10-02T01:30:31.000Z</time>
        
      </trkpt>
      <trkpt lat="43.273545" lon="144.112426">
        <ele>180.4</ele>
        <time>2023-10-02T01:30:59.000Z</time>
        
      </trkpt>
      <trkpt lat="43.271589" lon="144.112642">
        <ele>173</ele>
        <time>2023-10-02T01:31:27.000Z</time>
        
      </trkpt>
      <trkpt lat="43.270117" lon="144.112595">
        <ele>168.8</ele>
        <time>2023-10-02T01:32:31.000Z</time>
        
      </trkpt>
      <trkpt lat="43.268006" lon="144.112619">
        <ele>160.6</ele>
        <time>2023-10-02T01:32:59.000Z</time>
        
      </trkpt>
      <trkpt lat="43.265942" lon="144.113719">
        <ele>154.2</ele>
        <time>2023-10-02T01:33:27.000Z</time>
        
      </trkpt>
      <trkpt lat="43.264151" lon="144.115017">
        <ele>149.8</ele>
        <time>2023-10-02T01:33:55.000Z</time>
        
      </trkpt>
      <trkpt lat="43.262627" lon="144.116136">
        <ele>148</ele>
        <time>2023-10-02T01:34:23.000Z</time>
        
      </trkpt>
      <trkpt lat="43.261095" lon="144.117242">
        <ele>146.4</ele>
        <time>2023-10-02T01:34:51.000Z</time>
        
      </trkpt>
      <trkpt lat="43.259458" lon="144.118439">
        <ele>144.6</ele>
        <time>2023-10-02T01:35:19.000Z</time>
        
      </trkpt>
      <trkpt lat="43.257849" lon="144.119606">
        <ele>143</ele>
        <time>2023-10-02T01:35:47.000Z</time>
        
      </trkpt>
      <trkpt lat="43.256258" lon="144.121041">
        <ele>141.4</ele>
        <time>2023-10-02T01:36:15.000Z</time>
        
      </trkpt>
      <trkpt lat="43.254722" lon="144.122558">
        <ele>139.6</ele>
        <time>2023-10-02T01:36:43.000Z</time>
        
      </trkpt>
      <trkpt lat="43.253248" lon="144.124002">
        <ele>138.2</ele>
        <time>2023-10-02T01:37:11.000Z</time>
        
      </trkpt>
      <trkpt lat="43.251717" lon="144.125506">
        <ele>136.2</ele>
        <time>2023-10-02T01:37:39.000Z</time>
        
      </trkpt>
      <trkpt lat="43.250237" lon="144.126962">
        <ele>134.2</ele>
        <time>2023-10-02T01:38:07.000Z</time>
        
      </trkpt>
      <trkpt lat="43.249179" lon="144.12789">
        <ele>131.4</ele>
        <time>2023-10-02T01:38:35.000Z</time>
        
      </trkpt>
      <trkpt lat="43.247422" lon="144.128986">
        <ele>128</ele>
        <time>2023-10-02T01:39:03.000Z</time>
        
      </trkpt>
      <trkpt lat="43.245394" lon="144.129973">
        <ele>125.2</ele>
        <time>2023-10-02T01:39:31.000Z</time>
        
      </trkpt>
      <trkpt lat="43.243541" lon="144.130811">
        <ele>124</ele>
        <time>2023-10-02T01:39:59.000Z</time>
        
      </trkpt>
      <trkpt lat="43.241813" lon="144.131588">
        <ele>122</ele>
        <time>2023-10-02T01:40:27.000Z</time>
        
      </trkpt>
      <trkpt lat="43.240117" lon="144.132247">
        <ele>119.8</ele>
        <time>2023-10-02T01:40:55.000Z</time>
        
      </trkpt>
      <trkpt lat="43.238497" lon="144.132595">
        <ele>118.6</ele>
        <time>2023-10-02T01:41:23.000Z</time>
        
      </trkpt>
      <trkpt lat="43.236828" lon="144.132956">
        <ele>117.8</ele>
        <time>2023-10-02T01:41:51.000Z</time>
        
      </trkpt>
      <trkpt lat="43.235213" lon="144.133303">
        <ele>117.4</ele>
        <time>2023-10-02T01:42:19.000Z</time>
        
      </trkpt>
      <trkpt lat="43.233644" lon="144.133647">
        <ele>116.2</ele>
        <time>2023-10-02T01:42:47.000Z</time>
        
      </trkpt>
      <trkpt lat="43.231957" lon="144.134007">
        <ele>114</ele>
        <time>2023-10-02T01:43:15.000Z</time>
        
      </trkpt>
      <trkpt lat="43.230266" lon="144.134365">
        <ele>111.4</ele>
        <time>2023-10-02T01:43:43.000Z</time>
        
      </trkpt>
      <trkpt lat="43.228561" lon="144.134731">
        <ele>109.6</ele>
        <time>2023-10-02T01:44:11.000Z</time>
        
      </trkpt>
      <trkpt lat="43.227044" lon="144.135057">
        <ele>107.8</ele>
        <time>2023-10-02T01:44:39.000Z</time>
        
      </trkpt>
      <trkpt lat="43.225574" lon="144.135369">
        <ele>106.4</ele>
        <time>2023-10-02T01:45:07.000Z</time>
        
      </trkpt>
      <trkpt lat="43.224022" lon="144.135703">
        <ele>105.2</ele>
        <time>2023-10-02T01:45:35.000Z</time>
        
      </trkpt>
      <trkpt lat="43.22235" lon="144.136062">
        <ele>104.4</ele>
        <time>2023-10-02T01:46:03.000Z</time>
        
      </trkpt>
      <trkpt lat="43.220799" lon="144.136386">
        <ele>103.4</ele>
        <time>2023-10-02T01:46:31.000Z</time>
        
      </trkpt>
      <trkpt lat="43.220113" lon="144.136874">
        <ele>101.4</ele>
        <time>2023-10-02T01:47:18.000Z</time>
        
      </trkpt>
      <trkpt lat="43.220176" lon="144.136531">
        <ele>101.2</ele>
        <time>2023-10-02T01:47:56.000Z</time>
        
      </trkpt>
      <trkpt lat="43.219144" lon="144.136744">
        <ele>101.4</ele>
        <time>2023-10-02T01:49:06.000Z</time>
        
      </trkpt>
      <trkpt lat="43.217664" lon="144.137062">
        <ele>99.4</ele>
        <time>2023-10-02T01:49:34.000Z</time>
        
      </trkpt>
      <trkpt lat="43.216263" lon="144.137382">
        <ele>97.6</ele>
        <time>2023-10-02T01:50:02.000Z</time>
        
      </trkpt>
      <trkpt lat="43.216007" lon="144.135589">
        <ele>94.8</ele>
        <time>2023-10-02T01:50:49.000Z</time>
        
      </trkpt>
      <trkpt lat="43.215777" lon="144.133569">
        <ele>95.2</ele>
        <time>2023-10-02T01:51:17.000Z</time>
        
      </trkpt>
      <trkpt lat="43.215607" lon="144.132035">
        <ele>97.8</ele>
        <time>2023-10-02T01:51:45.000Z</time>
        
      </trkpt>
      <trkpt lat="43.215447" lon="144.130668">
        <ele>100</ele>
        <time>2023-10-02T01:52:13.000Z</time>
        
      </trkpt>
      <trkpt lat="43.215328" lon="144.129635">
        <ele>104.2</ele>
        <time>2023-10-02T01:52:41.000Z</time>
        
      </trkpt>
      <trkpt lat="43.215226" lon="144.128734">
        <ele>109.4</ele>
        <time>2023-10-02T01:53:09.000Z</time>
        
      </trkpt>
      <trkpt lat="43.215117" lon="144.127846">
        <ele>113.6</ele>
        <time>2023-10-02T01:53:37.000Z</time>
        
      </trkpt>
      <trkpt lat="43.214792" lon="144.127256">
        <ele>115.6</ele>
        <time>2023-10-02T01:54:05.000Z</time>
        
      </trkpt>
      <trkpt lat="43.212779" lon="144.12797">
        <ele>107.6</ele>
        <time>2023-10-02T01:54:33.000Z</time>
        
      </trkpt>
      <trkpt lat="43.210495" lon="144.128976">
        <ele>99.8</ele>
        <time>2023-10-02T01:55:01.000Z</time>
        
      </trkpt>
      <trkpt lat="43.208599" lon="144.129568">
        <ele>97.6</ele>
        <time>2023-10-02T01:55:29.000Z</time>
        
      </trkpt>
      <trkpt lat="43.20667" lon="144.130102">
        <ele>94.6</ele>
        <time>2023-10-02T01:55:57.000Z</time>
        
      </trkpt>
      <trkpt lat="43.204747" lon="144.13082">
        <ele>91.8</ele>
        <time>2023-10-02T01:56:25.000Z</time>
        
      </trkpt>
      <trkpt lat="43.203275" lon="144.131584">
        <ele>91.6</ele>
        <time>2023-10-02T01:56:53.000Z</time>
        
      </trkpt>
      <trkpt lat="43.201499" lon="144.131984">
        <ele>89.6</ele>
        <time>2023-10-02T01:57:21.000Z</time>
        
      </trkpt>
      <trkpt lat="43.200086" lon="144.132793">
        <ele>90.2</ele>
        <time>2023-10-02T01:57:49.000Z</time>
        
      </trkpt>
      <trkpt lat="43.198858" lon="144.133671">
        <ele>90.4</ele>
        <time>2023-10-02T01:58:17.000Z</time>
        
      </trkpt>
      <trkpt lat="43.19785" lon="144.133824">
        <ele>92.8</ele>
        <time>2023-10-02T01:58:45.000Z</time>
        
      </trkpt>
      <trkpt lat="43.197112" lon="144.133531">
        <ele>98</ele>
        <time>2023-10-02T01:59:13.000Z</time>
        
      </trkpt>
      <trkpt lat="43.196532" lon="144.133231">
        <ele>103.2</ele>
        <time>2023-10-02T01:59:41.000Z</time>
        
      </trkpt>
      <trkpt lat="43.196032" lon="144.132999">
        <ele>107.4</ele>
        <time>2023-10-02T02:00:09.000Z</time>
        
      </trkpt>
      <trkpt lat="43.195478" lon="144.132767">
        <ele>111.8</ele>
        <time>2023-10-02T02:00:37.000Z</time>
        
      </trkpt>
      <trkpt lat="43.194878" lon="144.132549">
        <ele>116.4</ele>
        <time>2023-10-02T02:01:05.000Z</time>
        
      </trkpt>
      <trkpt lat="43.194412" lon="144.133051">
        <ele>121</ele>
        <time>2023-10-02T02:01:33.000Z</time>
        
      </trkpt>
      <trkpt lat="43.194158" lon="144.13402">
        <ele>125</ele>
        <time>2023-10-02T02:02:01.000Z</time>
        
      </trkpt>
      <trkpt lat="43.19389" lon="144.134875">
        <ele>129</ele>
        <time>2023-10-02T02:02:29.000Z</time>
        
      </trkpt>
      <trkpt lat="43.193331" lon="144.13533">
        <ele>133.2</ele>
        <time>2023-10-02T02:02:57.000Z</time>
        
      </trkpt>
      <trkpt lat="43.192297" lon="144.13555">
        <ele>134.6</ele>
        <time>2023-10-02T02:03:25.000Z</time>
        
      </trkpt>
      <trkpt lat="43.191065" lon="144.135822">
        <ele>135.6</ele>
        <time>2023-10-02T02:03:53.000Z</time>
        
      </trkpt>
      <trkpt lat="43.1896" lon="144.136129">
        <ele>135.6</ele>
        <time>2023-10-02T02:04:21.000Z</time>
        
      </trkpt>
      <trkpt lat="43.187913" lon="144.136502">
        <ele>133.8</ele>
        <time>2023-10-02T02:04:49.000Z</time>
        
      </trkpt>
      <trkpt lat="43.186336" lon="144.136824">
        <ele>132</ele>
        <time>2023-10-02T02:05:17.000Z</time>
        
      </trkpt>
      <trkpt lat="43.185398" lon="144.137031">
        <ele>133.8</ele>
        <time>2023-10-02T02:05:45.000Z</time>
        
      </trkpt>
      <trkpt lat="43.183997" lon="144.137332">
        <ele>133.8</ele>
        <time>2023-10-02T02:06:13.000Z</time>
        
      </trkpt>
      <trkpt lat="43.182724" lon="144.137635">
        <ele>134.2</ele>
        <time>2023-10-02T02:06:41.000Z</time>
        
      </trkpt>
      <trkpt lat="43.181083" lon="144.138069">
        <ele>132</ele>
        <time>2023-10-02T02:07:09.000Z</time>
        
      </trkpt>
      <trkpt lat="43.179493" lon="144.139198">
        <ele>129</ele>
        <time>2023-10-02T02:07:37.000Z</time>
        
      </trkpt>
      <trkpt lat="43.177583" lon="144.140564">
        <ele>123.4</ele>
        <time>2023-10-02T02:08:05.000Z</time>
        
      </trkpt>
      <trkpt lat="43.175873" lon="144.14179">
        <ele>122</ele>
        <time>2023-10-02T02:08:33.000Z</time>
        
      </trkpt>
      <trkpt lat="43.174279" lon="144.142626">
        <ele>121.4</ele>
        <time>2023-10-02T02:09:01.000Z</time>
        
      </trkpt>
      <trkpt lat="43.172373" lon="144.143096">
        <ele>118.4</ele>
        <time>2023-10-02T02:09:29.000Z</time>
        
      </trkpt>
      <trkpt lat="43.170277" lon="144.143907">
        <ele>111</ele>
        <time>2023-10-02T02:09:57.000Z</time>
        
      </trkpt>
      <trkpt lat="43.168025" lon="144.144723">
        <ele>102.8</ele>
        <time>2023-10-02T02:10:25.000Z</time>
        
      </trkpt>
      <trkpt lat="43.166266" lon="144.144749">
        <ele>100.8</ele>
        <time>2023-10-02T02:10:53.000Z</time>
        
      </trkpt>
      <trkpt lat="43.164605" lon="144.144984">
        <ele>99.8</ele>
        <time>2023-10-02T02:11:21.000Z</time>
        
      </trkpt>
      <trkpt lat="43.162297" lon="144.145434">
        <ele>87.6</ele>
        <time>2023-10-02T02:11:49.000Z</time>
        
      </trkpt>
      <trkpt lat="43.159497" lon="144.146716">
        <ele>66.6</ele>
        <time>2023-10-02T02:12:17.000Z</time>
        
      </trkpt>
      <trkpt lat="43.157327" lon="144.148499">
        <ele>55.4</ele>
        <time>2023-10-02T02:12:45.000Z</time>
        
      </trkpt>
      <trkpt lat="43.155791" lon="144.149605">
        <ele>51.8</ele>
        <time>2023-10-02T02:13:13.000Z</time>
        
      </trkpt>
      <trkpt lat="43.154336" lon="144.150646">
        <ele>49.8</ele>
        <time>2023-10-02T02:13:41.000Z</time>
        
      </trkpt>
      <trkpt lat="43.153438" lon="144.150661">
        <ele>50</ele>
        <time>2023-10-02T02:14:09.000Z</time>
        
      </trkpt>
      <trkpt lat="43.152163" lon="144.149693">
        <ele>49.2</ele>
        <time>2023-10-02T02:14:37.000Z</time>
        
      </trkpt>
      <trkpt lat="43.150807" lon="144.149077">
        <ele>48.2</ele>
        <time>2023-10-02T02:15:05.000Z</time>
        
      </trkpt>
      <trkpt lat="43.149424" lon="144.148444">
        <ele>47.4</ele>
        <time>2023-10-02T02:15:33.000Z</time>
        
      </trkpt>
      <trkpt lat="43.147918" lon="144.147765">
        <ele>46.8</ele>
        <time>2023-10-02T02:16:01.000Z</time>
        
      </trkpt>
      <trkpt lat="43.146641" lon="144.147188">
        <ele>45.8</ele>
        <time>2023-10-02T02:16:29.000Z</time>
        
      </trkpt>
      <trkpt lat="43.145429" lon="144.146692">
        <ele>45.6</ele>
        <time>2023-10-02T02:16:57.000Z</time>
        
      </trkpt>
      <trkpt lat="43.144922" lon="144.145636">
        <ele>44.4</ele>
        <time>2023-10-02T02:17:25.000Z</time>
        
      </trkpt>
      <trkpt lat="43.14417" lon="144.145509">
        <ele>43.6</ele>
        <time>2023-10-02T02:17:58.000Z</time>
        
      </trkpt>
      <trkpt lat="43.144305" lon="144.146014">
        <ele>43.2</ele>
        <time>2023-10-02T02:42:15.000Z</time>
        
      </trkpt>
      <trkpt lat="43.144654" lon="144.14681">
        <ele>42.4</ele>
        <time>2023-10-02T02:42:43.000Z</time>
        
      </trkpt>
      <trkpt lat="43.144324" lon="144.148182">
        <ele>41</ele>
        <time>2023-10-02T02:43:11.000Z</time>
        
      </trkpt>
      <trkpt lat="43.143937" lon="144.149271">
        <ele>40.8</ele>
        <time>2023-10-02T02:43:39.000Z</time>
        
      </trkpt>
      <trkpt lat="43.14358" lon="144.148803">
        <ele>41.2</ele>
        <time>2023-10-02T02:44:07.000Z</time>
        
      </trkpt>
      <trkpt lat="43.143743" lon="144.148395">
        <ele>42.6</ele>
        <time>2023-10-02T03:27:46.000Z</time>
        
      </trkpt>
      <trkpt lat="43.144433" lon="144.147692">
        <ele>44.2</ele>
        <time>2023-10-02T03:28:14.000Z</time>
        
      </trkpt>
      <trkpt lat="43.144683" lon="144.146473">
        <ele>45.2</ele>
        <time>2023-10-02T03:28:42.000Z</time>
        
      </trkpt>
      <trkpt lat="43.14383" lon="144.14595">
        <ele>45.4</ele>
        <time>2023-10-02T03:29:10.000Z</time>
        
      </trkpt>
      <trkpt lat="43.142439" lon="144.145279">
        <ele>44.6</ele>
        <time>2023-10-02T03:29:38.000Z</time>
        
      </trkpt>
      <trkpt lat="43.141013" lon="144.144634">
        <ele>44.8</ele>
        <time>2023-10-02T03:30:06.000Z</time>
        
      </trkpt>
      <trkpt lat="43.139523" lon="144.143958">
        <ele>44</ele>
        <time>2023-10-02T03:30:34.000Z</time>
        
      </trkpt>
      <trkpt lat="43.138041" lon="144.143286">
        <ele>42</ele>
        <time>2023-10-02T03:31:02.000Z</time>
        
      </trkpt>
      <trkpt lat="43.136569" lon="144.142623">
        <ele>40.8</ele>
        <time>2023-10-02T03:31:30.000Z</time>
        
      </trkpt>
      <trkpt lat="43.135174" lon="144.141985">
        <ele>39.4</ele>
        <time>2023-10-02T03:31:58.000Z</time>
        
      </trkpt>
      <trkpt lat="43.133706" lon="144.141319">
        <ele>39.4</ele>
        <time>2023-10-02T03:32:26.000Z</time>
        
      </trkpt>
      <trkpt lat="43.132274" lon="144.140669">
        <ele>38.4</ele>
        <time>2023-10-02T03:32:54.000Z</time>
        
      </trkpt>
      <trkpt lat="43.130805" lon="144.13999">
        <ele>37</ele>
        <time>2023-10-02T03:33:22.000Z</time>
        
      </trkpt>
      <trkpt lat="43.129394" lon="144.139038">
        <ele>36.2</ele>
        <time>2023-10-02T03:33:50.000Z</time>
        
      </trkpt>
      <trkpt lat="43.127975" lon="144.137989">
        <ele>35.4</ele>
        <time>2023-10-02T03:34:18.000Z</time>
        
      </trkpt>
      <trkpt lat="43.126643" lon="144.136997">
        <ele>34.4</ele>
        <time>2023-10-02T03:34:46.000Z</time>
        
      </trkpt>
      <trkpt lat="43.125041" lon="144.136372">
        <ele>34.2</ele>
        <time>2023-10-02T03:35:14.000Z</time>
        
      </trkpt>
      <trkpt lat="43.123557" lon="144.136072">
        <ele>33.6</ele>
        <time>2023-10-02T03:35:42.000Z</time>
        
      </trkpt>
      <trkpt lat="43.121985" lon="144.135754">
        <ele>33.2</ele>
        <time>2023-10-02T03:36:10.000Z</time>
        
      </trkpt>
      <trkpt lat="43.120637" lon="144.135047">
        <ele>34</ele>
        <time>2023-10-02T03:36:38.000Z</time>
        
      </trkpt>
      <trkpt lat="43.11963" lon="144.133735">
        <ele>33</ele>
        <time>2023-10-02T03:37:06.000Z</time>
        
      </trkpt>
      <trkpt lat="43.118614" lon="144.13236">
        <ele>32.6</ele>
        <time>2023-10-02T03:37:34.000Z</time>
        
      </trkpt>
      <trkpt lat="43.117645" lon="144.131042">
        <ele>33</ele>
        <time>2023-10-02T03:38:02.000Z</time>
        
      </trkpt>
      <trkpt lat="43.116685" lon="144.129767">
        <ele>33.2</ele>
        <time>2023-10-02T03:38:30.000Z</time>
        
      </trkpt>
      <trkpt lat="43.115707" lon="144.128447">
        <ele>32.2</ele>
        <time>2023-10-02T03:38:58.000Z</time>
        
      </trkpt>
      <trkpt lat="43.11475" lon="144.127295">
        <ele>33.2</ele>
        <time>2023-10-02T03:39:26.000Z</time>
        
      </trkpt>
      <trkpt lat="43.113875" lon="144.126233">
        <ele>31.6</ele>
        <time>2023-10-02T03:39:54.000Z</time>
        
      </trkpt>
      <trkpt lat="43.113343" lon="144.125172">
        <ele>30.8</ele>
        <time>2023-10-02T03:40:22.000Z</time>
        
      </trkpt>
      <trkpt lat="43.11282" lon="144.124969">
        <ele>32.6</ele>
        <time>2023-10-02T04:09:00.000Z</time>
        
      </trkpt>
      <trkpt lat="43.111921" lon="144.124265">
        <ele>32.6</ele>
        <time>2023-10-02T04:10:00.000Z</time>
        
      </trkpt>
      <trkpt lat="43.11075" lon="144.123736">
        <ele>32</ele>
        <time>2023-10-02T04:10:28.000Z</time>
        
      </trkpt>
      <trkpt lat="43.109588" lon="144.123194">
        <ele>32.8</ele>
        <time>2023-10-02T04:10:56.000Z</time>
        
      </trkpt>
      <trkpt lat="43.108303" lon="144.122631">
        <ele>32.8</ele>
        <time>2023-10-02T04:11:24.000Z</time>
        
      </trkpt>
      <trkpt lat="43.107001" lon="144.12204">
        <ele>32.4</ele>
        <time>2023-10-02T04:11:52.000Z</time>
        
      </trkpt>
      <trkpt lat="43.10594" lon="144.121581">
        <ele>33</ele>
        <time>2023-10-02T04:12:20.000Z</time>
        
      </trkpt>
      <trkpt lat="43.104978" lon="144.121129">
        <ele>33.4</ele>
        <time>2023-10-02T04:12:48.000Z</time>
        
      </trkpt>
      <trkpt lat="43.103656" lon="144.120528">
        <ele>33</ele>
        <time>2023-10-02T04:13:16.000Z</time>
        
      </trkpt>
      <trkpt lat="43.103124" lon="144.122062">
        <ele>31.6</ele>
        <time>2023-10-02T04:13:44.000Z</time>
        
      </trkpt>
      <trkpt lat="43.102627" lon="144.124088">
        <ele>31</ele>
        <time>2023-10-02T04:14:12.000Z</time>
        
      </trkpt>
      <trkpt lat="43.102126" lon="144.126199">
        <ele>30.8</ele>
        <time>2023-10-02T04:14:40.000Z</time>
        
      </trkpt>
      <trkpt lat="43.10141" lon="144.127993">
        <ele>31.2</ele>
        <time>2023-10-02T04:15:08.000Z</time>
        
      </trkpt>
      <trkpt lat="43.100936" lon="144.128764">
        <ele>31.2</ele>
        <time>2023-10-02T04:15:36.000Z</time>
        
      </trkpt>
      <trkpt lat="43.100972" lon="144.129535">
        <ele>33.4</ele>
        <time>2023-10-02T04:16:04.000Z</time>
        
      </trkpt>
      <trkpt lat="43.100118" lon="144.128753">
        <ele>34</ele>
        <time>2023-10-02T04:16:32.000Z</time>
        
      </trkpt>
      <trkpt lat="43.099202" lon="144.128116">
        <ele>35.2</ele>
        <time>2023-10-02T04:17:31.000Z</time>
        
      </trkpt>
      <trkpt lat="43.097833" lon="144.12845">
        <ele>35.2</ele>
        <time>2023-10-02T04:17:59.000Z</time>
        
      </trkpt>
      <trkpt lat="43.097015" lon="144.130225">
        <ele>34.6</ele>
        <time>2023-10-02T04:18:27.000Z</time>
        
      </trkpt>
      <trkpt lat="43.096881" lon="144.132547">
        <ele>33.2</ele>
        <time>2023-10-02T04:18:55.000Z</time>
        
      </trkpt>
      <trkpt lat="43.096801" lon="144.134144">
        <ele>32.6</ele>
        <time>2023-10-02T04:19:23.000Z</time>
        
      </trkpt>
      <trkpt lat="43.096703" lon="144.13581">
        <ele>32.6</ele>
        <time>2023-10-02T04:19:51.000Z</time>
        
      </trkpt>
      <trkpt lat="43.096592" lon="144.137715">
        <ele>32.4</ele>
        <time>2023-10-02T04:20:19.000Z</time>
        
      </trkpt>
      <trkpt lat="43.096436" lon="144.139602">
        <ele>32.4</ele>
        <time>2023-10-02T04:20:47.000Z</time>
        
      </trkpt>
      <trkpt lat="43.095882" lon="144.140999">
        <ele>32.2</ele>
        <time>2023-10-02T04:21:15.000Z</time>
        
      </trkpt>
      <trkpt lat="43.095147" lon="144.14195">
        <ele>31.8</ele>
        <time>2023-10-02T04:22:03.000Z</time>
        
      </trkpt>
      <trkpt lat="43.093848" lon="144.142931">
        <ele>31.2</ele>
        <time>2023-10-02T04:22:31.000Z</time>
        
      </trkpt>
      <trkpt lat="43.092368" lon="144.143568">
        <ele>30.2</ele>
        <time>2023-10-02T04:22:59.000Z</time>
        
      </trkpt>
      <trkpt lat="43.091157" lon="144.14406">
        <ele>29.8</ele>
        <time>2023-10-02T04:23:27.000Z</time>
        
      </trkpt>
      <trkpt lat="43.089719" lon="144.144662">
        <ele>29</ele>
        <time>2023-10-02T04:23:55.000Z</time>
        
      </trkpt>
      <trkpt lat="43.088285" lon="144.145262">
        <ele>28.4</ele>
        <time>2023-10-02T04:24:23.000Z</time>
        
      </trkpt>
      <trkpt lat="43.086939" lon="144.146089">
        <ele>28.8</ele>
        <time>2023-10-02T04:24:51.000Z</time>
        
      </trkpt>
      <trkpt lat="43.085892" lon="144.147248">
        <ele>28.6</ele>
        <time>2023-10-02T04:25:19.000Z</time>
        
      </trkpt>
      <trkpt lat="43.085094" lon="144.148724">
        <ele>28</ele>
        <time>2023-10-02T04:25:47.000Z</time>
        
      </trkpt>
      <trkpt lat="43.084513" lon="144.150486">
        <ele>27.6</ele>
        <time>2023-10-02T04:26:15.000Z</time>
        
      </trkpt>
      <trkpt lat="43.084041" lon="144.15225">
        <ele>27.4</ele>
        <time>2023-10-02T04:26:43.000Z</time>
        
      </trkpt>
      <trkpt lat="43.083889" lon="144.154268">
        <ele>26.6</ele>
        <time>2023-10-02T04:27:11.000Z</time>
        
      </trkpt>
      <trkpt lat="43.08407" lon="144.155995">
        <ele>26.2</ele>
        <time>2023-10-02T04:27:39.000Z</time>
        
      </trkpt>
      <trkpt lat="43.084634" lon="144.157986">
        <ele>25.8</ele>
        <time>2023-10-02T04:28:07.000Z</time>
        
      </trkpt>
      <trkpt lat="43.085273" lon="144.160081">
        <ele>25.4</ele>
        <time>2023-10-02T04:28:35.000Z</time>
        
      </trkpt>
      <trkpt lat="43.085537" lon="144.160957">
        <ele>25</ele>
        <time>2023-10-02T04:29:41.000Z</time>
        
      </trkpt>
      <trkpt lat="43.085752" lon="144.161674">
        <ele>25</ele>
        <time>2023-10-02T04:31:14.000Z</time>
        
      </trkpt>
      <trkpt lat="43.086222" lon="144.163212">
        <ele>25.2</ele>
        <time>2023-10-02T04:31:42.000Z</time>
        
      </trkpt>
      <trkpt lat="43.086736" lon="144.16491">
        <ele>25.6</ele>
        <time>2023-10-02T04:32:10.000Z</time>
        
      </trkpt>
      <trkpt lat="43.087186" lon="144.166372">
        <ele>25</ele>
        <time>2023-10-02T04:32:38.000Z</time>
        
      </trkpt>
      <trkpt lat="43.087805" lon="144.168399">
        <ele>25</ele>
        <time>2023-10-02T04:33:06.000Z</time>
        
      </trkpt>
      <trkpt lat="43.088417" lon="144.17042">
        <ele>24.6</ele>
        <time>2023-10-02T04:33:34.000Z</time>
        
      </trkpt>
      <trkpt lat="43.089025" lon="144.172426">
        <ele>24</ele>
        <time>2023-10-02T04:34:02.000Z</time>
        
      </trkpt>
      <trkpt lat="43.089629" lon="144.174392">
        <ele>24</ele>
        <time>2023-10-02T04:34:30.000Z</time>
        
      </trkpt>
      <trkpt lat="43.089899" lon="144.176354">
        <ele>24.6</ele>
        <time>2023-10-02T04:34:58.000Z</time>
        
      </trkpt>
      <trkpt lat="43.089391" lon="144.17806">
        <ele>25</ele>
        <time>2023-10-02T04:35:26.000Z</time>
        
      </trkpt>
      <trkpt lat="43.088474" lon="144.179705">
        <ele>24.2</ele>
        <time>2023-10-02T04:35:54.000Z</time>
        
      </trkpt>
      <trkpt lat="43.087657" lon="144.181527">
        <ele>24</ele>
        <time>2023-10-02T04:36:22.000Z</time>
        
      </trkpt>
      <trkpt lat="43.087134" lon="144.183565">
        <ele>23.4</ele>
        <time>2023-10-02T04:36:50.000Z</time>
        
      </trkpt>
      <trkpt lat="43.08666" lon="144.185423">
        <ele>23.6</ele>
        <time>2023-10-02T04:37:18.000Z</time>
        
      </trkpt>
      <trkpt lat="43.0862" lon="144.187272">
        <ele>23.2</ele>
        <time>2023-10-02T04:37:46.000Z</time>
        
      </trkpt>
      <trkpt lat="43.085722" lon="144.189166">
        <ele>23.8</ele>
        <time>2023-10-02T04:38:14.000Z</time>
        
      </trkpt>
      <trkpt lat="43.085256" lon="144.19099">
        <ele>23.8</ele>
        <time>2023-10-02T04:38:42.000Z</time>
        
      </trkpt>
      <trkpt lat="43.084796" lon="144.192707">
        <ele>24.2</ele>
        <time>2023-10-02T04:39:10.000Z</time>
        
      </trkpt>
      <trkpt lat="43.083972" lon="144.194234">
        <ele>23</ele>
        <time>2023-10-02T04:39:38.000Z</time>
        
      </trkpt>
      <trkpt lat="43.082992" lon="144.19569">
        <ele>23</ele>
        <time>2023-10-02T04:40:06.000Z</time>
        
      </trkpt>
      <trkpt lat="43.082153" lon="144.197416">
        <ele>22.8</ele>
        <time>2023-10-02T04:40:34.000Z</time>
        
      </trkpt>
      <trkpt lat="43.081295" lon="144.199238">
        <ele>21.8</ele>
        <time>2023-10-02T04:41:02.000Z</time>
        
      </trkpt>
      <trkpt lat="43.080452" lon="144.201087">
        <ele>20.6</ele>
        <time>2023-10-02T04:41:30.000Z</time>
        
      </trkpt>
      <trkpt lat="43.079617" lon="144.202889">
        <ele>20.6</ele>
        <time>2023-10-02T04:41:58.000Z</time>
        
      </trkpt>
      <trkpt lat="43.078865" lon="144.20453">
        <ele>21</ele>
        <time>2023-10-02T04:42:26.000Z</time>
        
      </trkpt>
      <trkpt lat="43.078314" lon="144.206326">
        <ele>20.6</ele>
        <time>2023-10-02T04:42:54.000Z</time>
        
      </trkpt>
      <trkpt lat="43.078093" lon="144.208143">
        <ele>21.6</ele>
        <time>2023-10-02T04:43:22.000Z</time>
        
      </trkpt>
      <trkpt lat="43.077909" lon="144.209864">
        <ele>21.8</ele>
        <time>2023-10-02T04:43:50.000Z</time>
        
      </trkpt>
      <trkpt lat="43.077765" lon="144.211177">
        <ele>21</ele>
        <time>2023-10-02T04:44:18.000Z</time>
        
      </trkpt>
      <trkpt lat="43.077607" lon="144.212322">
        <ele>21.2</ele>
        <time>2023-10-02T04:44:46.000Z</time>
        
      </trkpt>
      <trkpt lat="43.076903" lon="144.213743">
        <ele>21.6</ele>
        <time>2023-10-02T04:45:14.000Z</time>
        
      </trkpt>
      <trkpt lat="43.075872" lon="144.215234">
        <ele>20.6</ele>
        <time>2023-10-02T04:45:42.000Z</time>
        
      </trkpt>
      <trkpt lat="43.075697" lon="144.217723">
        <ele>20.8</ele>
        <time>2023-10-02T04:46:10.000Z</time>
        
      </trkpt>
      <trkpt lat="43.076606" lon="144.219731">
        <ele>21.8</ele>
        <time>2023-10-02T04:46:38.000Z</time>
        
      </trkpt>
      <trkpt lat="43.077062" lon="144.221721">
        <ele>21.6</ele>
        <time>2023-10-02T04:47:06.000Z</time>
        
      </trkpt>
      <trkpt lat="43.077379" lon="144.223936">
        <ele>19.8</ele>
        <time>2023-10-02T04:47:34.000Z</time>
        
      </trkpt>
      <trkpt lat="43.077689" lon="144.226133">
        <ele>19.8</ele>
        <time>2023-10-02T04:48:02.000Z</time>
        
      </trkpt>
      <trkpt lat="43.077978" lon="144.228253">
        <ele>20.4</ele>
        <time>2023-10-02T04:48:30.000Z</time>
        
      </trkpt>
      <trkpt lat="43.078264" lon="144.230411">
        <ele>20.6</ele>
        <time>2023-10-02T04:48:58.000Z</time>
        
      </trkpt>
      <trkpt lat="43.078217" lon="144.231714">
        <ele>19.8</ele>
        <time>2023-10-02T04:51:05.000Z</time>
        
      </trkpt>
      <trkpt lat="43.077875" lon="144.233037">
        <ele>20</ele>
        <time>2023-10-02T04:52:28.000Z</time>
        
      </trkpt>
      <trkpt lat="43.077264" lon="144.234751">
        <ele>20</ele>
        <time>2023-10-02T04:52:56.000Z</time>
        
      </trkpt>
      <trkpt lat="43.076611" lon="144.236565">
        <ele>19.8</ele>
        <time>2023-10-02T04:53:24.000Z</time>
        
      </trkpt>
      <trkpt lat="43.075981" lon="144.238449">
        <ele>19.4</ele>
        <time>2023-10-02T04:53:52.000Z</time>
        
      </trkpt>
      <trkpt lat="43.075559" lon="144.239783">
        <ele>18.4</ele>
        <time>2023-10-02T04:54:31.000Z</time>
        
      </trkpt>
      <trkpt lat="43.075041" lon="144.241321">
        <ele>18.8</ele>
        <time>2023-10-02T04:55:21.000Z</time>
        
      </trkpt>
      <trkpt lat="43.074476" lon="144.243374">
        <ele>18</ele>
        <time>2023-10-02T04:55:49.000Z</time>
        
      </trkpt>
      <trkpt lat="43.074049" lon="144.2455">
        <ele>18.2</ele>
        <time>2023-10-02T04:56:17.000Z</time>
        
      </trkpt>
      <trkpt lat="43.073733" lon="144.247573">
        <ele>17.4</ele>
        <time>2023-10-02T04:56:45.000Z</time>
        
      </trkpt>
      <trkpt lat="43.073425" lon="144.249599">
        <ele>17.6</ele>
        <time>2023-10-02T04:57:13.000Z</time>
        
      </trkpt>
      <trkpt lat="43.073217" lon="144.250994">
        <ele>16</ele>
        <time>2023-10-02T04:57:45.000Z</time>
        
      </trkpt>
      <trkpt lat="43.072945" lon="144.252778">
        <ele>17.2</ele>
        <time>2023-10-02T04:58:13.000Z</time>
        
      </trkpt>
      <trkpt lat="43.072639" lon="144.254785">
        <ele>17.4</ele>
        <time>2023-10-02T04:58:41.000Z</time>
        
      </trkpt>
      <trkpt lat="43.072313" lon="144.256897">
        <ele>16.8</ele>
        <time>2023-10-02T04:59:09.000Z</time>
        
      </trkpt>
      <trkpt lat="43.07209" lon="144.258387">
        <ele>17.2</ele>
        <time>2023-10-02T04:59:37.000Z</time>
        
      </trkpt>
      <trkpt lat="43.071814" lon="144.260188">
        <ele>17.6</ele>
        <time>2023-10-02T05:00:05.000Z</time>
        
      </trkpt>
      <trkpt lat="43.071518" lon="144.262142">
        <ele>16.8</ele>
        <time>2023-10-02T05:00:33.000Z</time>
        
      </trkpt>
      <trkpt lat="43.071181" lon="144.264328">
        <ele>17.2</ele>
        <time>2023-10-02T05:01:01.000Z</time>
        
      </trkpt>
      <trkpt lat="43.070866" lon="144.266417">
        <ele>17.6</ele>
        <time>2023-10-02T05:01:29.000Z</time>
        
      </trkpt>
      <trkpt lat="43.070549" lon="144.268494">
        <ele>17.8</ele>
        <time>2023-10-02T05:01:57.000Z</time>
        
      </trkpt>
      <trkpt lat="43.070232" lon="144.270549">
        <ele>16.6</ele>
        <time>2023-10-02T05:02:25.000Z</time>
        
      </trkpt>
      <trkpt lat="43.069971" lon="144.272298">
        <ele>15.8</ele>
        <time>2023-10-02T05:02:53.000Z</time>
        
      </trkpt>
      <trkpt lat="43.069672" lon="144.274177">
        <ele>15.8</ele>
        <time>2023-10-02T05:03:21.000Z</time>
        
      </trkpt>
      <trkpt lat="43.069304" lon="144.276215">
        <ele>14.8</ele>
        <time>2023-10-02T05:03:49.000Z</time>
        
      </trkpt>
      <trkpt lat="43.068696" lon="144.277992">
        <ele>15.2</ele>
        <time>2023-10-02T05:04:17.000Z</time>
        
      </trkpt>
      <trkpt lat="43.067396" lon="144.278955">
        <ele>14.8</ele>
        <time>2023-10-02T05:04:45.000Z</time>
        
      </trkpt>
      <trkpt lat="43.066056" lon="144.279559">
        <ele>15</ele>
        <time>2023-10-02T05:05:13.000Z</time>
        
      </trkpt>
      <trkpt lat="43.064825" lon="144.280245">
        <ele>15.4</ele>
        <time>2023-10-02T05:05:41.000Z</time>
        
      </trkpt>
      <trkpt lat="43.063755" lon="144.281303">
        <ele>15.4</ele>
        <time>2023-10-02T05:06:09.000Z</time>
        
      </trkpt>
      <trkpt lat="43.06286" lon="144.282544">
        <ele>15.4</ele>
        <time>2023-10-02T05:06:37.000Z</time>
        
      </trkpt>
      <trkpt lat="43.062476" lon="144.283185">
        <ele>15</ele>
        <time>2023-10-02T05:07:21.000Z</time>
        
      </trkpt>
      <trkpt lat="43.061919" lon="144.283876">
        <ele>14.8</ele>
        <time>2023-10-02T05:13:37.000Z</time>
        
      </trkpt>
      <trkpt lat="43.060953" lon="144.285235">
        <ele>14.8</ele>
        <time>2023-10-02T05:14:05.000Z</time>
        
      </trkpt>
      <trkpt lat="43.059979" lon="144.286602">
        <ele>13.8</ele>
        <time>2023-10-02T05:14:33.000Z</time>
        
      </trkpt>
      <trkpt lat="43.059209" lon="144.287691">
        <ele>13.8</ele>
        <time>2023-10-02T05:15:11.000Z</time>
        
      </trkpt>
      <trkpt lat="43.058355" lon="144.28904">
        <ele>13.6</ele>
        <time>2023-10-02T05:15:39.000Z</time>
        
      </trkpt>
      <trkpt lat="43.057848" lon="144.290846">
        <ele>13.4</ele>
        <time>2023-10-02T05:16:07.000Z</time>
        
      </trkpt>
      <trkpt lat="43.057688" lon="144.292797">
        <ele>13.2</ele>
        <time>2023-10-02T05:16:35.000Z</time>
        
      </trkpt>
      <trkpt lat="43.057536" lon="144.294755">
        <ele>13.2</ele>
        <time>2023-10-02T05:17:03.000Z</time>
        
      </trkpt>
      <trkpt lat="43.057255" lon="144.296703">
        <ele>12.4</ele>
        <time>2023-10-02T05:17:31.000Z</time>
        
      </trkpt>
      <trkpt lat="43.056731" lon="144.298332">
        <ele>12.4</ele>
        <time>2023-10-02T05:17:59.000Z</time>
        
      </trkpt>
      <trkpt lat="43.056112" lon="144.300074">
        <ele>12.4</ele>
        <time>2023-10-02T05:18:27.000Z</time>
        
      </trkpt>
      <trkpt lat="43.055487" lon="144.301855">
        <ele>12.2</ele>
        <time>2023-10-02T05:18:55.000Z</time>
        
      </trkpt>
      <trkpt lat="43.054769" lon="144.303521">
        <ele>12.2</ele>
        <time>2023-10-02T05:19:23.000Z</time>
        
      </trkpt>
      <trkpt lat="43.053762" lon="144.304888">
        <ele>12.2</ele>
        <time>2023-10-02T05:19:51.000Z</time>
        
      </trkpt>
      <trkpt lat="43.052578" lon="144.305889">
        <ele>12.2</ele>
        <time>2023-10-02T05:20:19.000Z</time>
        
      </trkpt>
      <trkpt lat="43.051439" lon="144.306789">
        <ele>11.6</ele>
        <time>2023-10-02T05:20:47.000Z</time>
        
      </trkpt>
      <trkpt lat="43.05029" lon="144.307688">
        <ele>11.2</ele>
        <time>2023-10-02T05:21:15.000Z</time>
        
      </trkpt>
      <trkpt lat="43.04909" lon="144.30862">
        <ele>11.2</ele>
        <time>2023-10-02T05:21:43.000Z</time>
        
      </trkpt>
      <trkpt lat="43.047913" lon="144.309835">
        <ele>11</ele>
        <time>2023-10-02T05:22:11.000Z</time>
        
      </trkpt>
      <trkpt lat="43.04697" lon="144.311398">
        <ele>10.6</ele>
        <time>2023-10-02T05:22:39.000Z</time>
        
      </trkpt>
      <trkpt lat="43.046084" lon="144.313">
        <ele>10.4</ele>
        <time>2023-10-02T05:23:07.000Z</time>
        
      </trkpt>
      <trkpt lat="43.045188" lon="144.31459">
        <ele>10.8</ele>
        <time>2023-10-02T05:23:35.000Z</time>
        
      </trkpt>
      <trkpt lat="43.044275" lon="144.316156">
        <ele>10.6</ele>
        <time>2023-10-02T05:24:03.000Z</time>
        
      </trkpt>
      <trkpt lat="43.043069" lon="144.317239">
        <ele>10.4</ele>
        <time>2023-10-02T05:24:31.000Z</time>
        
      </trkpt>
      <trkpt lat="43.041807" lon="144.318148">
        <ele>10.2</ele>
        <time>2023-10-02T05:24:59.000Z</time>
        
      </trkpt>
      <trkpt lat="43.040893" lon="144.318811">
        <ele>10.4</ele>
        <time>2023-10-02T05:25:27.000Z</time>
        
      </trkpt>
      <trkpt lat="43.039664" lon="144.31969">
        <ele>10</ele>
        <time>2023-10-02T05:25:55.000Z</time>
        
      </trkpt>
      <trkpt lat="43.038477" lon="144.319665">
        <ele>8.6</ele>
        <time>2023-10-02T05:26:23.000Z</time>
        
      </trkpt>
      <trkpt lat="43.03781" lon="144.32103">
        <ele>9.2</ele>
        <time>2023-10-02T05:26:51.000Z</time>
        
      </trkpt>
      <trkpt lat="43.03657" lon="144.321923">
        <ele>8.6</ele>
        <time>2023-10-02T05:27:19.000Z</time>
        
      </trkpt>
      <trkpt lat="43.035477" lon="144.322703">
        <ele>8.4</ele>
        <time>2023-10-02T05:27:47.000Z</time>
        
      </trkpt>
      <trkpt lat="43.034252" lon="144.323582">
        <ele>9</ele>
        <time>2023-10-02T05:28:15.000Z</time>
        
      </trkpt>
      <trkpt lat="43.03301" lon="144.324323">
        <ele>8.8</ele>
        <time>2023-10-02T05:28:43.000Z</time>
        
      </trkpt>
      <trkpt lat="43.031827" lon="144.325172">
        <ele>9</ele>
        <time>2023-10-02T05:29:11.000Z</time>
        
      </trkpt>
      <trkpt lat="43.030642" lon="144.326025">
        <ele>9</ele>
        <time>2023-10-02T05:29:39.000Z</time>
        
      </trkpt>
      <trkpt lat="43.029445" lon="144.326996">
        <ele>9</ele>
        <time>2023-10-02T05:30:07.000Z</time>
        
      </trkpt>
      <trkpt lat="43.028381" lon="144.328527">
        <ele>5.6</ele>
        <time>2023-10-02T05:30:35.000Z</time>
        
      </trkpt>
      <trkpt lat="43.027344" lon="144.328944">
        <ele>8.6</ele>
        <time>2023-10-02T05:31:03.000Z</time>
        
      </trkpt>
      <trkpt lat="43.026339" lon="144.329307">
        <ele>9.4</ele>
        <time>2023-10-02T05:31:31.000Z</time>
        
      </trkpt>
      <trkpt lat="43.025312" lon="144.330373">
        <ele>9.6</ele>
        <time>2023-10-02T05:31:59.000Z</time>
        
      </trkpt>
      <trkpt lat="43.024465" lon="144.331813">
        <ele>9.6</ele>
        <time>2023-10-02T05:32:27.000Z</time>
        
      </trkpt>
      <trkpt lat="43.023881" lon="144.333567">
        <ele>9</ele>
        <time>2023-10-02T05:32:55.000Z</time>
        
      </trkpt>
      <trkpt lat="43.02337" lon="144.335552">
        <ele>8.4</ele>
        <time>2023-10-02T05:33:23.000Z</time>
        
      </trkpt>
      <trkpt lat="43.022897" lon="144.337406">
        <ele>7.6</ele>
        <time>2023-10-02T05:33:51.000Z</time>
        
      </trkpt>
      <trkpt lat="43.022443" lon="144.339242">
        <ele>7.8</ele>
        <time>2023-10-02T05:34:19.000Z</time>
        
      </trkpt>
      <trkpt lat="43.021989" lon="144.34099">
        <ele>7.6</ele>
        <time>2023-10-02T05:34:47.000Z</time>
        
      </trkpt>
      <trkpt lat="43.021536" lon="144.342743">
        <ele>8.6</ele>
        <time>2023-10-02T05:35:15.000Z</time>
        
      </trkpt>
      <trkpt lat="43.021242" lon="144.343899">
        <ele>7.8</ele>
        <time>2023-10-02T05:35:43.000Z</time>
        
      </trkpt>
      <trkpt lat="43.020844" lon="144.345476">
        <ele>7.8</ele>
        <time>2023-10-02T05:36:11.000Z</time>
        
      </trkpt>
      <trkpt lat="43.020583" lon="144.346482">
        <ele>7.8</ele>
        <time>2023-10-02T05:36:39.000Z</time>
        
      </trkpt>
      <trkpt lat="43.020142" lon="144.348187">
        <ele>8.2</ele>
        <time>2023-10-02T05:37:07.000Z</time>
        
      </trkpt>
      <trkpt lat="43.019701" lon="144.349943">
        <ele>8.2</ele>
        <time>2023-10-02T05:37:35.000Z</time>
        
      </trkpt>
      <trkpt lat="43.01937" lon="144.351221">
        <ele>7.8</ele>
        <time>2023-10-02T05:38:03.000Z</time>
        
      </trkpt>
      <trkpt lat="43.01911" lon="144.352883">
        <ele>8.4</ele>
        <time>2023-10-02T05:38:31.000Z</time>
        
      </trkpt>
      <trkpt lat="43.01902" lon="144.354834">
        <ele>8.4</ele>
        <time>2023-10-02T05:38:59.000Z</time>
        
      </trkpt>
      <trkpt lat="43.018956" lon="144.356195">
        <ele>6.8</ele>
        <time>2023-10-02T05:39:34.000Z</time>
        
      </trkpt>
      <trkpt lat="43.018883" lon="144.357571">
        <ele>8.2</ele>
        <time>2023-10-02T05:40:02.000Z</time>
        
      </trkpt>
      <trkpt lat="43.018802" lon="144.359444">
        <ele>8.2</ele>
        <time>2023-10-02T05:40:30.000Z</time>
        
      </trkpt>
      <trkpt lat="43.018687" lon="144.361405">
        <ele>7.8</ele>
        <time>2023-10-02T05:40:58.000Z</time>
        
      </trkpt>
      <trkpt lat="43.018871" lon="144.362069">
        <ele>6.2</ele>
        <time>2023-10-02T05:41:38.000Z</time>
        
      </trkpt>
      <trkpt lat="43.018549" lon="144.362924">
        <ele>7.2</ele>
        <time>2023-10-02T05:42:53.000Z</time>
        
      </trkpt>
      <trkpt lat="43.017881" lon="144.363976">
        <ele>7</ele>
        <time>2023-10-02T05:43:21.000Z</time>
        
      </trkpt>
      <trkpt lat="43.017352" lon="144.36537">
        <ele>7.2</ele>
        <time>2023-10-02T05:43:49.000Z</time>
        
      </trkpt>
      <trkpt lat="43.016709" lon="144.366847">
        <ele>7</ele>
        <time>2023-10-02T05:44:17.000Z</time>
        
      </trkpt>
      <trkpt lat="43.016121" lon="144.368189">
        <ele>7.6</ele>
        <time>2023-10-02T05:44:45.000Z</time>
        
      </trkpt>
      <trkpt lat="43.015661" lon="144.369239">
        <ele>9</ele>
        <time>2023-10-02T05:45:13.000Z</time>
        
      </trkpt>
      <trkpt lat="43.015338" lon="144.37003">
        <ele>11.8</ele>
        <time>2023-10-02T05:48:30.000Z</time>
        
      </trkpt>
      <trkpt lat="43.014851" lon="144.371165">
        <ele>12.6</ele>
        <time>2023-10-02T05:48:58.000Z</time>
        
      </trkpt>
      <trkpt lat="43.014323" lon="144.372315">
        <ele>9.6</ele>
        <time>2023-10-02T05:49:44.000Z</time>
        
      </trkpt>
      <trkpt lat="43.013381" lon="144.371795">
        <ele>8.8</ele>
        <time>2023-10-02T05:50:54.000Z</time>
        
      </trkpt>
      <trkpt lat="43.012448" lon="144.371929">
        <ele>6.8</ele>
        <time>2023-10-02T05:51:22.000Z</time>
        
      </trkpt>
      <trkpt lat="43.011622" lon="144.373652">
        <ele>6</ele>
        <time>2023-10-02T05:51:50.000Z</time>
        
      </trkpt>
      <trkpt lat="43.010884" lon="144.37502">
        <ele>6.2</ele>
        <time>2023-10-02T05:52:18.000Z</time>
        
      </trkpt>
      <trkpt lat="43.010339" lon="144.376059">
        <ele>5.6</ele>
        <time>2023-10-02T05:53:42.000Z</time>
        
      </trkpt>
      <trkpt lat="43.009678" lon="144.377305">
        <ele>6.4</ele>
        <time>2023-10-02T05:54:10.000Z</time>
        
      </trkpt>
      <trkpt lat="43.008924" lon="144.378713">
        <ele>6</ele>
        <time>2023-10-02T05:54:38.000Z</time>
        
      </trkpt>
      <trkpt lat="43.008177" lon="144.380094">
        <ele>5.8</ele>
        <time>2023-10-02T05:55:06.000Z</time>
        
      </trkpt>
      <trkpt lat="43.007467" lon="144.381448">
        <ele>5.8</ele>
        <time>2023-10-02T05:55:34.000Z</time>
        
      </trkpt>
      <trkpt lat="43.006889" lon="144.382228">
        <ele>5.8</ele>
        <time>2023-10-02T05:59:48.000Z</time>
        
      </trkpt>
      <trkpt lat="43.006104" lon="144.381425">
        <ele>7</ele>
        <time>2023-10-02T06:00:16.000Z</time>
        
      </trkpt>
      <trkpt lat="43.005514" lon="144.380787">
        <ele>7</ele>
        <time>2023-10-02T06:00:44.000Z</time>
        
      </trkpt>
      <trkpt lat="43.004751" lon="144.379595">
        <ele>7</ele>
        <time>2023-10-02T06:01:56.000Z</time>
        
      </trkpt>
      <trkpt lat="43.004009" lon="144.37841">
        <ele>7.4</ele>
        <time>2023-10-02T06:02:24.000Z</time>
        
      </trkpt>
      <trkpt lat="43.003316" lon="144.378414">
        <ele>7.8</ele>
        <time>2023-10-02T06:02:52.000Z</time>
        
      </trkpt>
      <trkpt lat="43.002339" lon="144.378726">
        <ele>8</ele>
        <time>2023-10-02T06:03:20.000Z</time>
        
      </trkpt>
      <trkpt lat="43.001958" lon="144.377873">
        <ele>8.6</ele>
        <time>2023-10-02T06:03:56.000Z</time>
        
      </trkpt>
      <trkpt lat="43.001402" lon="144.377495">
        <ele>9</ele>
        <time>2023-10-02T06:04:41.000Z</time>
        
      </trkpt>
      <trkpt lat="43.000155" lon="144.377888">
        <ele>9</ele>
        <time>2023-10-02T06:05:09.000Z</time>
        
      </trkpt>
      <trkpt lat="42.999361" lon="144.378132">
        <ele>8.6</ele>
        <time>2023-10-02T06:06:36.000Z</time>
        
      </trkpt>
      <trkpt lat="42.99814" lon="144.378547">
        <ele>8.6</ele>
        <time>2023-10-02T06:07:04.000Z</time>
        
      </trkpt>
      <trkpt lat="42.996833" lon="144.378964">
        <ele>8.6</ele>
        <time>2023-10-02T06:07:32.000Z</time>
        
      </trkpt>
      <trkpt lat="42.995654" lon="144.379214">
        <ele>7.6</ele>
        <time>2023-10-02T06:08:00.000Z</time>
        
      </trkpt>
      <trkpt lat="42.994811" lon="144.379311">
        <ele>7.8</ele>
        <time>2023-10-02T06:08:32.000Z</time>
        
      </trkpt>
      <trkpt lat="42.993507" lon="144.379752">
        <ele>8.4</ele>
        <time>2023-10-02T06:09:00.000Z</time>
        
      </trkpt>
      <trkpt lat="42.99268" lon="144.380731">
        <ele>8</ele>
        <time>2023-10-02T06:09:28.000Z</time>
        
      </trkpt>
      <trkpt lat="42.992091" lon="144.382018">
        <ele>7.2</ele>
        <time>2023-10-02T06:09:56.000Z</time>
        
      </trkpt>
      <trkpt lat="42.991332" lon="144.382567">
        <ele>6.6</ele>
        <time>2023-10-02T06:10:24.000Z</time>
        
      </trkpt>
      <trkpt lat="42.990859" lon="144.383252">
        <ele>6</ele>
        <time>2023-10-02T06:10:52.000Z</time>
        
      </trkpt>
      <trkpt lat="42.991407" lon="144.383988">
        <ele>5.8</ele>
        <time>2023-10-02T06:11:20.000Z</time>
        
      </trkpt>
      <trkpt lat="42.9909" lon="144.385247">
        <ele>6</ele>
        <time>2023-10-02T06:11:48.000Z</time>
        
      </trkpt>
      <trkpt lat="42.9905" lon="144.386135">
        <ele>5.8</ele>
        <time>2023-10-02T06:13:10.000Z</time>
        
      </trkpt>
      <trkpt lat="42.990086" lon="144.387297">
        <ele>6.2</ele>
        <time>2023-10-02T06:13:38.000Z</time>
        
      </trkpt>
      <trkpt lat="42.989728" lon="144.388487">
        <ele>6</ele>
        <time>2023-10-02T06:14:06.000Z</time>
        
      </trkpt>
      <trkpt lat="42.989503" lon="144.388606">
        <ele>10.6</ele>
        <time>2023-10-02T06:15:15.000Z</time>
        
      </trkpt>
      <trkpt lat="42.98879" lon="144.388465">
        <ele>12.6</ele>
        <time>2023-10-02T06:15:43.000Z</time>
        
      </trkpt>
      <trkpt lat="42.988198" lon="144.388199">
        <ele>10.8</ele>
        <time>2023-10-02T06:16:37.000Z</time>
        
      </trkpt>
      <trkpt lat="42.987411" lon="144.386495">
        <ele>6.6</ele>
        <time>2023-10-02T06:17:05.000Z</time>
        
      </trkpt>
      <trkpt lat="42.986989" lon="144.385582">
        <ele>6</ele>
        <time>2023-10-02T06:17:49.000Z</time>
        
      </trkpt>
      <trkpt lat="42.987716" lon="144.385013">
        <ele>5.8</ele>
        <time>2023-10-02T06:18:17.000Z</time>
        
      </trkpt>
      <trkpt lat="42.988978" lon="144.384675">
        <ele>5.4</ele>
        <time>2023-10-02T06:18:45.000Z</time>
        
      </trkpt>
      <trkpt lat="42.989354" lon="144.383591">
        <ele>6.2</ele>
        <time>2023-10-02T06:19:13.000Z</time>
        
      </trkpt>
      <trkpt lat="42.989799" lon="144.382881">
        <ele>6</ele>
        <time>2023-10-02T06:19:57.000Z</time>
        
      </trkpt>
      <trkpt lat="42.990171" lon="144.382195">
        <ele>6.6</ele>
        <time>2023-10-02T06:20:25.000Z</time>
        
      </trkpt>
      <trkpt lat="42.990258" lon="144.381996">
        <ele>6.6</ele>
        <time>2023-10-02T06:20:32.000Z</time>
        
      </trkpt>
    </trkseg>
  </trk>
</gpx>