<?xml version="1.0" encoding="UTF-8"?>
<gpx version="1.1">
  <trk>
    <trkseg>
      
      <trkpt lat="43.579564" lon="144.310756">
        <ele>123.8</ele>
        <time>2023-10-01T01:11:54.000Z</time>
        
      </trkpt>
      <trkpt lat="43.579234" lon="144.310966">
        <ele>124.4</ele>
        <time>2023-10-01T01:12:24.000Z</time>
        
      </trkpt>
      <trkpt lat="43.578549" lon="144.311246">
        <ele>124</ele>
        <time>2023-10-01T01:16:25.000Z</time>
        
      </trkpt>
      <trkpt lat="43.577558" lon="144.310829">
        <ele>125</ele>
        <time>2023-10-01T01:16:55.000Z</time>
        
      </trkpt>
      <trkpt lat="43.576917" lon="144.310604">
        <ele>126</ele>
        <time>2023-10-01T01:17:25.000Z</time>
        
      </trkpt>
      <trkpt lat="43.576849" lon="144.310137">
        <ele>126.2</ele>
        <time>2023-10-01T01:19:06.000Z</time>
        
      </trkpt>
      <trkpt lat="43.576117" lon="144.309543">
        <ele>127.8</ele>
        <time>2023-10-01T01:19:36.000Z</time>
        
      </trkpt>
      <trkpt lat="43.575235" lon="144.308782">
        <ele>130.2</ele>
        <time>2023-10-01T01:20:06.000Z</time>
        
      </trkpt>
      <trkpt lat="43.574305" lon="144.307899">
        <ele>131.8</ele>
        <time>2023-10-01T01:20:36.000Z</time>
        
      </trkpt>
      <trkpt lat="43.573534" lon="144.307193">
        <ele>133.6</ele>
        <time>2023-10-01T01:21:06.000Z</time>
        
      </trkpt>
      <trkpt lat="43.572882" lon="144.306628">
        <ele>136.8</ele>
        <time>2023-10-01T01:21:36.000Z</time>
        
      </trkpt>
      <trkpt lat="43.572193" lon="144.306028">
        <ele>139.8</ele>
        <time>2023-10-01T01:22:06.000Z</time>
        
      </trkpt>
      <trkpt lat="43.571926" lon="144.307259">
        <ele>140.2</ele>
        <time>2023-10-01T01:24:50.000Z</time>
        
      </trkpt>
      <trkpt lat="43.570998" lon="144.308434">
        <ele>140.6</ele>
        <time>2023-10-01T01:25:20.000Z</time>
        
      </trkpt>
      <trkpt lat="43.570189" lon="144.310175">
        <ele>139.8</ele>
        <time>2023-10-01T01:25:50.000Z</time>
        
      </trkpt>
      <trkpt lat="43.569462" lon="144.311795">
        <ele>140</ele>
        <time>2023-10-01T01:26:20.000Z</time>
        
      </trkpt>
      <trkpt lat="43.568802" lon="144.313279">
        <ele>140.2</ele>
        <time>2023-10-01T01:26:50.000Z</time>
        
      </trkpt>
      <trkpt lat="43.568165" lon="144.314604">
        <ele>140.2</ele>
        <time>2023-10-01T01:27:20.000Z</time>
        
      </trkpt>
      <trkpt lat="43.567346" lon="144.316328">
        <ele>138.2</ele>
        <time>2023-10-01T01:27:50.000Z</time>
        
      </trkpt>
      <trkpt lat="43.566471" lon="144.318155">
        <ele>136</ele>
        <time>2023-10-01T01:28:20.000Z</time>
        
      </trkpt>
      <trkpt lat="43.565539" lon="144.319638">
        <ele>134.4</ele>
        <time>2023-10-01T01:28:50.000Z</time>
        
      </trkpt>
      <trkpt lat="43.564062" lon="144.320467">
        <ele>132.8</ele>
        <time>2023-10-01T01:29:20.000Z</time>
        
      </trkpt>
      <trkpt lat="43.56271" lon="144.320686">
        <ele>133.8</ele>
        <time>2023-10-01T01:29:50.000Z</time>
        
      </trkpt>
      <trkpt lat="43.561543" lon="144.320375">
        <ele>136.2</ele>
        <time>2023-10-01T01:30:20.000Z</time>
        
      </trkpt>
      <trkpt lat="43.560543" lon="144.320075">
        <ele>138</ele>
        <time>2023-10-01T01:30:50.000Z</time>
        
      </trkpt>
      <trkpt lat="43.559596" lon="144.320158">
        <ele>139.6</ele>
        <time>2023-10-01T01:31:20.000Z</time>
        
      </trkpt>
      <trkpt lat="43.558656" lon="144.322108">
        <ele>136.8</ele>
        <time>2023-10-01T01:31:50.000Z</time>
        
      </trkpt>
      <trkpt lat="43.557895" lon="144.323682">
        <ele>133</ele>
        <time>2023-10-01T01:32:36.000Z</time>
        
      </trkpt>
      <trkpt lat="43.557096" lon="144.325399">
        <ele>132.8</ele>
        <time>2023-10-01T01:33:06.000Z</time>
        
      </trkpt>
      <trkpt lat="43.556387" lon="144.326909">
        <ele>134.2</ele>
        <time>2023-10-01T01:33:36.000Z</time>
        
      </trkpt>
      <trkpt lat="43.555681" lon="144.328379">
        <ele>136</ele>
        <time>2023-10-01T01:34:06.000Z</time>
        
      </trkpt>
      <trkpt lat="43.554959" lon="144.329919">
        <ele>137</ele>
        <time>2023-10-01T01:34:36.000Z</time>
        
      </trkpt>
      <trkpt lat="43.554206" lon="144.331491">
        <ele>137.2</ele>
        <time>2023-10-01T01:35:06.000Z</time>
        
      </trkpt>
      <trkpt lat="43.553651" lon="144.333283">
        <ele>138</ele>
        <time>2023-10-01T01:35:36.000Z</time>
        
      </trkpt>
      <trkpt lat="43.553777" lon="144.3353">
        <ele>138.2</ele>
        <time>2023-10-01T01:36:06.000Z</time>
        
      </trkpt>
      <trkpt lat="43.553931" lon="144.337124">
        <ele>138</ele>
        <time>2023-10-01T01:36:36.000Z</time>
        
      </trkpt>
      <trkpt lat="43.554071" lon="144.338857">
        <ele>138.2</ele>
        <time>2023-10-01T01:37:06.000Z</time>
        
      </trkpt>
      <trkpt lat="43.554214" lon="144.340472">
        <ele>137.8</ele>
        <time>2023-10-01T01:38:06.000Z</time>
        
      </trkpt>
      <trkpt lat="43.554383" lon="144.342465">
        <ele>138</ele>
        <time>2023-10-01T01:38:36.000Z</time>
        
      </trkpt>
      <trkpt lat="43.554529" lon="144.344325">
        <ele>139.6</ele>
        <time>2023-10-01T01:39:06.000Z</time>
        
      </trkpt>
      <trkpt lat="43.554685" lon="144.346068">
        <ele>138.6</ele>
        <time>2023-10-01T01:39:36.000Z</time>
        
      </trkpt>
      <trkpt lat="43.554836" lon="144.347894">
        <ele>138.2</ele>
        <time>2023-10-01T01:40:06.000Z</time>
        
      </trkpt>
      <trkpt lat="43.555027" lon="144.350187">
        <ele>137.4</ele>
        <time>2023-10-01T01:40:36.000Z</time>
        
      </trkpt>
      <trkpt lat="43.555253" lon="144.352898">
        <ele>134.4</ele>
        <time>2023-10-01T01:41:06.000Z</time>
        
      </trkpt>
      <trkpt lat="43.555265" lon="144.355572">
        <ele>130.4</ele>
        <time>2023-10-01T01:41:36.000Z</time>
        
      </trkpt>
      <trkpt lat="43.554992" lon="144.357645">
        <ele>129</ele>
        <time>2023-10-01T01:42:06.000Z</time>
        
      </trkpt>
      <trkpt lat="43.554988" lon="144.35958">
        <ele>127.2</ele>
        <time>2023-10-01T01:42:36.000Z</time>
        
      </trkpt>
      <trkpt lat="43.555503" lon="144.361563">
        <ele>127.2</ele>
        <time>2023-10-01T01:43:06.000Z</time>
        
      </trkpt>
      <trkpt lat="43.556217" lon="144.36333">
        <ele>127.4</ele>
        <time>2023-10-01T01:43:36.000Z</time>
        
      </trkpt>
      <trkpt lat="43.556393" lon="144.364808">
        <ele>130.2</ele>
        <time>2023-10-01T01:44:06.000Z</time>
        
      </trkpt>
      <trkpt lat="43.555591" lon="144.366432">
        <ele>130.4</ele>
        <time>2023-10-01T01:44:36.000Z</time>
        
      </trkpt>
      <trkpt lat="43.5546" lon="144.368286">
        <ele>128.8</ele>
        <time>2023-10-01T01:45:06.000Z</time>
        
      </trkpt>
      <trkpt lat="43.55406" lon="144.369658">
        <ele>131.8</ele>
        <time>2023-10-01T01:45:36.000Z</time>
        
      </trkpt>
      <trkpt lat="43.55362" lon="144.371023">
        <ele>134.2</ele>
        <time>2023-10-01T01:46:06.000Z</time>
        
      </trkpt>
      <trkpt lat="43.552797" lon="144.372754">
        <ele>132.2</ele>
        <time>2023-10-01T01:46:36.000Z</time>
        
      </trkpt>
      <trkpt lat="43.552086" lon="144.3745">
        <ele>132.6</ele>
        <time>2023-10-01T01:47:06.000Z</time>
        
      </trkpt>
      <trkpt lat="43.551413" lon="144.375988">
        <ele>131.8</ele>
        <time>2023-10-01T01:47:36.000Z</time>
        
      </trkpt>
      <trkpt lat="43.550779" lon="144.378003">
        <ele>130</ele>
        <time>2023-10-01T01:48:06.000Z</time>
        
      </trkpt>
      <trkpt lat="43.550653" lon="144.380181">
        <ele>128.6</ele>
        <time>2023-10-01T01:48:36.000Z</time>
        
      </trkpt>
      <trkpt lat="43.551299" lon="144.381992">
        <ele>128.4</ele>
        <time>2023-10-01T01:49:06.000Z</time>
        
      </trkpt>
      <trkpt lat="43.551962" lon="144.383819">
        <ele>128.6</ele>
        <time>2023-10-01T01:49:36.000Z</time>
        
      </trkpt>
      <trkpt lat="43.552485" lon="144.385458">
        <ele>129</ele>
        <time>2023-10-01T01:50:06.000Z</time>
        
      </trkpt>
      <trkpt lat="43.553" lon="144.387087">
        <ele>130.2</ele>
        <time>2023-10-01T01:50:36.000Z</time>
        
      </trkpt>
      <trkpt lat="43.552773" lon="144.3886">
        <ele>128.4</ele>
        <time>2023-10-01T01:51:06.000Z</time>
        
      </trkpt>
      <trkpt lat="43.551247" lon="144.389788">
        <ele>126.4</ele>
        <time>2023-10-01T01:51:36.000Z</time>
        
      </trkpt>
      <trkpt lat="43.550012" lon="144.391014">
        <ele>126</ele>
        <time>2023-10-01T01:52:06.000Z</time>
        
      </trkpt>
      <trkpt lat="43.550793" lon="144.392885">
        <ele>126.4</ele>
        <time>2023-10-01T01:52:36.000Z</time>
        
      </trkpt>
      <trkpt lat="43.551533" lon="144.394692">
        <ele>126.8</ele>
        <time>2023-10-01T01:53:06.000Z</time>
        
      </trkpt>
      <trkpt lat="43.552077" lon="144.395923">
        <ele>127.4</ele>
        <time>2023-10-01T01:53:36.000Z</time>
        
      </trkpt>
      <trkpt lat="43.552752" lon="144.397479">
        <ele>128.6</ele>
        <time>2023-10-01T01:54:06.000Z</time>
        
      </trkpt>
      <trkpt lat="43.553537" lon="144.399298">
        <ele>129.2</ele>
        <time>2023-10-01T01:54:36.000Z</time>
        
      </trkpt>
      <trkpt lat="43.554293" lon="144.401091">
        <ele>129.8</ele>
        <time>2023-10-01T01:55:06.000Z</time>
        
      </trkpt>
      <trkpt lat="43.554841" lon="144.402506">
        <ele>130.8</ele>
        <time>2023-10-01T01:55:36.000Z</time>
        
      </trkpt>
      <trkpt lat="43.553651" lon="144.403472">
        <ele>130.4</ele>
        <time>2023-10-01T01:56:06.000Z</time>
        
      </trkpt>
      <trkpt lat="43.552305" lon="144.404518">
        <ele>129.4</ele>
        <time>2023-10-01T01:56:36.000Z</time>
        
      </trkpt>
      <trkpt lat="43.550977" lon="144.405544">
        <ele>129.2</ele>
        <time>2023-10-01T01:57:06.000Z</time>
        
      </trkpt>
      <trkpt lat="43.549483" lon="144.406703">
        <ele>127.6</ele>
        <time>2023-10-01T01:57:36.000Z</time>
        
      </trkpt>
      <trkpt lat="43.54823" lon="144.407786">
        <ele>127.4</ele>
        <time>2023-10-01T01:58:06.000Z</time>
        
      </trkpt>
      <trkpt lat="43.547019" lon="144.40887">
        <ele>127.6</ele>
        <time>2023-10-01T01:58:36.000Z</time>
        
      </trkpt>
      <trkpt lat="43.54611" lon="144.409696">
        <ele>127.4</ele>
        <time>2023-10-01T01:59:06.000Z</time>
        
      </trkpt>
      <trkpt lat="43.54489" lon="144.410659">
        <ele>127.2</ele>
        <time>2023-10-01T01:59:36.000Z</time>
        
      </trkpt>
      <trkpt lat="43.543539" lon="144.411527">
        <ele>126.6</ele>
        <time>2023-10-01T02:00:06.000Z</time>
        
      </trkpt>
      <trkpt lat="43.542212" lon="144.412373">
        <ele>126.4</ele>
        <time>2023-10-01T02:00:36.000Z</time>
        
      </trkpt>
      <trkpt lat="43.540933" lon="144.413183">
        <ele>126</ele>
        <time>2023-10-01T02:01:06.000Z</time>
        
      </trkpt>
      <trkpt lat="43.539615" lon="144.414048">
        <ele>125</ele>
        <time>2023-10-01T02:01:36.000Z</time>
        
      </trkpt>
      <trkpt lat="43.538166" lon="144.414999">
        <ele>124.2</ele>
        <time>2023-10-01T02:02:06.000Z</time>
        
      </trkpt>
      <trkpt lat="43.536655" lon="144.415988">
        <ele>122.6</ele>
        <time>2023-10-01T02:02:36.000Z</time>
        
      </trkpt>
      <trkpt lat="43.535524" lon="144.416724">
        <ele>123.4</ele>
        <time>2023-10-01T02:03:06.000Z</time>
        
      </trkpt>
      <trkpt lat="43.534371" lon="144.417492">
        <ele>123.8</ele>
        <time>2023-10-01T02:03:36.000Z</time>
        
      </trkpt>
      <trkpt lat="43.533046" lon="144.418371">
        <ele>123</ele>
        <time>2023-10-01T02:04:06.000Z</time>
        
      </trkpt>
      <trkpt lat="43.53161" lon="144.419387">
        <ele>122</ele>
        <time>2023-10-01T02:04:36.000Z</time>
        
      </trkpt>
      <trkpt lat="43.530155" lon="144.420416">
        <ele>120.8</ele>
        <time>2023-10-01T02:05:06.000Z</time>
        
      </trkpt>
      <trkpt lat="43.528819" lon="144.421368">
        <ele>121</ele>
        <time>2023-10-01T02:05:36.000Z</time>
        
      </trkpt>
      <trkpt lat="43.527721" lon="144.422088">
        <ele>120.6</ele>
        <time>2023-10-01T02:06:06.000Z</time>
        
      </trkpt>
      <trkpt lat="43.527061" lon="144.422617">
        <ele>120.8</ele>
        <time>2023-10-01T02:07:15.000Z</time>
        
      </trkpt>
      <trkpt lat="43.526329" lon="144.423345">
        <ele>121</ele>
        <time>2023-10-01T02:07:45.000Z</time>
        
      </trkpt>
      <trkpt lat="43.526947" lon="144.424848">
        <ele>121.2</ele>
        <time>2023-10-01T02:08:15.000Z</time>
        
      </trkpt>
      <trkpt lat="43.527723" lon="144.426673">
        <ele>122.2</ele>
        <time>2023-10-01T02:08:45.000Z</time>
        
      </trkpt>
      <trkpt lat="43.528477" lon="144.428459">
        <ele>123.2</ele>
        <time>2023-10-01T02:09:15.000Z</time>
        
      </trkpt>
      <trkpt lat="43.52918" lon="144.430163">
        <ele>124.4</ele>
        <time>2023-10-01T02:09:45.000Z</time>
        
      </trkpt>
      <trkpt lat="43.529875" lon="144.431825">
        <ele>125.2</ele>
        <time>2023-10-01T02:10:15.000Z</time>
        
      </trkpt>
      <trkpt lat="43.529843" lon="144.432808">
        <ele>125.8</ele>
        <time>2023-10-01T02:10:45.000Z</time>
        
      </trkpt>
      <trkpt lat="43.528379" lon="144.433046">
        <ele>126</ele>
        <time>2023-10-01T02:11:15.000Z</time>
        
      </trkpt>
      <trkpt lat="43.527682" lon="144.433875">
        <ele>127</ele>
        <time>2023-10-01T02:11:45.000Z</time>
        
      </trkpt>
      <trkpt lat="43.528148" lon="144.435048">
        <ele>129.8</ele>
        <time>2023-10-01T02:12:15.000Z</time>
        
      </trkpt>
      <trkpt lat="43.528349" lon="144.435882">
        <ele>131.8</ele>
        <time>2023-10-01T02:14:27.000Z</time>
        
      </trkpt>
      <trkpt lat="43.527324" lon="144.436346">
        <ele>133</ele>
        <time>2023-10-01T02:14:57.000Z</time>
        
      </trkpt>
      <trkpt lat="43.526204" lon="144.437112">
        <ele>133.2</ele>
        <time>2023-10-01T02:15:27.000Z</time>
        
      </trkpt>
      <trkpt lat="43.525394" lon="144.438026">
        <ele>135</ele>
        <time>2023-10-01T02:15:57.000Z</time>
        
      </trkpt>
      <trkpt lat="43.524544" lon="144.43897">
        <ele>136.8</ele>
        <time>2023-10-01T02:16:27.000Z</time>
        
      </trkpt>
      <trkpt lat="43.523724" lon="144.439864">
        <ele>138.6</ele>
        <time>2023-10-01T02:16:57.000Z</time>
        
      </trkpt>
      <trkpt lat="43.522983" lon="144.440705">
        <ele>140.8</ele>
        <time>2023-10-01T02:17:27.000Z</time>
        
      </trkpt>
      <trkpt lat="43.522237" lon="144.441532">
        <ele>142.8</ele>
        <time>2023-10-01T02:17:57.000Z</time>
        
      </trkpt>
      <trkpt lat="43.521487" lon="144.442362">
        <ele>145.2</ele>
        <time>2023-10-01T02:18:27.000Z</time>
        
      </trkpt>
      <trkpt lat="43.520689" lon="144.443239">
        <ele>147.8</ele>
        <time>2023-10-01T02:18:57.000Z</time>
        
      </trkpt>
      <trkpt lat="43.519899" lon="144.444137">
        <ele>149.4</ele>
        <time>2023-10-01T02:19:27.000Z</time>
        
      </trkpt>
      <trkpt lat="43.519023" lon="144.44511">
        <ele>149.8</ele>
        <time>2023-10-01T02:19:57.000Z</time>
        
      </trkpt>
      <trkpt lat="43.518045" lon="144.446192">
        <ele>151.4</ele>
        <time>2023-10-01T02:20:27.000Z</time>
        
      </trkpt>
      <trkpt lat="43.517214" lon="144.447113">
        <ele>152.2</ele>
        <time>2023-10-01T02:20:57.000Z</time>
        
      </trkpt>
      <trkpt lat="43.516367" lon="144.448045">
        <ele>154</ele>
        <time>2023-10-01T02:21:27.000Z</time>
        
      </trkpt>
      <trkpt lat="43.515806" lon="144.448593">
        <ele>154.8</ele>
        <time>2023-10-01T02:21:57.000Z</time>
        
      </trkpt>
      <trkpt lat="43.51613" lon="144.448893">
        <ele>154.8</ele>
        <time>2023-10-01T02:22:27.000Z</time>
        
      </trkpt>
      <trkpt lat="43.516006" lon="144.448947">
        <ele>155.4</ele>
        <time>2023-10-01T02:38:59.000Z</time>
        
      </trkpt>
      <trkpt lat="43.5157" lon="144.448786">
        <ele>156.4</ele>
        <time>2023-10-01T02:39:29.000Z</time>
        
      </trkpt>
      <trkpt lat="43.514812" lon="144.449772">
        <ele>157.8</ele>
        <time>2023-10-01T02:39:59.000Z</time>
        
      </trkpt>
      <trkpt lat="43.514021" lon="144.450649">
        <ele>158.4</ele>
        <time>2023-10-01T02:40:29.000Z</time>
        
      </trkpt>
      <trkpt lat="43.51318" lon="144.451578">
        <ele>158.8</ele>
        <time>2023-10-01T02:40:59.000Z</time>
        
      </trkpt>
      <trkpt lat="43.512284" lon="144.452571">
        <ele>159.4</ele>
        <time>2023-10-01T02:41:29.000Z</time>
        
      </trkpt>
      <trkpt lat="43.511296" lon="144.453674">
        <ele>159.4</ele>
        <time>2023-10-01T02:41:59.000Z</time>
        
      </trkpt>
      <trkpt lat="43.510297" lon="144.454787">
        <ele>160</ele>
        <time>2023-10-01T02:42:29.000Z</time>
        
      </trkpt>
      <trkpt lat="43.509305" lon="144.455877">
        <ele>159.8</ele>
        <time>2023-10-01T02:42:59.000Z</time>
        
      </trkpt>
      <trkpt lat="43.508306" lon="144.456979">
        <ele>160.2</ele>
        <time>2023-10-01T02:43:29.000Z</time>
        
      </trkpt>
      <trkpt lat="43.507316" lon="144.458087">
        <ele>160.6</ele>
        <time>2023-10-01T02:43:59.000Z</time>
        
      </trkpt>
      <trkpt lat="43.50621" lon="144.459295">
        <ele>160.4</ele>
        <time>2023-10-01T02:44:29.000Z</time>
        
      </trkpt>
      <trkpt lat="43.505018" lon="144.460621">
        <ele>158.6</ele>
        <time>2023-10-01T02:44:59.000Z</time>
        
      </trkpt>
      <trkpt lat="43.50404" lon="144.461719">
        <ele>157.8</ele>
        <time>2023-10-01T02:45:29.000Z</time>
        
      </trkpt>
      <trkpt lat="43.502827" lon="144.463056">
        <ele>156.2</ele>
        <time>2023-10-01T02:45:59.000Z</time>
        
      </trkpt>
      <trkpt lat="43.501525" lon="144.464487">
        <ele>154.2</ele>
        <time>2023-10-01T02:46:29.000Z</time>
        
      </trkpt>
      <trkpt lat="43.500475" lon="144.465819">
        <ele>150.6</ele>
        <time>2023-10-01T02:46:59.000Z</time>
        
      </trkpt>
      <trkpt lat="43.501191" lon="144.467514">
        <ele>150.8</ele>
        <time>2023-10-01T02:47:29.000Z</time>
        
      </trkpt>
      <trkpt lat="43.501619" lon="144.468565">
        <ele>154.2</ele>
        <time>2023-10-01T02:47:59.000Z</time>
        
      </trkpt>
      <trkpt lat="43.502001" lon="144.469484">
        <ele>157</ele>
        <time>2023-10-01T02:48:29.000Z</time>
        
      </trkpt>
      <trkpt lat="43.502371" lon="144.470418">
        <ele>159.8</ele>
        <time>2023-10-01T02:48:59.000Z</time>
        
      </trkpt>
      <trkpt lat="43.502751" lon="144.471335">
        <ele>162.2</ele>
        <time>2023-10-01T02:49:29.000Z</time>
        
      </trkpt>
      <trkpt lat="43.503187" lon="144.472394">
        <ele>165.2</ele>
        <time>2023-10-01T02:49:59.000Z</time>
        
      </trkpt>
      <trkpt lat="43.503642" lon="144.473538">
        <ele>167.8</ele>
        <time>2023-10-01T02:50:29.000Z</time>
        
      </trkpt>
      <trkpt lat="43.504191" lon="144.474876">
        <ele>169</ele>
        <time>2023-10-01T02:50:59.000Z</time>
        
      </trkpt>
      <trkpt lat="43.504037" lon="144.476122">
        <ele>170.2</ele>
        <time>2023-10-01T02:51:29.000Z</time>
        
      </trkpt>
      <trkpt lat="43.503079" lon="144.476885">
        <ele>172.8</ele>
        <time>2023-10-01T02:51:59.000Z</time>
        
      </trkpt>
      <trkpt lat="43.501352" lon="144.478213">
        <ele>165.6</ele>
        <time>2023-10-01T02:52:29.000Z</time>
        
      </trkpt>
      <trkpt lat="43.4994" lon="144.47972">
        <ele>157.8</ele>
        <time>2023-10-01T02:52:59.000Z</time>
        
      </trkpt>
      <trkpt lat="43.497503" lon="144.481181">
        <ele>149.2</ele>
        <time>2023-10-01T02:53:29.000Z</time>
        
      </trkpt>
      <trkpt lat="43.496796" lon="144.480284">
        <ele>147</ele>
        <time>2023-10-01T02:54:07.000Z</time>
        
      </trkpt>
      <trkpt lat="43.495968" lon="144.478554">
        <ele>147.2</ele>
        <time>2023-10-01T02:54:37.000Z</time>
        
      </trkpt>
      <trkpt lat="43.494967" lon="144.476509">
        <ele>144.6</ele>
        <time>2023-10-01T02:55:07.000Z</time>
        
      </trkpt>
      <trkpt lat="43.494029" lon="144.475242">
        <ele>141.6</ele>
        <time>2023-10-01T02:55:37.000Z</time>
        
      </trkpt>
      <trkpt lat="43.493993" lon="144.475368">
        <ele>140.8</ele>
        <time>2023-10-01T02:59:28.000Z</time>
        
      </trkpt>
      <trkpt lat="43.493943" lon="144.475464">
        <ele>141.4</ele>
        <time>2023-10-01T03:03:13.000Z</time>
        
      </trkpt>
      <trkpt lat="43.493886" lon="144.475253">
        <ele>141.4</ele>
        <time>2023-10-01T04:19:29.000Z</time>
        
      </trkpt>
      <trkpt lat="43.494061" lon="144.474675">
        <ele>143</ele>
        <time>2023-10-01T04:19:59.000Z</time>
        
      </trkpt>
      <trkpt lat="43.493192" lon="144.473051">
        <ele>140.8</ele>
        <time>2023-10-01T04:21:19.000Z</time>
        
      </trkpt>
      <trkpt lat="43.490971" lon="144.471911">
        <ele>131.4</ele>
        <time>2023-10-01T04:21:49.000Z</time>
        
      </trkpt>
      <trkpt lat="43.489653" lon="144.469218">
        <ele>124.2</ele>
        <time>2023-10-01T04:22:19.000Z</time>
        
      </trkpt>
      <trkpt lat="43.488328" lon="144.468145">
        <ele>115.8</ele>
        <time>2023-10-01T04:22:51.000Z</time>
        
      </trkpt>
      <trkpt lat="43.48701" lon="144.466284">
        <ele>110.6</ele>
        <time>2023-10-01T04:23:21.000Z</time>
        
      </trkpt>
      <trkpt lat="43.48772" lon="144.463611">
        <ele>108</ele>
        <time>2023-10-01T04:23:51.000Z</time>
        
      </trkpt>
      <trkpt lat="43.48853" lon="144.461106">
        <ele>106.8</ele>
        <time>2023-10-01T04:24:21.000Z</time>
        
      </trkpt>
      <trkpt lat="43.487851" lon="144.459814">
        <ele>107.2</ele>
        <time>2023-10-01T04:24:51.000Z</time>
        
      </trkpt>
      <trkpt lat="43.487103" lon="144.458258">
        <ele>107.8</ele>
        <time>2023-10-01T04:25:21.000Z</time>
        
      </trkpt>
      <trkpt lat="43.48647" lon="144.456723">
        <ele>109.2</ele>
        <time>2023-10-01T04:25:51.000Z</time>
        
      </trkpt>
      <trkpt lat="43.485973" lon="144.455866">
        <ele>110.8</ele>
        <time>2023-10-01T04:26:34.000Z</time>
        
      </trkpt>
      <trkpt lat="43.485281" lon="144.456359">
        <ele>113</ele>
        <time>2023-10-01T04:27:08.000Z</time>
        
      </trkpt>
      <trkpt lat="43.484705" lon="144.455499">
        <ele>117.8</ele>
        <time>2023-10-01T04:27:38.000Z</time>
        
      </trkpt>
      <trkpt lat="43.484332" lon="144.454578">
        <ele>122.8</ele>
        <time>2023-10-01T04:28:08.000Z</time>
        
      </trkpt>
      <trkpt lat="43.483937" lon="144.453602">
        <ele>126</ele>
        <time>2023-10-01T04:28:38.000Z</time>
        
      </trkpt>
      <trkpt lat="43.483215" lon="144.45351">
        <ele>125.8</ele>
        <time>2023-10-01T04:29:08.000Z</time>
        
      </trkpt>
      <trkpt lat="43.482774" lon="144.452818">
        <ele>112.8</ele>
        <time>2023-10-01T04:29:38.000Z</time>
        
      </trkpt>
      <trkpt lat="43.482513" lon="144.450552">
        <ele>111</ele>
        <time>2023-10-01T04:30:08.000Z</time>
        
      </trkpt>
      <trkpt lat="43.483076" lon="144.449323">
        <ele>111.4</ele>
        <time>2023-10-01T04:30:38.000Z</time>
        
      </trkpt>
      <trkpt lat="43.482196" lon="144.448352">
        <ele>113.6</ele>
        <time>2023-10-01T04:31:08.000Z</time>
        
      </trkpt>
      <trkpt lat="43.481945" lon="144.449374">
        <ele>116.8</ele>
        <time>2023-10-01T04:31:38.000Z</time>
        
      </trkpt>
      <trkpt lat="43.480205" lon="144.448528">
        <ele>113.6</ele>
        <time>2023-10-01T04:32:08.000Z</time>
        
      </trkpt>
      <trkpt lat="43.478522" lon="144.44747">
        <ele>112.8</ele>
        <time>2023-10-01T04:32:38.000Z</time>
        
      </trkpt>
      <trkpt lat="43.477025" lon="144.447341">
        <ele>113.6</ele>
        <time>2023-10-01T04:33:08.000Z</time>
        
      </trkpt>
      <trkpt lat="43.475635" lon="144.447179">
        <ele>115.8</ele>
        <time>2023-10-01T04:33:38.000Z</time>
        
      </trkpt>
      <trkpt lat="43.474538" lon="144.446162">
        <ele>117.2</ele>
        <time>2023-10-01T04:34:08.000Z</time>
        
      </trkpt>
      <trkpt lat="43.473483" lon="144.444613">
        <ele>117.4</ele>
        <time>2023-10-01T04:34:38.000Z</time>
        
      </trkpt>
      <trkpt lat="43.472496" lon="144.442938">
        <ele>118.8</ele>
        <time>2023-10-01T04:35:08.000Z</time>
        
      </trkpt>
      <trkpt lat="43.471721" lon="144.441258">
        <ele>120.6</ele>
        <time>2023-10-01T04:35:38.000Z</time>
        
      </trkpt>
      <trkpt lat="43.471228" lon="144.439399">
        <ele>122.4</ele>
        <time>2023-10-01T04:36:08.000Z</time>
        
      </trkpt>
      <trkpt lat="43.47073" lon="144.437311">
        <ele>123.2</ele>
        <time>2023-10-01T04:36:38.000Z</time>
        
      </trkpt>
      <trkpt lat="43.470254" lon="144.435288">
        <ele>125</ele>
        <time>2023-10-01T04:37:08.000Z</time>
        
      </trkpt>
      <trkpt lat="43.469412" lon="144.433871">
        <ele>126.8</ele>
        <time>2023-10-01T04:37:38.000Z</time>
        
      </trkpt>
      <trkpt lat="43.469386" lon="144.43217">
        <ele>127.6</ele>
        <time>2023-10-01T04:38:08.000Z</time>
        
      </trkpt>
      <trkpt lat="43.469735" lon="144.429908">
        <ele>128.2</ele>
        <time>2023-10-01T04:38:38.000Z</time>
        
      </trkpt>
      <trkpt lat="43.470091" lon="144.427529">
        <ele>128.6</ele>
        <time>2023-10-01T04:39:08.000Z</time>
        
      </trkpt>
      <trkpt lat="43.470406" lon="144.425395">
        <ele>130</ele>
        <time>2023-10-01T04:39:38.000Z</time>
        
      </trkpt>
      <trkpt lat="43.470361" lon="144.423465">
        <ele>131</ele>
        <time>2023-10-01T04:40:08.000Z</time>
        
      </trkpt>
      <trkpt lat="43.470317" lon="144.421426">
        <ele>132.8</ele>
        <time>2023-10-01T04:40:38.000Z</time>
        
      </trkpt>
      <trkpt lat="43.469859" lon="144.419318">
        <ele>133.8</ele>
        <time>2023-10-01T04:41:08.000Z</time>
        
      </trkpt>
      <trkpt lat="43.469054" lon="144.417386">
        <ele>135.2</ele>
        <time>2023-10-01T04:41:38.000Z</time>
        
      </trkpt>
      <trkpt lat="43.468274" lon="144.415497">
        <ele>136.4</ele>
        <time>2023-10-01T04:42:08.000Z</time>
        
      </trkpt>
      <trkpt lat="43.467805" lon="144.413468">
        <ele>138.6</ele>
        <time>2023-10-01T04:42:38.000Z</time>
        
      </trkpt>
      <trkpt lat="43.467711" lon="144.41133">
        <ele>140</ele>
        <time>2023-10-01T04:43:08.000Z</time>
        
      </trkpt>
      <trkpt lat="43.46762" lon="144.409088">
        <ele>141.4</ele>
        <time>2023-10-01T04:43:38.000Z</time>
        
      </trkpt>
      <trkpt lat="43.467533" lon="144.406964">
        <ele>142.6</ele>
        <time>2023-10-01T04:44:08.000Z</time>
        
      </trkpt>
      <trkpt lat="43.468802" lon="144.405849">
        <ele>143</ele>
        <time>2023-10-01T04:44:38.000Z</time>
        
      </trkpt>
      <trkpt lat="43.470051" lon="144.404894">
        <ele>144.4</ele>
        <time>2023-10-01T04:45:08.000Z</time>
        
      </trkpt>
      <trkpt lat="43.471381" lon="144.403836">
        <ele>145</ele>
        <time>2023-10-01T04:45:38.000Z</time>
        
      </trkpt>
      <trkpt lat="43.472247" lon="144.403136">
        <ele>148.6</ele>
        <time>2023-10-01T04:46:08.000Z</time>
        
      </trkpt>
      <trkpt lat="43.472855" lon="144.402673">
        <ele>154.6</ele>
        <time>2023-10-01T04:46:38.000Z</time>
        
      </trkpt>
      <trkpt lat="43.473503" lon="144.402176">
        <ele>159.4</ele>
        <time>2023-10-01T04:47:08.000Z</time>
        
      </trkpt>
      <trkpt lat="43.474371" lon="144.401506">
        <ele>163</ele>
        <time>2023-10-01T04:47:38.000Z</time>
        
      </trkpt>
      <trkpt lat="43.474854" lon="144.400572">
        <ele>165.2</ele>
        <time>2023-10-01T04:49:12.000Z</time>
        
      </trkpt>
      <trkpt lat="43.47479" lon="144.398473">
        <ele>167</ele>
        <time>2023-10-01T04:49:42.000Z</time>
        
      </trkpt>
      <trkpt lat="43.474364" lon="144.395426">
        <ele>163.4</ele>
        <time>2023-10-01T04:50:12.000Z</time>
        
      </trkpt>
      <trkpt lat="43.473306" lon="144.393675">
        <ele>165.8</ele>
        <time>2023-10-01T04:50:42.000Z</time>
        
      </trkpt>
      <trkpt lat="43.472484" lon="144.392562">
        <ele>169.4</ele>
        <time>2023-10-01T04:51:12.000Z</time>
        
      </trkpt>
      <trkpt lat="43.471947" lon="144.391029">
        <ele>172.4</ele>
        <time>2023-10-01T04:51:42.000Z</time>
        
      </trkpt>
      <trkpt lat="43.471862" lon="144.388906">
        <ele>174.4</ele>
        <time>2023-10-01T04:52:12.000Z</time>
        
      </trkpt>
      <trkpt lat="43.471811" lon="144.386709">
        <ele>175.8</ele>
        <time>2023-10-01T04:52:42.000Z</time>
        
      </trkpt>
      <trkpt lat="43.471753" lon="144.384628">
        <ele>177.4</ele>
        <time>2023-10-01T04:53:12.000Z</time>
        
      </trkpt>
      <trkpt lat="43.471705" lon="144.382643">
        <ele>179.4</ele>
        <time>2023-10-01T04:53:42.000Z</time>
        
      </trkpt>
      <trkpt lat="43.471664" lon="144.380837">
        <ele>181</ele>
        <time>2023-10-01T04:54:12.000Z</time>
        
      </trkpt>
      <trkpt lat="43.471623" lon="144.378965">
        <ele>183.2</ele>
        <time>2023-10-01T04:54:42.000Z</time>
        
      </trkpt>
      <trkpt lat="43.471568" lon="144.376931">
        <ele>185.4</ele>
        <time>2023-10-01T04:55:12.000Z</time>
        
      </trkpt>
      <trkpt lat="43.471517" lon="144.374891">
        <ele>187.6</ele>
        <time>2023-10-01T04:55:42.000Z</time>
        
      </trkpt>
      <trkpt lat="43.471484" lon="144.373028">
        <ele>189.6</ele>
        <time>2023-10-01T04:56:12.000Z</time>
        
      </trkpt>
      <trkpt lat="43.471441" lon="144.371197">
        <ele>191.4</ele>
        <time>2023-10-01T04:56:42.000Z</time>
        
      </trkpt>
      <trkpt lat="43.471389" lon="144.369329">
        <ele>193.2</ele>
        <time>2023-10-01T04:57:12.000Z</time>
        
      </trkpt>
      <trkpt lat="43.47134" lon="144.367475">
        <ele>195</ele>
        <time>2023-10-01T04:57:42.000Z</time>
        
      </trkpt>
      <trkpt lat="43.471295" lon="144.365628">
        <ele>196.8</ele>
        <time>2023-10-01T04:58:12.000Z</time>
        
      </trkpt>
      <trkpt lat="43.471248" lon="144.363786">
        <ele>198.4</ele>
        <time>2023-10-01T04:58:42.000Z</time>
        
      </trkpt>
      <trkpt lat="43.471205" lon="144.362094">
        <ele>200.6</ele>
        <time>2023-10-01T04:59:12.000Z</time>
        
      </trkpt>
      <trkpt lat="43.471168" lon="144.360527">
        <ele>203.6</ele>
        <time>2023-10-01T04:59:42.000Z</time>
        
      </trkpt>
      <trkpt lat="43.471133" lon="144.359023">
        <ele>206.6</ele>
        <time>2023-10-01T05:00:12.000Z</time>
        
      </trkpt>
      <trkpt lat="43.471091" lon="144.357499">
        <ele>209.6</ele>
        <time>2023-10-01T05:00:42.000Z</time>
        
      </trkpt>
      <trkpt lat="43.471046" lon="144.355457">
        <ele>209.4</ele>
        <time>2023-10-01T05:01:12.000Z</time>
        
      </trkpt>
      <trkpt lat="43.470988" lon="144.352964">
        <ele>208.2</ele>
        <time>2023-10-01T05:01:42.000Z</time>
        
      </trkpt>
      <trkpt lat="43.47093" lon="144.350498">
        <ele>208.6</ele>
        <time>2023-10-01T05:02:12.000Z</time>
        
      </trkpt>
      <trkpt lat="43.470995" lon="144.348363">
        <ele>210.6</ele>
        <time>2023-10-01T05:02:42.000Z</time>
        
      </trkpt>
      <trkpt lat="43.471272" lon="144.346774">
        <ele>213.4</ele>
        <time>2023-10-01T05:03:12.000Z</time>
        
      </trkpt>
      <trkpt lat="43.47169" lon="144.345351">
        <ele>216.4</ele>
        <time>2023-10-01T05:03:42.000Z</time>
        
      </trkpt>
      <trkpt lat="43.472155" lon="144.343899">
        <ele>218.8</ele>
        <time>2023-10-01T05:04:12.000Z</time>
        
      </trkpt>
      <trkpt lat="43.472628" lon="144.342432">
        <ele>222</ele>
        <time>2023-10-01T05:04:42.000Z</time>
        
      </trkpt>
      <trkpt lat="43.473137" lon="144.340861">
        <ele>224.6</ele>
        <time>2023-10-01T05:05:12.000Z</time>
        
      </trkpt>
      <trkpt lat="43.473697" lon="144.339146">
        <ele>226.2</ele>
        <time>2023-10-01T05:05:42.000Z</time>
        
      </trkpt>
      <trkpt lat="43.473969" lon="144.337261">
        <ele>228.2</ele>
        <time>2023-10-01T05:06:12.000Z</time>
        
      </trkpt>
      <trkpt lat="43.473804" lon="144.335437">
        <ele>230.2</ele>
        <time>2023-10-01T05:06:42.000Z</time>
        
      </trkpt>
      <trkpt lat="43.473579" lon="144.333626">
        <ele>231.8</ele>
        <time>2023-10-01T05:07:12.000Z</time>
        
      </trkpt>
      <trkpt lat="43.473361" lon="144.331876">
        <ele>233.2</ele>
        <time>2023-10-01T05:07:42.000Z</time>
        
      </trkpt>
      <trkpt lat="43.473085" lon="144.329682">
        <ele>232.4</ele>
        <time>2023-10-01T05:08:12.000Z</time>
        
      </trkpt>
      <trkpt lat="43.473289" lon="144.327213">
        <ele>230.6</ele>
        <time>2023-10-01T05:08:42.000Z</time>
        
      </trkpt>
      <trkpt lat="43.474169" lon="144.324864">
        <ele>228.8</ele>
        <time>2023-10-01T05:09:12.000Z</time>
        
      </trkpt>
      <trkpt lat="43.474394" lon="144.322608">
        <ele>230.4</ele>
        <time>2023-10-01T05:09:42.000Z</time>
        
      </trkpt>
      <trkpt lat="43.474396" lon="144.321464">
        <ele>235.2</ele>
        <time>2023-10-01T05:10:12.000Z</time>
        
      </trkpt>
      <trkpt lat="43.474388" lon="144.32051">
        <ele>239.6</ele>
        <time>2023-10-01T05:10:42.000Z</time>
        
      </trkpt>
      <trkpt lat="43.474406" lon="144.319558">
        <ele>244.2</ele>
        <time>2023-10-01T05:11:12.000Z</time>
        
      </trkpt>
      <trkpt lat="43.4744" lon="144.318617">
        <ele>248.8</ele>
        <time>2023-10-01T05:11:42.000Z</time>
        
      </trkpt>
      <trkpt lat="43.474397" lon="144.317543">
        <ele>253</ele>
        <time>2023-10-01T05:12:12.000Z</time>
        
      </trkpt>
      <trkpt lat="43.474415" lon="144.316135">
        <ele>255.4</ele>
        <time>2023-10-01T05:12:42.000Z</time>
        
      </trkpt>
      <trkpt lat="43.474426" lon="144.314418">
        <ele>256.8</ele>
        <time>2023-10-01T05:13:12.000Z</time>
        
      </trkpt>
      <trkpt lat="43.474455" lon="144.312714">
        <ele>258.4</ele>
        <time>2023-10-01T05:13:42.000Z</time>
        
      </trkpt>
      <trkpt lat="43.474444" lon="144.311087">
        <ele>260.8</ele>
        <time>2023-10-01T05:14:12.000Z</time>
        
      </trkpt>
      <trkpt lat="43.474466" lon="144.309516">
        <ele>263</ele>
        <time>2023-10-01T05:14:42.000Z</time>
        
      </trkpt>
      <trkpt lat="43.47447" lon="144.307815">
        <ele>265.8</ele>
        <time>2023-10-01T05:15:12.000Z</time>
        
      </trkpt>
      <trkpt lat="43.474486" lon="144.30608">
        <ele>267.8</ele>
        <time>2023-10-01T05:15:42.000Z</time>
        
      </trkpt>
      <trkpt lat="43.474501" lon="144.304159">
        <ele>269</ele>
        <time>2023-10-01T05:16:12.000Z</time>
        
      </trkpt>
      <trkpt lat="43.474486" lon="144.302214">
        <ele>269.8</ele>
        <time>2023-10-01T05:16:42.000Z</time>
        
      </trkpt>
      <trkpt lat="43.47417" lon="144.300461">
        <ele>271.2</ele>
        <time>2023-10-01T05:17:12.000Z</time>
        
      </trkpt>
      <trkpt lat="43.473783" lon="144.299439">
        <ele>276</ele>
        <time>2023-10-01T05:17:42.000Z</time>
        
      </trkpt>
      <trkpt lat="43.473367" lon="144.298676">
        <ele>280.6</ele>
        <time>2023-10-01T05:18:12.000Z</time>
        
      </trkpt>
      <trkpt lat="43.472852" lon="144.297917">
        <ele>285</ele>
        <time>2023-10-01T05:18:42.000Z</time>
        
      </trkpt>
      <trkpt lat="43.472302" lon="144.297052">
        <ele>288.8</ele>
        <time>2023-10-01T05:19:12.000Z</time>
        
      </trkpt>
      <trkpt lat="43.471605" lon="144.29592">
        <ele>291.2</ele>
        <time>2023-10-01T05:19:42.000Z</time>
        
      </trkpt>
      <trkpt lat="43.470658" lon="144.294693">
        <ele>293.4</ele>
        <time>2023-10-01T05:20:12.000Z</time>
        
      </trkpt>
      <trkpt lat="43.469661" lon="144.293601">
        <ele>295.6</ele>
        <time>2023-10-01T05:20:42.000Z</time>
        
      </trkpt>
      <trkpt lat="43.468638" lon="144.292522">
        <ele>298</ele>
        <time>2023-10-01T05:21:12.000Z</time>
        
      </trkpt>
      <trkpt lat="43.467677" lon="144.29171">
        <ele>300.8</ele>
        <time>2023-10-01T05:21:42.000Z</time>
        
      </trkpt>
      <trkpt lat="43.466756" lon="144.291071">
        <ele>304.2</ele>
        <time>2023-10-01T05:22:12.000Z</time>
        
      </trkpt>
      <trkpt lat="43.466071" lon="144.290534">
        <ele>309</ele>
        <time>2023-10-01T05:22:42.000Z</time>
        
      </trkpt>
      <trkpt lat="43.465462" lon="144.289965">
        <ele>313.2</ele>
        <time>2023-10-01T05:23:12.000Z</time>
        
      </trkpt>
      <trkpt lat="43.46492" lon="144.289278">
        <ele>317.8</ele>
        <time>2023-10-01T05:23:42.000Z</time>
        
      </trkpt>
      <trkpt lat="43.464392" lon="144.288617">
        <ele>322.2</ele>
        <time>2023-10-01T05:24:12.000Z</time>
        
      </trkpt>
      <trkpt lat="43.463889" lon="144.287929">
        <ele>326.6</ele>
        <time>2023-10-01T05:24:42.000Z</time>
        
      </trkpt>
      <trkpt lat="43.463589" lon="144.287024">
        <ele>330.8</ele>
        <time>2023-10-01T05:25:12.000Z</time>
        
      </trkpt>
      <trkpt lat="43.463453" lon="144.286015">
        <ele>335.2</ele>
        <time>2023-10-01T05:25:42.000Z</time>
        
      </trkpt>
      <trkpt lat="43.463314" lon="144.284993">
        <ele>340</ele>
        <time>2023-10-01T05:26:12.000Z</time>
        
      </trkpt>
      <trkpt lat="43.463258" lon="144.284053">
        <ele>344.4</ele>
        <time>2023-10-01T05:26:42.000Z</time>
        
      </trkpt>
      <trkpt lat="43.463288" lon="144.283031">
        <ele>348.8</ele>
        <time>2023-10-01T05:27:12.000Z</time>
        
      </trkpt>
      <trkpt lat="43.463107" lon="144.282137">
        <ele>353.2</ele>
        <time>2023-10-01T05:27:43.000Z</time>
        
      </trkpt>
      <trkpt lat="43.462695" lon="144.28141">
        <ele>357.6</ele>
        <time>2023-10-01T05:28:13.000Z</time>
        
      </trkpt>
      <trkpt lat="43.46278" lon="144.280734">
        <ele>361.4</ele>
        <time>2023-10-01T05:28:43.000Z</time>
        
      </trkpt>
      <trkpt lat="43.463014" lon="144.279373">
        <ele>368.2</ele>
        <time>2023-10-01T05:37:43.000Z</time>
        
      </trkpt>
      <trkpt lat="43.463233" lon="144.278585">
        <ele>372.8</ele>
        <time>2023-10-01T05:38:13.000Z</time>
        
      </trkpt>
      <trkpt lat="43.463166" lon="144.277734">
        <ele>377.6</ele>
        <time>2023-10-01T05:38:43.000Z</time>
        
      </trkpt>
      <trkpt lat="43.463092" lon="144.276934">
        <ele>381.8</ele>
        <time>2023-10-01T05:39:13.000Z</time>
        
      </trkpt>
      <trkpt lat="43.462692" lon="144.276297">
        <ele>386.4</ele>
        <time>2023-10-01T05:39:43.000Z</time>
        
      </trkpt>
      <trkpt lat="43.46304" lon="144.275615">
        <ele>390.4</ele>
        <time>2023-10-01T05:40:13.000Z</time>
        
      </trkpt>
      <trkpt lat="43.463012" lon="144.2749">
        <ele>395</ele>
        <time>2023-10-01T05:40:43.000Z</time>
        
      </trkpt>
      <trkpt lat="43.462816" lon="144.274245">
        <ele>400</ele>
        <time>2023-10-01T05:41:13.000Z</time>
        
      </trkpt>
      <trkpt lat="43.463037" lon="144.273549">
        <ele>404</ele>
        <time>2023-10-01T05:41:43.000Z</time>
        
      </trkpt>
      <trkpt lat="43.463132" lon="144.272836">
        <ele>408.6</ele>
        <time>2023-10-01T05:42:13.000Z</time>
        
      </trkpt>
      <trkpt lat="43.46278" lon="144.272265">
        <ele>414</ele>
        <time>2023-10-01T05:42:43.000Z</time>
        
      </trkpt>
      <trkpt lat="43.462176" lon="144.272057">
        <ele>418.2</ele>
        <time>2023-10-01T05:43:13.000Z</time>
        
      </trkpt>
      <trkpt lat="43.461517" lon="144.271635">
        <ele>420.4</ele>
        <time>2023-10-01T05:43:43.000Z</time>
        
      </trkpt>
      <trkpt lat="43.461854" lon="144.270334">
        <ele>423</ele>
        <time>2023-10-01T05:44:13.000Z</time>
        
      </trkpt>
      <trkpt lat="43.462315" lon="144.269378">
        <ele>425.6</ele>
        <time>2023-10-01T05:44:43.000Z</time>
        
      </trkpt>
      <trkpt lat="43.462" lon="144.268518">
        <ele>429.4</ele>
        <time>2023-10-01T05:45:13.000Z</time>
        
      </trkpt>
      <trkpt lat="43.461391" lon="144.268839">
        <ele>432.8</ele>
        <time>2023-10-01T05:45:43.000Z</time>
        
      </trkpt>
      <trkpt lat="43.460969" lon="144.268082">
        <ele>436.2</ele>
        <time>2023-10-01T05:46:13.000Z</time>
        
      </trkpt>
      <trkpt lat="43.460622" lon="144.267312">
        <ele>439.4</ele>
        <time>2023-10-01T05:46:43.000Z</time>
        
      </trkpt>
      <trkpt lat="43.460264" lon="144.266636">
        <ele>443</ele>
        <time>2023-10-01T05:47:13.000Z</time>
        
      </trkpt>
      <trkpt lat="43.460246" lon="144.26591">
        <ele>447.6</ele>
        <time>2023-10-01T05:47:43.000Z</time>
        
      </trkpt>
      <trkpt lat="43.46085" lon="144.265794">
        <ele>452.4</ele>
        <time>2023-10-01T05:48:13.000Z</time>
        
      </trkpt>
      <trkpt lat="43.461499" lon="144.266029">
        <ele>456</ele>
        <time>2023-10-01T05:48:43.000Z</time>
        
      </trkpt>
      <trkpt lat="43.462114" lon="144.265427">
        <ele>459.6</ele>
        <time>2023-10-01T05:49:30.000Z</time>
        
      </trkpt>
      <trkpt lat="43.462285" lon="144.264526">
        <ele>463.8</ele>
        <time>2023-10-01T05:50:00.000Z</time>
        
      </trkpt>
      <trkpt lat="43.462156" lon="144.263376">
        <ele>467</ele>
        <time>2023-10-01T05:50:30.000Z</time>
        
      </trkpt>
      <trkpt lat="43.461708" lon="144.26203">
        <ele>468.6</ele>
        <time>2023-10-01T05:51:00.000Z</time>
        
      </trkpt>
      <trkpt lat="43.461096" lon="144.26116">
        <ele>472.4</ele>
        <time>2023-10-01T05:51:30.000Z</time>
        
      </trkpt>
      <trkpt lat="43.461468" lon="144.260565">
        <ele>477.2</ele>
        <time>2023-10-01T05:52:00.000Z</time>
        
      </trkpt>
      <trkpt lat="43.461845" lon="144.2599">
        <ele>480.4</ele>
        <time>2023-10-01T05:52:30.000Z</time>
        
      </trkpt>
      <trkpt lat="43.462451" lon="144.259523">
        <ele>483.2</ele>
        <time>2023-10-01T05:53:00.000Z</time>
        
      </trkpt>
      <trkpt lat="43.462819" lon="144.258943">
        <ele>487.2</ele>
        <time>2023-10-01T05:53:30.000Z</time>
        
      </trkpt>
      <trkpt lat="43.462801" lon="144.25804">
        <ele>491.2</ele>
        <time>2023-10-01T05:54:00.000Z</time>
        
      </trkpt>
      <trkpt lat="43.462492" lon="144.257237">
        <ele>495.4</ele>
        <time>2023-10-01T05:54:30.000Z</time>
        
      </trkpt>
      <trkpt lat="43.462075" lon="144.2564">
        <ele>499</ele>
        <time>2023-10-01T05:55:00.000Z</time>
        
      </trkpt>
      <trkpt lat="43.46184" lon="144.255573">
        <ele>502.4</ele>
        <time>2023-10-01T05:55:30.000Z</time>
        
      </trkpt>
      <trkpt lat="43.461468" lon="144.254334">
        <ele>505</ele>
        <time>2023-10-01T05:56:00.000Z</time>
        
      </trkpt>
      <trkpt lat="43.461191" lon="144.253533">
        <ele>509.2</ele>
        <time>2023-10-01T05:56:30.000Z</time>
        
      </trkpt>
      <trkpt lat="43.460898" lon="144.25276">
        <ele>512.6</ele>
        <time>2023-10-01T05:57:00.000Z</time>
        
      </trkpt>
      <trkpt lat="43.46043" lon="144.251687">
        <ele>516</ele>
        <time>2023-10-01T05:57:30.000Z</time>
        
      </trkpt>
      <trkpt lat="43.459823" lon="144.25147">
        <ele>520</ele>
        <time>2023-10-01T05:58:00.000Z</time>
        
      </trkpt>
      <trkpt lat="43.459095" lon="144.251422">
        <ele>523.8</ele>
        <time>2023-10-01T05:58:30.000Z</time>
        
      </trkpt>
      <trkpt lat="43.458658" lon="144.250611">
        <ele>526.6</ele>
        <time>2023-10-01T05:59:00.000Z</time>
        
      </trkpt>
      <trkpt lat="43.458229" lon="144.250127">
        <ele>531.6</ele>
        <time>2023-10-01T05:59:30.000Z</time>
        
      </trkpt>
      <trkpt lat="43.457488" lon="144.248016">
        <ele>541.2</ele>
        <time>2023-10-01T06:00:57.000Z</time>
        
      </trkpt>
      <trkpt lat="43.457135" lon="144.247103">
        <ele>545.2</ele>
        <time>2023-10-01T06:01:27.000Z</time>
        
      </trkpt>
      <trkpt lat="43.457209" lon="144.246085">
        <ele>549.6</ele>
        <time>2023-10-01T06:01:57.000Z</time>
        
      </trkpt>
      <trkpt lat="43.457233" lon="144.245131">
        <ele>553.6</ele>
        <time>2023-10-01T06:02:31.000Z</time>
        
      </trkpt>
      <trkpt lat="43.457287" lon="144.244336">
        <ele>557.2</ele>
        <time>2023-10-01T06:03:01.000Z</time>
        
      </trkpt>
      <trkpt lat="43.45726" lon="144.244114">
        <ele>560.4</ele>
        <time>2023-10-01T06:03:31.000Z</time>
        
      </trkpt>
      <trkpt lat="43.457356" lon="144.242785">
        <ele>563.2</ele>
        <time>2023-10-01T06:04:01.000Z</time>
        
      </trkpt>
      <trkpt lat="43.457688" lon="144.241389">
        <ele>566.6</ele>
        <time>2023-10-01T06:04:31.000Z</time>
        
      </trkpt>
      <trkpt lat="43.458164" lon="144.241547">
        <ele>570.4</ele>
        <time>2023-10-01T06:05:01.000Z</time>
        
      </trkpt>
      <trkpt lat="43.458319" lon="144.242318">
        <ele>574.6</ele>
        <time>2023-10-01T06:05:31.000Z</time>
        
      </trkpt>
      <trkpt lat="43.458551" lon="144.243113">
        <ele>579.2</ele>
        <time>2023-10-01T06:06:01.000Z</time>
        
      </trkpt>
      <trkpt lat="43.458706" lon="144.2439">
        <ele>583.2</ele>
        <time>2023-10-01T06:06:31.000Z</time>
        
      </trkpt>
      <trkpt lat="43.458946" lon="144.244637">
        <ele>587.4</ele>
        <time>2023-10-01T06:07:01.000Z</time>
        
      </trkpt>
      <trkpt lat="43.459355" lon="144.245141">
        <ele>591.2</ele>
        <time>2023-10-01T06:07:31.000Z</time>
        
      </trkpt>
      <trkpt lat="43.459818" lon="144.245644">
        <ele>595.6</ele>
        <time>2023-10-01T06:08:01.000Z</time>
        
      </trkpt>
      <trkpt lat="43.460258" lon="144.245405">
        <ele>600.6</ele>
        <time>2023-10-01T06:08:31.000Z</time>
        
      </trkpt>
      <trkpt lat="43.460335" lon="144.24456">
        <ele>605.4</ele>
        <time>2023-10-01T06:09:01.000Z</time>
        
      </trkpt>
      <trkpt lat="43.460452" lon="144.243748">
        <ele>608.4</ele>
        <time>2023-10-01T06:09:31.000Z</time>
        
      </trkpt>
      <trkpt lat="43.460445" lon="144.242847">
        <ele>611.2</ele>
        <time>2023-10-01T06:15:34.000Z</time>
        
      </trkpt>
      <trkpt lat="43.4607" lon="144.24204">
        <ele>614.8</ele>
        <time>2023-10-01T06:16:04.000Z</time>
        
      </trkpt>
      <trkpt lat="43.461419" lon="144.241995">
        <ele>618</ele>
        <time>2023-10-01T06:16:34.000Z</time>
        
      </trkpt>
      <trkpt lat="43.461628" lon="144.241385">
        <ele>621.4</ele>
        <time>2023-10-01T06:17:04.000Z</time>
        
      </trkpt>
      <trkpt lat="43.461082" lon="144.240936">
        <ele>624.8</ele>
        <time>2023-10-01T06:17:34.000Z</time>
        
      </trkpt>
      <trkpt lat="43.46079" lon="144.24024">
        <ele>629</ele>
        <time>2023-10-01T06:18:04.000Z</time>
        
      </trkpt>
      <trkpt lat="43.460699" lon="144.239467">
        <ele>633.4</ele>
        <time>2023-10-01T06:18:34.000Z</time>
        
      </trkpt>
      <trkpt lat="43.460637" lon="144.238689">
        <ele>638</ele>
        <time>2023-10-01T06:19:04.000Z</time>
        
      </trkpt>
      <trkpt lat="43.460653" lon="144.237856">
        <ele>642.4</ele>
        <time>2023-10-01T06:19:34.000Z</time>
        
      </trkpt>
      <trkpt lat="43.460927" lon="144.236989">
        <ele>645.4</ele>
        <time>2023-10-01T06:20:04.000Z</time>
        
      </trkpt>
      <trkpt lat="43.461339" lon="144.236586">
        <ele>648.8</ele>
        <time>2023-10-01T06:20:34.000Z</time>
        
      </trkpt>
      <trkpt lat="43.461739" lon="144.237101">
        <ele>652.4</ele>
        <time>2023-10-01T06:21:04.000Z</time>
        
      </trkpt>
      <trkpt lat="43.462121" lon="144.23753">
        <ele>656.4</ele>
        <time>2023-10-01T06:21:34.000Z</time>
        
      </trkpt>
      <trkpt lat="43.462599" lon="144.237373">
        <ele>661.6</ele>
        <time>2023-10-01T06:22:04.000Z</time>
        
      </trkpt>
      <trkpt lat="43.462709" lon="144.236757">
        <ele>665.8</ele>
        <time>2023-10-01T06:22:34.000Z</time>
        
      </trkpt>
      <trkpt lat="43.462424" lon="144.236149">
        <ele>670</ele>
        <time>2023-10-01T06:23:04.000Z</time>
        
      </trkpt>
      <trkpt lat="43.462373" lon="144.235413">
        <ele>673.6</ele>
        <time>2023-10-01T06:23:34.000Z</time>
        
      </trkpt>
      <trkpt lat="43.4627" lon="144.234403">
        <ele>679</ele>
        <time>2023-10-01T06:24:19.000Z</time>
        
      </trkpt>
      <trkpt lat="43.462778" lon="144.233623">
        <ele>683</ele>
        <time>2023-10-01T06:24:49.000Z</time>
        
      </trkpt>
      <trkpt lat="43.462803" lon="144.232816">
        <ele>687</ele>
        <time>2023-10-01T06:25:19.000Z</time>
        
      </trkpt>
      <trkpt lat="43.462699" lon="144.232052">
        <ele>690.6</ele>
        <time>2023-10-01T06:25:49.000Z</time>
        
      </trkpt>
      <trkpt lat="43.462358" lon="144.231248">
        <ele>694.4</ele>
        <time>2023-10-01T06:26:19.000Z</time>
        
      </trkpt>
      <trkpt lat="43.461709" lon="144.230401">
        <ele>697.8</ele>
        <time>2023-10-01T06:26:49.000Z</time>
        
      </trkpt>
      <trkpt lat="43.461047" lon="144.229552">
        <ele>700</ele>
        <time>2023-10-01T06:27:19.000Z</time>
        
      </trkpt>
      <trkpt lat="43.460473" lon="144.228568">
        <ele>702.2</ele>
        <time>2023-10-01T06:27:49.000Z</time>
        
      </trkpt>
      <trkpt lat="43.460656" lon="144.227433">
        <ele>705.8</ele>
        <time>2023-10-01T06:28:19.000Z</time>
        
      </trkpt>
      <trkpt lat="43.460698" lon="144.226487">
        <ele>709.4</ele>
        <time>2023-10-01T06:28:49.000Z</time>
        
      </trkpt>
      <trkpt lat="43.460236" lon="144.225917">
        <ele>713.4</ele>
        <time>2023-10-01T06:29:19.000Z</time>
        
      </trkpt>
      <trkpt lat="43.45971" lon="144.225363">
        <ele>716.4</ele>
        <time>2023-10-01T06:29:49.000Z</time>
        
      </trkpt>
      <trkpt lat="43.459189" lon="144.224823">
        <ele>720</ele>
        <time>2023-10-01T06:30:19.000Z</time>
        
      </trkpt>
      <trkpt lat="43.458669" lon="144.224286">
        <ele>723.8</ele>
        <time>2023-10-01T06:30:49.000Z</time>
        
      </trkpt>
      <trkpt lat="43.458007" lon="144.224029">
        <ele>727.4</ele>
        <time>2023-10-01T06:31:19.000Z</time>
        
      </trkpt>
      <trkpt lat="43.457307" lon="144.22384">
        <ele>731.4</ele>
        <time>2023-10-01T06:31:49.000Z</time>
        
      </trkpt>
      <trkpt lat="43.456973" lon="144.222782">
        <ele>735</ele>
        <time>2023-10-01T06:32:19.000Z</time>
        
      </trkpt>
      <trkpt lat="43.456773" lon="144.221717">
        <ele>737.8</ele>
        <time>2023-10-01T06:32:49.000Z</time>
        
      </trkpt>
      <trkpt lat="43.456174" lon="144.221158">
        <ele>741</ele>
        <time>2023-10-01T06:33:19.000Z</time>
        
      </trkpt>
      <trkpt lat="43.455653" lon="144.22093">
        <ele>744</ele>
        <time>2023-10-01T06:33:49.000Z</time>
        
      </trkpt>
      <trkpt lat="43.455304" lon="144.221766">
        <ele>746.4</ele>
        <time>2023-10-01T06:40:36.000Z</time>
        
      </trkpt>
      <trkpt lat="43.454619" lon="144.222459">
        <ele>748.2</ele>
        <time>2023-10-01T06:41:06.000Z</time>
        
      </trkpt>
      <trkpt lat="43.453959" lon="144.223538">
        <ele>748.2</ele>
        <time>2023-10-01T06:41:36.000Z</time>
        
      </trkpt>
      <trkpt lat="43.453517" lon="144.225731">
        <ele>744.8</ele>
        <time>2023-10-01T06:42:06.000Z</time>
        
      </trkpt>
      <trkpt lat="43.451479" lon="144.227636">
        <ele>733.4</ele>
        <time>2023-10-01T06:42:36.000Z</time>
        
      </trkpt>
      <trkpt lat="43.450751" lon="144.225631">
        <ele>724</ele>
        <time>2023-10-01T06:43:06.000Z</time>
        
      </trkpt>
      <trkpt lat="43.449259" lon="144.223627">
        <ele>717.2</ele>
        <time>2023-10-01T06:43:36.000Z</time>
        
      </trkpt>
      <trkpt lat="43.449046" lon="144.220599">
        <ele>711.2</ele>
        <time>2023-10-01T06:44:06.000Z</time>
        
      </trkpt>
      <trkpt lat="43.448208" lon="144.218495">
        <ele>710.6</ele>
        <time>2023-10-01T06:44:36.000Z</time>
        
      </trkpt>
      <trkpt lat="43.447359" lon="144.216601">
        <ele>709.6</ele>
        <time>2023-10-01T06:45:06.000Z</time>
        
      </trkpt>
      <trkpt lat="43.446492" lon="144.21474">
        <ele>708.6</ele>
        <time>2023-10-01T06:45:36.000Z</time>
        
      </trkpt>
      <trkpt lat="43.445635" lon="144.212921">
        <ele>706</ele>
        <time>2023-10-01T06:46:06.000Z</time>
        
      </trkpt>
      <trkpt lat="43.445229" lon="144.211296">
        <ele>702.2</ele>
        <time>2023-10-01T06:47:49.000Z</time>
        
      </trkpt>
      <trkpt lat="43.446331" lon="144.208791">
        <ele>696</ele>
        <time>2023-10-01T06:48:19.000Z</time>
        
      </trkpt>
      <trkpt lat="43.447727" lon="144.206315">
        <ele>688.8</ele>
        <time>2023-10-01T06:48:49.000Z</time>
        
      </trkpt>
      <trkpt lat="43.448762" lon="144.204321">
        <ele>681.6</ele>
        <time>2023-10-01T06:49:19.000Z</time>
        
      </trkpt>
      <trkpt lat="43.448715" lon="144.203923">
        <ele>684.4</ele>
        <time>2023-10-01T06:49:55.000Z</time>
        
      </trkpt>
      <trkpt lat="43.448843" lon="144.203472">
        <ele>689</ele>
        <time>2023-10-01T06:50:25.000Z</time>
        
      </trkpt>
      <trkpt lat="43.449015" lon="144.203451">
        <ele>680.8</ele>
        <time>2023-10-01T06:51:07.000Z</time>
        
      </trkpt>
      <trkpt lat="43.448804" lon="144.200383">
        <ele>670</ele>
        <time>2023-10-01T06:51:37.000Z</time>
        
      </trkpt>
      <trkpt lat="43.446834" lon="144.197783">
        <ele>655.4</ele>
        <time>2023-10-01T06:52:07.000Z</time>
        
      </trkpt>
      <trkpt lat="43.444361" lon="144.197271">
        <ele>641.8</ele>
        <time>2023-10-01T06:52:37.000Z</time>
        
      </trkpt>
      <trkpt lat="43.443051" lon="144.193721">
        <ele>622</ele>
        <time>2023-10-01T06:53:07.000Z</time>
        
      </trkpt>
      <trkpt lat="43.443677" lon="144.18947">
        <ele>600.2</ele>
        <time>2023-10-01T06:53:37.000Z</time>
        
      </trkpt>
      <trkpt lat="43.444688" lon="144.185831">
        <ele>579</ele>
        <time>2023-10-01T06:54:07.000Z</time>
        
      </trkpt>
      <trkpt lat="43.441786" lon="144.184538">
        <ele>557.8</ele>
        <time>2023-10-01T06:54:37.000Z</time>
        
      </trkpt>
      <trkpt lat="43.439094" lon="144.186545">
        <ele>535.8</ele>
        <time>2023-10-01T06:55:07.000Z</time>
        
      </trkpt>
      <trkpt lat="43.439154" lon="144.190832">
        <ele>514.6</ele>
        <time>2023-10-01T06:55:37.000Z</time>
        
      </trkpt>
      <trkpt lat="43.437024" lon="144.189467">
        <ele>494.8</ele>
        <time>2023-10-01T06:56:07.000Z</time>
        
      </trkpt>
      <trkpt lat="43.43673" lon="144.185818">
        <ele>481.6</ele>
        <time>2023-10-01T06:56:37.000Z</time>
        
      </trkpt>
      <trkpt lat="43.435004" lon="144.18436">
        <ele>479.8</ele>
        <time>2023-10-01T06:57:07.000Z</time>
        
      </trkpt>
      <trkpt lat="43.434501" lon="144.183831">
        <ele>483.6</ele>
        <time>2023-10-01T06:57:37.000Z</time>
        
      </trkpt>
      <trkpt lat="43.434133" lon="144.183231">
        <ele>487.4</ele>
        <time>2023-10-01T06:58:07.000Z</time>
        
      </trkpt>
      <trkpt lat="43.43377" lon="144.182509">
        <ele>491</ele>
        <time>2023-10-01T06:58:37.000Z</time>
        
      </trkpt>
      <trkpt lat="43.433415" lon="144.181775">
        <ele>495</ele>
        <time>2023-10-01T06:59:07.000Z</time>
        
      </trkpt>
      <trkpt lat="43.433007" lon="144.180931">
        <ele>498.2</ele>
        <time>2023-10-01T06:59:37.000Z</time>
        
      </trkpt>
      <trkpt lat="43.432525" lon="144.179713">
        <ele>499.6</ele>
        <time>2023-10-01T07:00:07.000Z</time>
        
      </trkpt>
      <trkpt lat="43.432102" lon="144.178005">
        <ele>498.8</ele>
        <time>2023-10-01T07:00:37.000Z</time>
        
      </trkpt>
      <trkpt lat="43.431717" lon="144.175707">
        <ele>494.2</ele>
        <time>2023-10-01T07:01:07.000Z</time>
        
      </trkpt>
      <trkpt lat="43.42927" lon="144.17474">
        <ele>481</ele>
        <time>2023-10-01T07:01:37.000Z</time>
        
      </trkpt>
      <trkpt lat="43.42691" lon="144.175435">
        <ele>471.6</ele>
        <time>2023-10-01T07:02:07.000Z</time>
        
      </trkpt>
      <trkpt lat="43.425168" lon="144.172818">
        <ele>460</ele>
        <time>2023-10-01T07:02:37.000Z</time>
        
      </trkpt>
      <trkpt lat="43.423907" lon="144.170344">
        <ele>454.6</ele>
        <time>2023-10-01T07:03:07.000Z</time>
        
      </trkpt>
      <trkpt lat="43.42278" lon="144.167082">
        <ele>441</ele>
        <time>2023-10-01T07:03:37.000Z</time>
        
      </trkpt>
      <trkpt lat="43.422622" lon="144.163915">
        <ele>432.6</ele>
        <time>2023-10-01T07:04:07.000Z</time>
        
      </trkpt>
      <trkpt lat="43.421814" lon="144.161533">
        <ele>429</ele>
        <time>2023-10-01T07:04:37.000Z</time>
        
      </trkpt>
      <trkpt lat="43.420234" lon="144.158718">
        <ele>417.8</ele>
        <time>2023-10-01T07:05:07.000Z</time>
        
      </trkpt>
      <trkpt lat="43.420572" lon="144.155356">
        <ele>406.6</ele>
        <time>2023-10-01T07:05:37.000Z</time>
        
      </trkpt>
      <trkpt lat="43.42172" lon="144.153447">
        <ele>405.4</ele>
        <time>2023-10-01T07:06:07.000Z</time>
        
      </trkpt>
      <trkpt lat="43.422709" lon="144.151765">
        <ele>404.2</ele>
        <time>2023-10-01T07:06:37.000Z</time>
        
      </trkpt>
      <trkpt lat="43.423148" lon="144.149419">
        <ele>401.4</ele>
        <time>2023-10-01T07:07:07.000Z</time>
        
      </trkpt>
      <trkpt lat="43.423283" lon="144.146823">
        <ele>398.4</ele>
        <time>2023-10-01T07:07:37.000Z</time>
        
      </trkpt>
      <trkpt lat="43.423106" lon="144.144946">
        <ele>399</ele>
        <time>2023-10-01T07:08:07.000Z</time>
        
      </trkpt>
      <trkpt lat="43.423388" lon="144.143824">
        <ele>401.4</ele>
        <time>2023-10-01T07:09:32.000Z</time>
        
      </trkpt>
      <trkpt lat="43.423783" lon="144.142901">
        <ele>405.8</ele>
        <time>2023-10-01T07:10:02.000Z</time>
        
      </trkpt>
      <trkpt lat="43.424426" lon="144.142297">
        <ele>409</ele>
        <time>2023-10-01T07:10:32.000Z</time>
        
      </trkpt>
      <trkpt lat="43.425565" lon="144.142246">
        <ele>409.2</ele>
        <time>2023-10-01T07:11:02.000Z</time>
        
      </trkpt>
      <trkpt lat="43.427466" lon="144.142435">
        <ele>403</ele>
        <time>2023-10-01T07:11:32.000Z</time>
        
      </trkpt>
      <trkpt lat="43.42939" lon="144.142142">
        <ele>398.2</ele>
        <time>2023-10-01T07:12:02.000Z</time>
        
      </trkpt>
      <trkpt lat="43.429906" lon="144.140628">
        <ele>400.4</ele>
        <time>2023-10-01T07:12:32.000Z</time>
        
      </trkpt>
      <trkpt lat="43.429951" lon="144.139502">
        <ele>404.2</ele>
        <time>2023-10-01T07:13:02.000Z</time>
        
      </trkpt>
      <trkpt lat="43.429974" lon="144.138583">
        <ele>408.4</ele>
        <time>2023-10-01T07:13:32.000Z</time>
        
      </trkpt>
      <trkpt lat="43.430148" lon="144.13778">
        <ele>412.2</ele>
        <time>2023-10-01T07:14:02.000Z</time>
        
      </trkpt>
      <trkpt lat="43.430451" lon="144.137051">
        <ele>416</ele>
        <time>2023-10-01T07:14:32.000Z</time>
        
      </trkpt>
      <trkpt lat="43.430851" lon="144.136308">
        <ele>420.2</ele>
        <time>2023-10-01T07:15:02.000Z</time>
        
      </trkpt>
      <trkpt lat="43.431201" lon="144.135642">
        <ele>423.8</ele>
        <time>2023-10-01T07:16:21.000Z</time>
        
      </trkpt>
      <trkpt lat="43.431407" lon="144.134757">
        <ele>428.4</ele>
        <time>2023-10-01T07:16:51.000Z</time>
        
      </trkpt>
      <trkpt lat="43.431455" lon="144.133832">
        <ele>432.8</ele>
        <time>2023-10-01T07:17:21.000Z</time>
        
      </trkpt>
      <trkpt lat="43.431485" lon="144.132815">
        <ele>436.6</ele>
        <time>2023-10-01T07:17:51.000Z</time>
        
      </trkpt>
      <trkpt lat="43.431517" lon="144.13163">
        <ele>439.6</ele>
        <time>2023-10-01T07:18:21.000Z</time>
        
      </trkpt>
      <trkpt lat="43.431571" lon="144.130093">
        <ele>441.4</ele>
        <time>2023-10-01T07:18:51.000Z</time>
        
      </trkpt>
      <trkpt lat="43.431645" lon="144.128528">
        <ele>443.2</ele>
        <time>2023-10-01T07:19:21.000Z</time>
        
      </trkpt>
      <trkpt lat="43.431722" lon="144.126787">
        <ele>444.8</ele>
        <time>2023-10-01T07:19:51.000Z</time>
        
      </trkpt>
      <trkpt lat="43.431902" lon="144.124549">
        <ele>443.8</ele>
        <time>2023-10-01T07:20:21.000Z</time>
        
      </trkpt>
      <trkpt lat="43.432171" lon="144.121567">
        <ele>438.4</ele>
        <time>2023-10-01T07:20:51.000Z</time>
        
      </trkpt>
      <trkpt lat="43.432449" lon="144.118709">
        <ele>435</ele>
        <time>2023-10-01T07:21:21.000Z</time>
        
      </trkpt>
      <trkpt lat="43.432652" lon="144.116471">
        <ele>435.6</ele>
        <time>2023-10-01T07:21:51.000Z</time>
        
      </trkpt>
      <trkpt lat="43.432824" lon="144.114471">
        <ele>436.2</ele>
        <time>2023-10-01T07:22:21.000Z</time>
        
      </trkpt>
      <trkpt lat="43.43301" lon="144.112518">
        <ele>436.8</ele>
        <time>2023-10-01T07:22:51.000Z</time>
        
      </trkpt>
      <trkpt lat="43.433175" lon="144.110626">
        <ele>437.8</ele>
        <time>2023-10-01T07:23:21.000Z</time>
        
      </trkpt>
      <trkpt lat="43.433323" lon="144.109133">
        <ele>440.2</ele>
        <time>2023-10-01T07:23:51.000Z</time>
        
      </trkpt>
      <trkpt lat="43.433439" lon="144.10783">
        <ele>443.6</ele>
        <time>2023-10-01T07:24:21.000Z</time>
        
      </trkpt>
      <trkpt lat="43.433552" lon="144.106622">
        <ele>446.4</ele>
        <time>2023-10-01T07:24:51.000Z</time>
        
      </trkpt>
      <trkpt lat="43.433671" lon="144.105315">
        <ele>449.2</ele>
        <time>2023-10-01T07:25:21.000Z</time>
        
      </trkpt>
      <trkpt lat="43.433528" lon="144.103761">
        <ele>448</ele>
        <time>2023-10-01T07:25:51.000Z</time>
        
      </trkpt>
      <trkpt lat="43.433155" lon="144.102157">
        <ele>442.2</ele>
        <time>2023-10-01T07:26:21.000Z</time>
        
      </trkpt>
      <trkpt lat="43.433754" lon="144.101575">
        <ele>441</ele>
        <time>2023-10-01T07:53:02.000Z</time>
        
      </trkpt>
      <trkpt lat="43.434548" lon="144.101133">
        <ele>440.6</ele>
        <time>2023-10-01T07:53:32.000Z</time>
        
      </trkpt>
      <trkpt lat="43.435038" lon="144.1009">
        <ele>439.8</ele>
        <time>2023-10-01T07:54:22.000Z</time>
        
      </trkpt>
      <trkpt lat="43.435018" lon="144.100657">
        <ele>439.6</ele>
        <time>2023-10-01T08:03:20.000Z</time>
        
      </trkpt>
      <trkpt lat="43.434622" lon="144.100063">
        <ele>434.8</ele>
        <time>2023-10-01T08:05:29.000Z</time>
        
      </trkpt>
      <trkpt lat="43.434086" lon="144.09917">
        <ele>428.6</ele>
        <time>2023-10-01T08:05:59.000Z</time>
        
      </trkpt>
      <trkpt lat="43.43415" lon="144.098693">
        <ele>428.2</ele>
        <time>2023-10-01T08:13:06.000Z</time>
        
      </trkpt>
      <trkpt lat="43.433608" lon="144.097904">
        <ele>428.6</ele>
        <time>2023-10-01T08:13:36.000Z</time>
        
      </trkpt>
      <trkpt lat="43.433847" lon="144.096645">
        <ele>428.8</ele>
        <time>2023-10-01T08:14:06.000Z</time>
        
      </trkpt>
      <trkpt lat="43.433784" lon="144.096297">
        <ele>431.2</ele>
        <time>2023-10-01T08:22:59.000Z</time>
        
      </trkpt>
      <trkpt lat="43.433577" lon="144.095594">
        <ele>432.4</ele>
        <time>2023-10-01T08:23:43.000Z</time>
        
      </trkpt>
      <trkpt lat="43.433752" lon="144.094006">
        <ele>432</ele>
        <time>2023-10-01T08:24:13.000Z</time>
        
      </trkpt>
      <trkpt lat="43.43395" lon="144.09229">
        <ele>428</ele>
        <time>2023-10-01T08:24:43.000Z</time>
        
      </trkpt>
      <trkpt lat="43.434132" lon="144.091164">
        <ele>428</ele>
        <time>2023-10-01T08:25:13.000Z</time>
        
      </trkpt>
      <trkpt lat="43.433848" lon="144.090532">
        <ele>428.6</ele>
        <time>2023-10-01T08:25:43.000Z</time>
        
      </trkpt>
      <trkpt lat="43.433176" lon="144.090333">
        <ele>430</ele>
        <time>2023-10-01T08:26:13.000Z</time>
        
      </trkpt>
      <trkpt lat="43.432907" lon="144.089847">
        <ele>434.2</ele>
        <time>2023-10-01T08:26:43.000Z</time>
        
      </trkpt>
      <trkpt lat="43.432766" lon="144.089231">
        <ele>437.4</ele>
        <time>2023-10-01T08:27:13.000Z</time>
        
      </trkpt>
      <trkpt lat="43.433588" lon="144.08854">
        <ele>437.6</ele>
        <time>2023-10-01T08:27:43.000Z</time>
        
      </trkpt>
      <trkpt lat="43.433512" lon="144.087572">
        <ele>438</ele>
        <time>2023-10-01T08:28:13.000Z</time>
        
      </trkpt>
      <trkpt lat="43.433678" lon="144.086911">
        <ele>437.6</ele>
        <time>2023-10-01T08:28:43.000Z</time>
        
      </trkpt>
      <trkpt lat="43.434015" lon="144.086454">
        <ele>438</ele>
        <time>2023-10-01T08:29:13.000Z</time>
        
      </trkpt>
      <trkpt lat="43.43395" lon="144.086343">
        <ele>438</ele>
        <time>2023-10-01T08:29:25.000Z</time>
        
      </trkpt>
    </trkseg>
  </trk>
</gpx>