<?xml version="1.0" encoding="UTF-8"?>
<gpx version="1.1">
  <trk>
    <trkseg>
      
      <trkpt lat="43.563836" lon="144.955991">
        <ele>68</ele>
        <time>2023-09-29T21:09:22.000Z</time>
        
      </trkpt>
      <trkpt lat="43.563836" lon="144.955991">
        <ele>68</ele>
        <time>2023-09-29T21:10:05.000Z</time>
        
      </trkpt>
      <trkpt lat="43.563784" lon="144.956176">
        <ele>68.4</ele>
        <time>2023-09-29T21:12:09.000Z</time>
        
      </trkpt>
      <trkpt lat="43.563397" lon="144.956824">
        <ele>68.6</ele>
        <time>2023-09-29T21:14:51.000Z</time>
        
      </trkpt>
      <trkpt lat="43.562768" lon="144.955696">
        <ele>69.4</ele>
        <time>2023-09-29T21:19:56.000Z</time>
        
      </trkpt>
      <trkpt lat="43.563209" lon="144.954698">
        <ele>69.6</ele>
        <time>2023-09-29T21:21:18.000Z</time>
        
      </trkpt>
      <trkpt lat="43.564379" lon="144.954264">
        <ele>73.4</ele>
        <time>2023-09-29T21:22:01.000Z</time>
        
      </trkpt>
      <trkpt lat="43.565205" lon="144.956919">
        <ele>68</ele>
        <time>2023-09-29T21:22:44.000Z</time>
        
      </trkpt>
      <trkpt lat="43.56582" lon="144.95894">
        <ele>66.2</ele>
        <time>2023-09-29T21:25:24.000Z</time>
        
      </trkpt>
      <trkpt lat="43.566512" lon="144.959914">
        <ele>72.6</ele>
        <time>2023-09-29T21:26:07.000Z</time>
        
      </trkpt>
      <trkpt lat="43.5674" lon="144.961295">
        <ele>75</ele>
        <time>2023-09-29T21:26:50.000Z</time>
        
      </trkpt>
      <trkpt lat="43.56759" lon="144.962676">
        <ele>79.4</ele>
        <time>2023-09-29T21:27:33.000Z</time>
        
      </trkpt>
      <trkpt lat="43.567952" lon="144.964246">
        <ele>81</ele>
        <time>2023-09-29T21:28:16.000Z</time>
        
      </trkpt>
      <trkpt lat="43.569115" lon="144.964516">
        <ele>78</ele>
        <time>2023-09-29T21:29:53.000Z</time>
        
      </trkpt>
      <trkpt lat="43.569652" lon="144.962943">
        <ele>77</ele>
        <time>2023-09-29T21:30:36.000Z</time>
        
      </trkpt>
      <trkpt lat="43.569378" lon="144.960426">
        <ele>80</ele>
        <time>2023-09-29T21:31:19.000Z</time>
        
      </trkpt>
      <trkpt lat="43.569123" lon="144.957754">
        <ele>81</ele>
        <time>2023-09-29T21:32:02.000Z</time>
        
      </trkpt>
      <trkpt lat="43.569707" lon="144.954795">
        <ele>80.4</ele>
        <time>2023-09-29T21:32:45.000Z</time>
        
      </trkpt>
      <trkpt lat="43.570433" lon="144.951942">
        <ele>80.8</ele>
        <time>2023-09-29T21:33:28.000Z</time>
        
      </trkpt>
      <trkpt lat="43.571094" lon="144.948811">
        <ele>79.6</ele>
        <time>2023-09-29T21:34:11.000Z</time>
        
      </trkpt>
      <trkpt lat="43.571663" lon="144.945914">
        <ele>80.4</ele>
        <time>2023-09-29T21:34:54.000Z</time>
        
      </trkpt>
      <trkpt lat="43.572154" lon="144.943437">
        <ele>82.2</ele>
        <time>2023-09-29T21:35:37.000Z</time>
        
      </trkpt>
      <trkpt lat="43.572676" lon="144.940765">
        <ele>81.6</ele>
        <time>2023-09-29T21:36:20.000Z</time>
        
      </trkpt>
      <trkpt lat="43.573219" lon="144.939106">
        <ele>82.6</ele>
        <time>2023-09-29T21:37:03.000Z</time>
        
      </trkpt>
      <trkpt lat="43.572202" lon="144.93755">
        <ele>83.6</ele>
        <time>2023-09-29T21:39:35.000Z</time>
        
      </trkpt>
      <trkpt lat="43.570934" lon="144.935629">
        <ele>85</ele>
        <time>2023-09-29T21:40:18.000Z</time>
        
      </trkpt>
      <trkpt lat="43.569808" lon="144.933923">
        <ele>84.2</ele>
        <time>2023-09-29T21:41:21.000Z</time>
        
      </trkpt>
      <trkpt lat="43.568498" lon="144.931926">
        <ele>85.4</ele>
        <time>2023-09-29T21:42:04.000Z</time>
        
      </trkpt>
      <trkpt lat="43.567577" lon="144.930528">
        <ele>90</ele>
        <time>2023-09-29T21:42:47.000Z</time>
        
      </trkpt>
      <trkpt lat="43.56657" lon="144.928999">
        <ele>92</ele>
        <time>2023-09-29T21:43:47.000Z</time>
        
      </trkpt>
      <trkpt lat="43.564858" lon="144.926655">
        <ele>89.6</ele>
        <time>2023-09-29T21:44:30.000Z</time>
        
      </trkpt>
      <trkpt lat="43.563417" lon="144.924211">
        <ele>88.8</ele>
        <time>2023-09-29T21:45:13.000Z</time>
        
      </trkpt>
      <trkpt lat="43.562391" lon="144.922651">
        <ele>92.4</ele>
        <time>2023-09-29T21:45:56.000Z</time>
        
      </trkpt>
      <trkpt lat="43.561284" lon="144.920991">
        <ele>92</ele>
        <time>2023-09-29T21:46:39.000Z</time>
        
      </trkpt>
      <trkpt lat="43.562136" lon="144.919807">
        <ele>91.8</ele>
        <time>2023-09-29T21:47:44.000Z</time>
        
      </trkpt>
      <trkpt lat="43.563515" lon="144.918087">
        <ele>92</ele>
        <time>2023-09-29T21:48:27.000Z</time>
        
      </trkpt>
      <trkpt lat="43.565039" lon="144.916183">
        <ele>93.2</ele>
        <time>2023-09-29T21:49:10.000Z</time>
        
      </trkpt>
      <trkpt lat="43.566548" lon="144.914315">
        <ele>94.6</ele>
        <time>2023-09-29T21:49:53.000Z</time>
        
      </trkpt>
      <trkpt lat="43.568065" lon="144.912422">
        <ele>95.6</ele>
        <time>2023-09-29T21:50:36.000Z</time>
        
      </trkpt>
      <trkpt lat="43.569655" lon="144.910444">
        <ele>95.6</ele>
        <time>2023-09-29T21:51:19.000Z</time>
        
      </trkpt>
      <trkpt lat="43.571261" lon="144.908447">
        <ele>96</ele>
        <time>2023-09-29T21:52:02.000Z</time>
        
      </trkpt>
      <trkpt lat="43.572381" lon="144.907022">
        <ele>98</ele>
        <time>2023-09-29T21:58:23.000Z</time>
        
      </trkpt>
      <trkpt lat="43.573631" lon="144.905481">
        <ele>100.6</ele>
        <time>2023-09-29T21:59:06.000Z</time>
        
      </trkpt>
      <trkpt lat="43.57502" lon="144.903729">
        <ele>103</ele>
        <time>2023-09-29T21:59:49.000Z</time>
        
      </trkpt>
      <trkpt lat="43.576448" lon="144.901955">
        <ele>105.2</ele>
        <time>2023-09-29T22:00:32.000Z</time>
        
      </trkpt>
      <trkpt lat="43.577922" lon="144.900136">
        <ele>106.8</ele>
        <time>2023-09-29T22:01:15.000Z</time>
        
      </trkpt>
      <trkpt lat="43.579303" lon="144.898407">
        <ele>108.6</ele>
        <time>2023-09-29T22:01:58.000Z</time>
        
      </trkpt>
      <trkpt lat="43.580659" lon="144.896723">
        <ele>109.6</ele>
        <time>2023-09-29T22:02:41.000Z</time>
        
      </trkpt>
      <trkpt lat="43.582224" lon="144.894768">
        <ele>110</ele>
        <time>2023-09-29T22:03:24.000Z</time>
        
      </trkpt>
      <trkpt lat="43.583412" lon="144.892964">
        <ele>110.8</ele>
        <time>2023-09-29T22:04:07.000Z</time>
        
      </trkpt>
      <trkpt lat="43.582383" lon="144.891417">
        <ele>114.4</ele>
        <time>2023-09-29T22:04:50.000Z</time>
        
      </trkpt>
      <trkpt lat="43.581235" lon="144.889658">
        <ele>117</ele>
        <time>2023-09-29T22:05:33.000Z</time>
        
      </trkpt>
      <trkpt lat="43.579893" lon="144.887627">
        <ele>117.8</ele>
        <time>2023-09-29T22:06:16.000Z</time>
        
      </trkpt>
      <trkpt lat="43.578437" lon="144.885416">
        <ele>117.4</ele>
        <time>2023-09-29T22:06:59.000Z</time>
        
      </trkpt>
      <trkpt lat="43.576899" lon="144.883082">
        <ele>115.6</ele>
        <time>2023-09-29T22:07:42.000Z</time>
        
      </trkpt>
      <trkpt lat="43.575504" lon="144.880969">
        <ele>116.6</ele>
        <time>2023-09-29T22:08:25.000Z</time>
        
      </trkpt>
      <trkpt lat="43.574172" lon="144.878936">
        <ele>117.4</ele>
        <time>2023-09-29T22:09:08.000Z</time>
        
      </trkpt>
      <trkpt lat="43.572377" lon="144.876224">
        <ele>111.2</ele>
        <time>2023-09-29T22:09:51.000Z</time>
        
      </trkpt>
      <trkpt lat="43.570975" lon="144.873987">
        <ele>108.8</ele>
        <time>2023-09-29T22:10:34.000Z</time>
        
      </trkpt>
      <trkpt lat="43.570531" lon="144.87343">
        <ele>108.4</ele>
        <time>2023-09-29T22:11:34.000Z</time>
        
      </trkpt>
      <trkpt lat="43.569094" lon="144.871265">
        <ele>109.4</ele>
        <time>2023-09-29T22:12:17.000Z</time>
        
      </trkpt>
      <trkpt lat="43.568029" lon="144.869667">
        <ele>114.4</ele>
        <time>2023-09-29T22:13:00.000Z</time>
        
      </trkpt>
      <trkpt lat="43.566925" lon="144.867993">
        <ele>117</ele>
        <time>2023-09-29T22:13:43.000Z</time>
        
      </trkpt>
      <trkpt lat="43.565491" lon="144.865824">
        <ele>115.8</ele>
        <time>2023-09-29T22:14:26.000Z</time>
        
      </trkpt>
      <trkpt lat="43.564056" lon="144.863644">
        <ele>114.8</ele>
        <time>2023-09-29T22:15:09.000Z</time>
        
      </trkpt>
      <trkpt lat="43.563" lon="144.862033">
        <ele>115</ele>
        <time>2023-09-29T22:16:23.000Z</time>
        
      </trkpt>
      <trkpt lat="43.561763" lon="144.860157">
        <ele>116.8</ele>
        <time>2023-09-29T22:17:06.000Z</time>
        
      </trkpt>
      <trkpt lat="43.560499" lon="144.85822">
        <ele>118.4</ele>
        <time>2023-09-29T22:17:49.000Z</time>
        
      </trkpt>
      <trkpt lat="43.559144" lon="144.8562">
        <ele>119.8</ele>
        <time>2023-09-29T22:18:32.000Z</time>
        
      </trkpt>
      <trkpt lat="43.557312" lon="144.853407">
        <ele>114</ele>
        <time>2023-09-29T22:19:15.000Z</time>
        
      </trkpt>
      <trkpt lat="43.555601" lon="144.850815">
        <ele>112</ele>
        <time>2023-09-29T22:19:58.000Z</time>
        
      </trkpt>
      <trkpt lat="43.554786" lon="144.849584">
        <ele>117.2</ele>
        <time>2023-09-29T22:20:41.000Z</time>
        
      </trkpt>
      <trkpt lat="43.553735" lon="144.847997">
        <ele>120.6</ele>
        <time>2023-09-29T22:21:24.000Z</time>
        
      </trkpt>
      <trkpt lat="43.552485" lon="144.846093">
        <ele>122.2</ele>
        <time>2023-09-29T22:22:07.000Z</time>
        
      </trkpt>
      <trkpt lat="43.551202" lon="144.84415">
        <ele>124.2</ele>
        <time>2023-09-29T22:22:50.000Z</time>
        
      </trkpt>
      <trkpt lat="43.54975" lon="144.841952">
        <ele>123.2</ele>
        <time>2023-09-29T22:23:33.000Z</time>
        
      </trkpt>
      <trkpt lat="43.547905" lon="144.839154">
        <ele>120.4</ele>
        <time>2023-09-29T22:24:16.000Z</time>
        
      </trkpt>
      <trkpt lat="43.546187" lon="144.836556">
        <ele>118.8</ele>
        <time>2023-09-29T22:24:59.000Z</time>
        
      </trkpt>
      <trkpt lat="43.545035" lon="144.83355">
        <ele>116</ele>
        <time>2023-09-29T22:25:42.000Z</time>
        
      </trkpt>
      <trkpt lat="43.544054" lon="144.830609">
        <ele>115.4</ele>
        <time>2023-09-29T22:26:25.000Z</time>
        
      </trkpt>
      <trkpt lat="43.543328" lon="144.829011">
        <ele>121.2</ele>
        <time>2023-09-29T22:27:08.000Z</time>
        
      </trkpt>
      <trkpt lat="43.542671" lon="144.827584">
        <ele>125.4</ele>
        <time>2023-09-29T22:27:51.000Z</time>
        
      </trkpt>
      <trkpt lat="43.541736" lon="144.825459">
        <ele>126.8</ele>
        <time>2023-09-29T22:28:34.000Z</time>
        
      </trkpt>
      <trkpt lat="43.540661" lon="144.823158">
        <ele>128.4</ele>
        <time>2023-09-29T22:29:17.000Z</time>
        
      </trkpt>
      <trkpt lat="43.53908" lon="144.820765">
        <ele>124</ele>
        <time>2023-09-29T22:30:00.000Z</time>
        
      </trkpt>
      <trkpt lat="43.536809" lon="144.818574">
        <ele>116.8</ele>
        <time>2023-09-29T22:30:43.000Z</time>
        
      </trkpt>
      <trkpt lat="43.534023" lon="144.816753">
        <ele>108.2</ele>
        <time>2023-09-29T22:31:26.000Z</time>
        
      </trkpt>
      <trkpt lat="43.532952" lon="144.815838">
        <ele>113.6</ele>
        <time>2023-09-29T22:32:09.000Z</time>
        
      </trkpt>
      <trkpt lat="43.532124" lon="144.814958">
        <ele>118.4</ele>
        <time>2023-09-29T22:32:52.000Z</time>
        
      </trkpt>
      <trkpt lat="43.53136" lon="144.813997">
        <ele>123</ele>
        <time>2023-09-29T22:33:35.000Z</time>
        
      </trkpt>
      <trkpt lat="43.530607" lon="144.812873">
        <ele>128</ele>
        <time>2023-09-29T22:34:18.000Z</time>
        
      </trkpt>
      <trkpt lat="43.529835" lon="144.811719">
        <ele>133.2</ele>
        <time>2023-09-29T22:35:01.000Z</time>
        
      </trkpt>
      <trkpt lat="43.528977" lon="144.810416">
        <ele>138.2</ele>
        <time>2023-09-29T22:35:44.000Z</time>
        
      </trkpt>
      <trkpt lat="43.527889" lon="144.808777">
        <ele>140</ele>
        <time>2023-09-29T22:36:27.000Z</time>
        
      </trkpt>
      <trkpt lat="43.526592" lon="144.80683">
        <ele>135.2</ele>
        <time>2023-09-29T22:37:56.000Z</time>
        
      </trkpt>
      <trkpt lat="43.524946" lon="144.804345">
        <ele>131.6</ele>
        <time>2023-09-29T22:38:39.000Z</time>
        
      </trkpt>
      <trkpt lat="43.523435" lon="144.802056">
        <ele>130.6</ele>
        <time>2023-09-29T22:39:22.000Z</time>
        
      </trkpt>
      <trkpt lat="43.522072" lon="144.800001">
        <ele>131.8</ele>
        <time>2023-09-29T22:40:05.000Z</time>
        
      </trkpt>
      <trkpt lat="43.520884" lon="144.798268">
        <ele>134.2</ele>
        <time>2023-09-29T22:40:48.000Z</time>
        
      </trkpt>
      <trkpt lat="43.51913" lon="144.795153">
        <ele>121.8</ele>
        <time>2023-09-29T22:41:31.000Z</time>
        
      </trkpt>
      <trkpt lat="43.517239" lon="144.791815">
        <ele>113.2</ele>
        <time>2023-09-29T22:42:14.000Z</time>
        
      </trkpt>
      <trkpt lat="43.515779" lon="144.790355">
        <ele>114.6</ele>
        <time>2023-09-29T22:42:57.000Z</time>
        
      </trkpt>
      <trkpt lat="43.514784" lon="144.789002">
        <ele>119</ele>
        <time>2023-09-29T22:43:40.000Z</time>
        
      </trkpt>
      <trkpt lat="43.51384" lon="144.787564">
        <ele>122.2</ele>
        <time>2023-09-29T22:44:23.000Z</time>
        
      </trkpt>
      <trkpt lat="43.513159" lon="144.786539">
        <ele>128.6</ele>
        <time>2023-09-29T22:45:06.000Z</time>
        
      </trkpt>
      <trkpt lat="43.512631" lon="144.785745">
        <ele>135.2</ele>
        <time>2023-09-29T22:45:49.000Z</time>
        
      </trkpt>
      <trkpt lat="43.511679" lon="144.784295">
        <ele>137</ele>
        <time>2023-09-29T22:46:32.000Z</time>
        
      </trkpt>
      <trkpt lat="43.510472" lon="144.78246">
        <ele>139</ele>
        <time>2023-09-29T22:47:15.000Z</time>
        
      </trkpt>
      <trkpt lat="43.508604" lon="144.779642">
        <ele>131.2</ele>
        <time>2023-09-29T22:47:58.000Z</time>
        
      </trkpt>
      <trkpt lat="43.506817" lon="144.778705">
        <ele>132.8</ele>
        <time>2023-09-29T22:48:41.000Z</time>
        
      </trkpt>
      <trkpt lat="43.504646" lon="144.776969">
        <ele>124.8</ele>
        <time>2023-09-29T22:49:24.000Z</time>
        
      </trkpt>
      <trkpt lat="43.504182" lon="144.774103">
        <ele>126.2</ele>
        <time>2023-09-29T22:50:07.000Z</time>
        
      </trkpt>
      <trkpt lat="43.503405" lon="144.771845">
        <ele>128.4</ele>
        <time>2023-09-29T22:50:50.000Z</time>
        
      </trkpt>
      <trkpt lat="43.502533" lon="144.770493">
        <ele>129.8</ele>
        <time>2023-09-29T22:51:46.000Z</time>
        
      </trkpt>
      <trkpt lat="43.501286" lon="144.768594">
        <ele>131.2</ele>
        <time>2023-09-29T22:52:29.000Z</time>
        
      </trkpt>
      <trkpt lat="43.499976" lon="144.766634">
        <ele>132.2</ele>
        <time>2023-09-29T22:53:12.000Z</time>
        
      </trkpt>
      <trkpt lat="43.49896" lon="144.765093">
        <ele>134.2</ele>
        <time>2023-09-29T22:53:55.000Z</time>
        
      </trkpt>
      <trkpt lat="43.498034" lon="144.763707">
        <ele>138.4</ele>
        <time>2023-09-29T22:54:38.000Z</time>
        
      </trkpt>
      <trkpt lat="43.497487" lon="144.762865">
        <ele>144</ele>
        <time>2023-09-29T22:55:21.000Z</time>
        
      </trkpt>
      <trkpt lat="43.496919" lon="144.762028">
        <ele>149.2</ele>
        <time>2023-09-29T22:56:04.000Z</time>
        
      </trkpt>
      <trkpt lat="43.496076" lon="144.760737">
        <ele>151.2</ele>
        <time>2023-09-29T22:56:47.000Z</time>
        
      </trkpt>
      <trkpt lat="43.494754" lon="144.758756">
        <ele>150.8</ele>
        <time>2023-09-29T22:57:30.000Z</time>
        
      </trkpt>
      <trkpt lat="43.493617" lon="144.757035">
        <ele>153</ele>
        <time>2023-09-29T22:58:13.000Z</time>
        
      </trkpt>
      <trkpt lat="43.492239" lon="144.754966">
        <ele>152.4</ele>
        <time>2023-09-29T22:58:56.000Z</time>
        
      </trkpt>
      <trkpt lat="43.490997" lon="144.753088">
        <ele>153.4</ele>
        <time>2023-09-29T22:59:39.000Z</time>
        
      </trkpt>
      <trkpt lat="43.489919" lon="144.751449">
        <ele>155</ele>
        <time>2023-09-29T23:00:22.000Z</time>
        
      </trkpt>
      <trkpt lat="43.489738" lon="144.749868">
        <ele>155.8</ele>
        <time>2023-09-29T23:01:05.000Z</time>
        
      </trkpt>
      <trkpt lat="43.491004" lon="144.748272">
        <ele>157</ele>
        <time>2023-09-29T23:01:48.000Z</time>
        
      </trkpt>
      <trkpt lat="43.492282" lon="144.746647">
        <ele>157</ele>
        <time>2023-09-29T23:02:31.000Z</time>
        
      </trkpt>
      <trkpt lat="43.493511" lon="144.745102">
        <ele>158.2</ele>
        <time>2023-09-29T23:03:14.000Z</time>
        
      </trkpt>
      <trkpt lat="43.494612" lon="144.743723">
        <ele>159.2</ele>
        <time>2023-09-29T23:03:58.000Z</time>
        
      </trkpt>
      <trkpt lat="43.495276" lon="144.742904">
        <ele>160</ele>
        <time>2023-09-29T23:05:11.000Z</time>
        
      </trkpt>
      <trkpt lat="43.496546" lon="144.74129">
        <ele>161.2</ele>
        <time>2023-09-29T23:05:54.000Z</time>
        
      </trkpt>
      <trkpt lat="43.497846" lon="144.739656">
        <ele>161.8</ele>
        <time>2023-09-29T23:06:37.000Z</time>
        
      </trkpt>
      <trkpt lat="43.499145" lon="144.738021">
        <ele>163.6</ele>
        <time>2023-09-29T23:07:20.000Z</time>
        
      </trkpt>
      <trkpt lat="43.50021" lon="144.736696">
        <ele>165.8</ele>
        <time>2023-09-29T23:08:03.000Z</time>
        
      </trkpt>
      <trkpt lat="43.500274" lon="144.736279">
        <ele>166.2</ele>
        <time>2023-09-29T23:09:16.000Z</time>
        
      </trkpt>
      <trkpt lat="43.499648" lon="144.735427">
        <ele>170.8</ele>
        <time>2023-09-29T23:09:59.000Z</time>
        
      </trkpt>
      <trkpt lat="43.498857" lon="144.734258">
        <ele>173.2</ele>
        <time>2023-09-29T23:10:42.000Z</time>
        
      </trkpt>
      <trkpt lat="43.497426" lon="144.732109">
        <ele>169.8</ele>
        <time>2023-09-29T23:11:25.000Z</time>
        
      </trkpt>
      <trkpt lat="43.495961" lon="144.729923">
        <ele>167.6</ele>
        <time>2023-09-29T23:12:08.000Z</time>
        
      </trkpt>
      <trkpt lat="43.494688" lon="144.728024">
        <ele>167.6</ele>
        <time>2023-09-29T23:12:51.000Z</time>
        
      </trkpt>
      <trkpt lat="43.493282" lon="144.725905">
        <ele>167.4</ele>
        <time>2023-09-29T23:13:34.000Z</time>
        
      </trkpt>
      <trkpt lat="43.49204" lon="144.724024">
        <ele>168.8</ele>
        <time>2023-09-29T23:14:17.000Z</time>
        
      </trkpt>
      <trkpt lat="43.49082" lon="144.722205">
        <ele>169</ele>
        <time>2023-09-29T23:15:00.000Z</time>
        
      </trkpt>
      <trkpt lat="43.489809" lon="144.720723">
        <ele>167.8</ele>
        <time>2023-09-29T23:16:16.000Z</time>
        
      </trkpt>
      <trkpt lat="43.488722" lon="144.719075">
        <ele>165</ele>
        <time>2023-09-29T23:17:32.000Z</time>
        
      </trkpt>
      <trkpt lat="43.487361" lon="144.717038">
        <ele>164.8</ele>
        <time>2023-09-29T23:18:15.000Z</time>
        
      </trkpt>
      <trkpt lat="43.486035" lon="144.715014">
        <ele>163.8</ele>
        <time>2023-09-29T23:18:58.000Z</time>
        
      </trkpt>
      <trkpt lat="43.484506" lon="144.712666">
        <ele>160.8</ele>
        <time>2023-09-29T23:19:41.000Z</time>
        
      </trkpt>
      <trkpt lat="43.483062" lon="144.710481">
        <ele>158.6</ele>
        <time>2023-09-29T23:20:24.000Z</time>
        
      </trkpt>
      <trkpt lat="43.481357" lon="144.707909">
        <ele>152.6</ele>
        <time>2023-09-29T23:21:07.000Z</time>
        
      </trkpt>
      <trkpt lat="43.47989" lon="144.705691">
        <ele>151.2</ele>
        <time>2023-09-29T23:21:50.000Z</time>
        
      </trkpt>
      <trkpt lat="43.479258" lon="144.704739">
        <ele>157.6</ele>
        <time>2023-09-29T23:22:33.000Z</time>
        
      </trkpt>
      <trkpt lat="43.478176" lon="144.70311">
        <ele>158</ele>
        <time>2023-09-29T23:23:16.000Z</time>
        
      </trkpt>
      <trkpt lat="43.476888" lon="144.701153">
        <ele>157.8</ele>
        <time>2023-09-29T23:23:59.000Z</time>
        
      </trkpt>
      <trkpt lat="43.475691" lon="144.699361">
        <ele>157.6</ele>
        <time>2023-09-29T23:24:42.000Z</time>
        
      </trkpt>
      <trkpt lat="43.474538" lon="144.697632">
        <ele>159.2</ele>
        <time>2023-09-29T23:25:25.000Z</time>
        
      </trkpt>
      <trkpt lat="43.47325" lon="144.695693">
        <ele>159.4</ele>
        <time>2023-09-29T23:26:08.000Z</time>
        
      </trkpt>
      <trkpt lat="43.471891" lon="144.693631">
        <ele>160.2</ele>
        <time>2023-09-29T23:26:51.000Z</time>
        
      </trkpt>
      <trkpt lat="43.470435" lon="144.691425">
        <ele>158</ele>
        <time>2023-09-29T23:27:34.000Z</time>
        
      </trkpt>
      <trkpt lat="43.469134" lon="144.689476">
        <ele>157.4</ele>
        <time>2023-09-29T23:28:17.000Z</time>
        
      </trkpt>
      <trkpt lat="43.46754" lon="144.687362">
        <ele>152.2</ele>
        <time>2023-09-29T23:29:00.000Z</time>
        
      </trkpt>
      <trkpt lat="43.467388" lon="144.685137">
        <ele>152.4</ele>
        <time>2023-09-29T23:29:43.000Z</time>
        
      </trkpt>
      <trkpt lat="43.467375" lon="144.68282">
        <ele>155.2</ele>
        <time>2023-09-29T23:30:26.000Z</time>
        
      </trkpt>
      <trkpt lat="43.467365" lon="144.680732">
        <ele>157.2</ele>
        <time>2023-09-29T23:31:09.000Z</time>
        
      </trkpt>
      <trkpt lat="43.466672" lon="144.678764">
        <ele>157.4</ele>
        <time>2023-09-29T23:31:52.000Z</time>
        
      </trkpt>
      <trkpt lat="43.465956" lon="144.677225">
        <ele>155.6</ele>
        <time>2023-09-29T23:33:04.000Z</time>
        
      </trkpt>
      <trkpt lat="43.466133" lon="144.676811">
        <ele>156.2</ele>
        <time>2023-09-30T00:39:17.000Z</time>
        
      </trkpt>
      <trkpt lat="43.467312" lon="144.675455">
        <ele>158.6</ele>
        <time>2023-09-30T00:40:31.000Z</time>
        
      </trkpt>
      <trkpt lat="43.468785" lon="144.673598">
        <ele>159.6</ele>
        <time>2023-09-30T00:41:14.000Z</time>
        
      </trkpt>
      <trkpt lat="43.470289" lon="144.671719">
        <ele>160.8</ele>
        <time>2023-09-30T00:41:57.000Z</time>
        
      </trkpt>
      <trkpt lat="43.471428" lon="144.670291">
        <ele>164.8</ele>
        <time>2023-09-30T00:42:40.000Z</time>
        
      </trkpt>
      <trkpt lat="43.472774" lon="144.668579">
        <ele>167</ele>
        <time>2023-09-30T00:43:23.000Z</time>
        
      </trkpt>
      <trkpt lat="43.474211" lon="144.666783">
        <ele>169</ele>
        <time>2023-09-30T00:44:06.000Z</time>
        
      </trkpt>
      <trkpt lat="43.475753" lon="144.664866">
        <ele>170.4</ele>
        <time>2023-09-30T00:44:49.000Z</time>
        
      </trkpt>
      <trkpt lat="43.477159" lon="144.663074">
        <ele>171</ele>
        <time>2023-09-30T00:45:32.000Z</time>
        
      </trkpt>
      <trkpt lat="43.478415" lon="144.661517">
        <ele>172.6</ele>
        <time>2023-09-30T00:46:15.000Z</time>
        
      </trkpt>
      <trkpt lat="43.479173" lon="144.660477">
        <ele>172.6</ele>
        <time>2023-09-30T00:46:58.000Z</time>
        
      </trkpt>
      <trkpt lat="43.479587" lon="144.65804">
        <ele>173.4</ele>
        <time>2023-09-30T00:47:45.000Z</time>
        
      </trkpt>
      <trkpt lat="43.479931" lon="144.65553">
        <ele>174.2</ele>
        <time>2023-09-30T00:48:28.000Z</time>
        
      </trkpt>
      <trkpt lat="43.479252" lon="144.653703">
        <ele>175.2</ele>
        <time>2023-09-30T00:49:11.000Z</time>
        
      </trkpt>
      <trkpt lat="43.47782" lon="144.651808">
        <ele>175.2</ele>
        <time>2023-09-30T00:49:54.000Z</time>
        
      </trkpt>
      <trkpt lat="43.476085" lon="144.65046">
        <ele>166.2</ele>
        <time>2023-09-30T00:50:37.000Z</time>
        
      </trkpt>
      <trkpt lat="43.475305" lon="144.648692">
        <ele>166.8</ele>
        <time>2023-09-30T00:51:20.000Z</time>
        
      </trkpt>
      <trkpt lat="43.475176" lon="144.646963">
        <ele>170.2</ele>
        <time>2023-09-30T00:52:03.000Z</time>
        
      </trkpt>
      <trkpt lat="43.476525" lon="144.645252">
        <ele>172</ele>
        <time>2023-09-30T00:52:46.000Z</time>
        
      </trkpt>
      <trkpt lat="43.477667" lon="144.643827">
        <ele>175</ele>
        <time>2023-09-30T00:53:29.000Z</time>
        
      </trkpt>
      <trkpt lat="43.478975" lon="144.642176">
        <ele>177.6</ele>
        <time>2023-09-30T00:54:12.000Z</time>
        
      </trkpt>
      <trkpt lat="43.480276" lon="144.64054">
        <ele>180.2</ele>
        <time>2023-09-30T00:54:55.000Z</time>
        
      </trkpt>
      <trkpt lat="43.481679" lon="144.638783">
        <ele>182</ele>
        <time>2023-09-30T00:55:38.000Z</time>
        
      </trkpt>
      <trkpt lat="43.48295" lon="144.63718">
        <ele>185.4</ele>
        <time>2023-09-30T00:56:21.000Z</time>
        
      </trkpt>
      <trkpt lat="43.484189" lon="144.635617">
        <ele>188.4</ele>
        <time>2023-09-30T00:57:04.000Z</time>
        
      </trkpt>
      <trkpt lat="43.485452" lon="144.634032">
        <ele>191.2</ele>
        <time>2023-09-30T00:57:47.000Z</time>
        
      </trkpt>
      <trkpt lat="43.485213" lon="144.63215">
        <ele>192.4</ele>
        <time>2023-09-30T00:58:30.000Z</time>
        
      </trkpt>
      <trkpt lat="43.483895" lon="144.629592">
        <ele>192.4</ele>
        <time>2023-09-30T00:59:13.000Z</time>
        
      </trkpt>
      <trkpt lat="43.482066" lon="144.627124">
        <ele>190.8</ele>
        <time>2023-09-30T00:59:56.000Z</time>
        
      </trkpt>
      <trkpt lat="43.480322" lon="144.624888">
        <ele>189.4</ele>
        <time>2023-09-30T01:00:39.000Z</time>
        
      </trkpt>
      <trkpt lat="43.479175" lon="144.623395">
        <ele>193.2</ele>
        <time>2023-09-30T01:01:22.000Z</time>
        
      </trkpt>
      <trkpt lat="43.478176" lon="144.622139">
        <ele>197.2</ele>
        <time>2023-09-30T01:02:05.000Z</time>
        
      </trkpt>
      <trkpt lat="43.477" lon="144.621111">
        <ele>201.4</ele>
        <time>2023-09-30T01:02:48.000Z</time>
        
      </trkpt>
      <trkpt lat="43.475798" lon="144.620247">
        <ele>206</ele>
        <time>2023-09-30T01:03:31.000Z</time>
        
      </trkpt>
      <trkpt lat="43.474594" lon="144.619382">
        <ele>209</ele>
        <time>2023-09-30T01:04:55.000Z</time>
        
      </trkpt>
      <trkpt lat="43.473438" lon="144.61853">
        <ele>212.2</ele>
        <time>2023-09-30T01:05:38.000Z</time>
        
      </trkpt>
      <trkpt lat="43.473413" lon="144.616837">
        <ele>213.2</ele>
        <time>2023-09-30T01:06:46.000Z</time>
        
      </trkpt>
      <trkpt lat="43.473426" lon="144.614376">
        <ele>216.2</ele>
        <time>2023-09-30T01:07:29.000Z</time>
        
      </trkpt>
      <trkpt lat="43.473426" lon="144.612619">
        <ele>221.4</ele>
        <time>2023-09-30T01:08:12.000Z</time>
        
      </trkpt>
      <trkpt lat="43.473428" lon="144.611031">
        <ele>226.6</ele>
        <time>2023-09-30T01:08:55.000Z</time>
        
      </trkpt>
      <trkpt lat="43.473435" lon="144.609434">
        <ele>232.4</ele>
        <time>2023-09-30T01:09:38.000Z</time>
        
      </trkpt>
      <trkpt lat="43.473434" lon="144.6071">
        <ele>235</ele>
        <time>2023-09-30T01:10:21.000Z</time>
        
      </trkpt>
      <trkpt lat="43.473772" lon="144.602327">
        <ele>218.2</ele>
        <time>2023-09-30T01:11:04.000Z</time>
        
      </trkpt>
      <trkpt lat="43.474608" lon="144.5994">
        <ele>207.2</ele>
        <time>2023-09-30T01:13:20.000Z</time>
        
      </trkpt>
      <trkpt lat="43.475919" lon="144.595194">
        <ele>200.8</ele>
        <time>2023-09-30T01:14:03.000Z</time>
        
      </trkpt>
      <trkpt lat="43.477097" lon="144.591341">
        <ele>198.2</ele>
        <time>2023-09-30T01:14:46.000Z</time>
        
      </trkpt>
      <trkpt lat="43.478072" lon="144.588206">
        <ele>198.8</ele>
        <time>2023-09-30T01:15:29.000Z</time>
        
      </trkpt>
      <trkpt lat="43.478768" lon="144.585178">
        <ele>199.6</ele>
        <time>2023-09-30T01:16:12.000Z</time>
        
      </trkpt>
      <trkpt lat="43.478699" lon="144.581932">
        <ele>199.4</ele>
        <time>2023-09-30T01:16:55.000Z</time>
        
      </trkpt>
      <trkpt lat="43.478536" lon="144.578465">
        <ele>199.4</ele>
        <time>2023-09-30T01:17:38.000Z</time>
        
      </trkpt>
      <trkpt lat="43.478387" lon="144.575305">
        <ele>200</ele>
        <time>2023-09-30T01:18:21.000Z</time>
        
      </trkpt>
      <trkpt lat="43.478195" lon="144.572666">
        <ele>203.2</ele>
        <time>2023-09-30T01:19:04.000Z</time>
        
      </trkpt>
      <trkpt lat="43.477985" lon="144.569823">
        <ele>205.4</ele>
        <time>2023-09-30T01:19:47.000Z</time>
        
      </trkpt>
      <trkpt lat="43.477754" lon="144.566682">
        <ele>205.6</ele>
        <time>2023-09-30T01:20:30.000Z</time>
        
      </trkpt>
      <trkpt lat="43.477552" lon="144.563909">
        <ele>207.8</ele>
        <time>2023-09-30T01:21:13.000Z</time>
        
      </trkpt>
      <trkpt lat="43.477641" lon="144.562322">
        <ele>214.2</ele>
        <time>2023-09-30T01:21:56.000Z</time>
        
      </trkpt>
      <trkpt lat="43.477988" lon="144.560877">
        <ele>220.2</ele>
        <time>2023-09-30T01:22:39.000Z</time>
        
      </trkpt>
      <trkpt lat="43.478604" lon="144.559545">
        <ele>226.2</ele>
        <time>2023-09-30T01:23:22.000Z</time>
        
      </trkpt>
      <trkpt lat="43.479286" lon="144.558344">
        <ele>232</ele>
        <time>2023-09-30T01:24:05.000Z</time>
        
      </trkpt>
      <trkpt lat="43.47996" lon="144.557145">
        <ele>238.2</ele>
        <time>2023-09-30T01:24:48.000Z</time>
        
      </trkpt>
      <trkpt lat="43.480612" lon="144.555993">
        <ele>243.6</ele>
        <time>2023-09-30T01:25:31.000Z</time>
        
      </trkpt>
      <trkpt lat="43.481307" lon="144.554733">
        <ele>249.6</ele>
        <time>2023-09-30T01:26:14.000Z</time>
        
      </trkpt>
      <trkpt lat="43.481885" lon="144.553295">
        <ele>255.2</ele>
        <time>2023-09-30T01:26:57.000Z</time>
        
      </trkpt>
      <trkpt lat="43.482236" lon="144.551484">
        <ele>256.8</ele>
        <time>2023-09-30T01:29:19.000Z</time>
        
      </trkpt>
      <trkpt lat="43.482728" lon="144.547564">
        <ele>249.4</ele>
        <time>2023-09-30T01:30:02.000Z</time>
        
      </trkpt>
      <trkpt lat="43.482075" lon="144.542097">
        <ele>226.8</ele>
        <time>2023-09-30T01:30:45.000Z</time>
        
      </trkpt>
      <trkpt lat="43.483238" lon="144.537061">
        <ele>208</ele>
        <time>2023-09-30T01:31:28.000Z</time>
        
      </trkpt>
      <trkpt lat="43.484671" lon="144.539472">
        <ele>202.8</ele>
        <time>2023-09-30T01:32:11.000Z</time>
        
      </trkpt>
      <trkpt lat="43.48612" lon="144.540099">
        <ele>206.6</ele>
        <time>2023-09-30T01:32:54.000Z</time>
        
      </trkpt>
      <trkpt lat="43.489078" lon="144.537738">
        <ele>194.8</ele>
        <time>2023-09-30T01:33:37.000Z</time>
        
      </trkpt>
      <trkpt lat="43.491476" lon="144.53583">
        <ele>193.4</ele>
        <time>2023-09-30T01:34:20.000Z</time>
        
      </trkpt>
      <trkpt lat="43.492725" lon="144.534823">
        <ele>197.2</ele>
        <time>2023-09-30T01:35:03.000Z</time>
        
      </trkpt>
      <trkpt lat="43.494784" lon="144.532779">
        <ele>195.2</ele>
        <time>2023-09-30T01:35:46.000Z</time>
        
      </trkpt>
      <trkpt lat="43.495771" lon="144.531554">
        <ele>201.4</ele>
        <time>2023-09-30T01:37:26.000Z</time>
        
      </trkpt>
      <trkpt lat="43.497501" lon="144.530156">
        <ele>204.6</ele>
        <time>2023-09-30T01:38:09.000Z</time>
        
      </trkpt>
      <trkpt lat="43.498707" lon="144.528476">
        <ele>208.8</ele>
        <time>2023-09-30T01:38:52.000Z</time>
        
      </trkpt>
      <trkpt lat="43.499953" lon="144.526516">
        <ele>212</ele>
        <time>2023-09-30T01:39:35.000Z</time>
        
      </trkpt>
      <trkpt lat="43.501227" lon="144.524324">
        <ele>209.6</ele>
        <time>2023-09-30T01:40:18.000Z</time>
        
      </trkpt>
      <trkpt lat="43.500687" lon="144.520581">
        <ele>204.2</ele>
        <time>2023-09-30T01:41:01.000Z</time>
        
      </trkpt>
      <trkpt lat="43.500326" lon="144.518149">
        <ele>209.2</ele>
        <time>2023-09-30T01:41:44.000Z</time>
        
      </trkpt>
      <trkpt lat="43.500225" lon="144.515035">
        <ele>206.4</ele>
        <time>2023-09-30T01:42:27.000Z</time>
        
      </trkpt>
      <trkpt lat="43.500692" lon="144.510898">
        <ele>200</ele>
        <time>2023-09-30T01:43:10.000Z</time>
        
      </trkpt>
      <trkpt lat="43.50098" lon="144.508265">
        <ele>199.2</ele>
        <time>2023-09-30T01:45:19.000Z</time>
        
      </trkpt>
      <trkpt lat="43.501374" lon="144.504813">
        <ele>194.2</ele>
        <time>2023-09-30T01:46:02.000Z</time>
        
      </trkpt>
      <trkpt lat="43.50185" lon="144.500625">
        <ele>187.4</ele>
        <time>2023-09-30T01:46:45.000Z</time>
        
      </trkpt>
      <trkpt lat="43.502271" lon="144.496856">
        <ele>184.2</ele>
        <time>2023-09-30T01:47:28.000Z</time>
        
      </trkpt>
      <trkpt lat="43.50152" lon="144.492676">
        <ele>173</ele>
        <time>2023-09-30T01:48:11.000Z</time>
        
      </trkpt>
      <trkpt lat="43.500613" lon="144.489654">
        <ele>162.6</ele>
        <time>2023-09-30T01:49:12.000Z</time>
        
      </trkpt>
      <trkpt lat="43.499347" lon="144.485647">
        <ele>154</ele>
        <time>2023-09-30T01:49:55.000Z</time>
        
      </trkpt>
      <trkpt lat="43.497685" lon="144.482181">
        <ele>149</ele>
        <time>2023-09-30T01:50:38.000Z</time>
        
      </trkpt>
      <trkpt lat="43.496347" lon="144.479418">
        <ele>148.4</ele>
        <time>2023-09-30T01:51:21.000Z</time>
        
      </trkpt>
      <trkpt lat="43.495232" lon="144.477116">
        <ele>145.6</ele>
        <time>2023-09-30T01:52:04.000Z</time>
        
      </trkpt>
      <trkpt lat="43.493863" lon="144.47429">
        <ele>142.2</ele>
        <time>2023-09-30T01:52:47.000Z</time>
        
      </trkpt>
      <trkpt lat="43.492884" lon="144.472865">
        <ele>135.4</ele>
        <time>2023-09-30T01:53:40.000Z</time>
        
      </trkpt>
      <trkpt lat="43.493845" lon="144.474169">
        <ele>140.4</ele>
        <time>2023-09-30T01:54:23.000Z</time>
        
      </trkpt>
      <trkpt lat="43.493925" lon="144.475002">
        <ele>141.6</ele>
        <time>2023-09-30T01:55:50.000Z</time>
        
      </trkpt>
      <trkpt lat="43.49421" lon="144.475037">
        <ele>143.6</ele>
        <time>2023-09-30T03:12:53.000Z</time>
        
      </trkpt>
      <trkpt lat="43.495107" lon="144.476751">
        <ele>147.6</ele>
        <time>2023-09-30T03:13:36.000Z</time>
        
      </trkpt>
      <trkpt lat="43.49602" lon="144.478614">
        <ele>149.2</ele>
        <time>2023-09-30T03:14:19.000Z</time>
        
      </trkpt>
      <trkpt lat="43.497112" lon="144.480903">
        <ele>150</ele>
        <time>2023-09-30T03:15:02.000Z</time>
        
      </trkpt>
      <trkpt lat="43.498419" lon="144.480396">
        <ele>154.6</ele>
        <time>2023-09-30T03:15:45.000Z</time>
        
      </trkpt>
      <trkpt lat="43.499628" lon="144.479471">
        <ele>159.4</ele>
        <time>2023-09-30T03:16:28.000Z</time>
        
      </trkpt>
      <trkpt lat="43.500971" lon="144.478427">
        <ele>163.4</ele>
        <time>2023-09-30T03:17:11.000Z</time>
        
      </trkpt>
      <trkpt lat="43.50204" lon="144.477607">
        <ele>168.4</ele>
        <time>2023-09-30T03:17:54.000Z</time>
        
      </trkpt>
      <trkpt lat="43.503071" lon="144.476809">
        <ele>174</ele>
        <time>2023-09-30T03:18:37.000Z</time>
        
      </trkpt>
      <trkpt lat="43.505118" lon="144.475229">
        <ele>172.6</ele>
        <time>2023-09-30T03:19:20.000Z</time>
        
      </trkpt>
      <trkpt lat="43.506474" lon="144.474179">
        <ele>176.8</ele>
        <time>2023-09-30T03:20:03.000Z</time>
        
      </trkpt>
      <trkpt lat="43.507959" lon="144.473191">
        <ele>180.2</ele>
        <time>2023-09-30T03:20:46.000Z</time>
        
      </trkpt>
      <trkpt lat="43.508834" lon="144.474628">
        <ele>185.2</ele>
        <time>2023-09-30T03:21:29.000Z</time>
        
      </trkpt>
      <trkpt lat="43.510178" lon="144.474581">
        <ele>187.4</ele>
        <time>2023-09-30T03:22:12.000Z</time>
        
      </trkpt>
      <trkpt lat="43.511708" lon="144.473408">
        <ele>191.4</ele>
        <time>2023-09-30T03:22:55.000Z</time>
        
      </trkpt>
      <trkpt lat="43.513407" lon="144.472127">
        <ele>192.2</ele>
        <time>2023-09-30T03:23:38.000Z</time>
        
      </trkpt>
      <trkpt lat="43.514545" lon="144.473143">
        <ele>196.4</ele>
        <time>2023-09-30T03:24:28.000Z</time>
        
      </trkpt>
      <trkpt lat="43.515592" lon="144.47474">
        <ele>201.2</ele>
        <time>2023-09-30T03:25:11.000Z</time>
        
      </trkpt>
      <trkpt lat="43.516514" lon="144.476274">
        <ele>204.8</ele>
        <time>2023-09-30T03:25:54.000Z</time>
        
      </trkpt>
      <trkpt lat="43.517483" lon="144.477883">
        <ele>209.2</ele>
        <time>2023-09-30T03:26:37.000Z</time>
        
      </trkpt>
      <trkpt lat="43.518441" lon="144.479489">
        <ele>213.6</ele>
        <time>2023-09-30T03:27:20.000Z</time>
        
      </trkpt>
      <trkpt lat="43.519293" lon="144.480915">
        <ele>218.4</ele>
        <time>2023-09-30T03:28:03.000Z</time>
        
      </trkpt>
      <trkpt lat="43.520127" lon="144.482292">
        <ele>223.4</ele>
        <time>2023-09-30T03:28:46.000Z</time>
        
      </trkpt>
      <trkpt lat="43.521009" lon="144.483769">
        <ele>227.8</ele>
        <time>2023-09-30T03:29:29.000Z</time>
        
      </trkpt>
      <trkpt lat="43.521899" lon="144.485258">
        <ele>232.4</ele>
        <time>2023-09-30T03:30:12.000Z</time>
        
      </trkpt>
      <trkpt lat="43.522708" lon="144.486602">
        <ele>237.8</ele>
        <time>2023-09-30T03:30:55.000Z</time>
        
      </trkpt>
      <trkpt lat="43.523483" lon="144.487907">
        <ele>243</ele>
        <time>2023-09-30T03:31:38.000Z</time>
        
      </trkpt>
      <trkpt lat="43.524271" lon="144.489223">
        <ele>248.4</ele>
        <time>2023-09-30T03:32:21.000Z</time>
        
      </trkpt>
      <trkpt lat="43.525069" lon="144.490545">
        <ele>253.8</ele>
        <time>2023-09-30T03:33:04.000Z</time>
        
      </trkpt>
      <trkpt lat="43.525835" lon="144.491819">
        <ele>258.8</ele>
        <time>2023-09-30T03:33:47.000Z</time>
        
      </trkpt>
      <trkpt lat="43.526597" lon="144.4931">
        <ele>264.2</ele>
        <time>2023-09-30T03:34:30.000Z</time>
        
      </trkpt>
      <trkpt lat="43.527284" lon="144.494237">
        <ele>269.2</ele>
        <time>2023-09-30T03:35:49.000Z</time>
        
      </trkpt>
      <trkpt lat="43.528018" lon="144.495452">
        <ele>275.2</ele>
        <time>2023-09-30T03:36:32.000Z</time>
        
      </trkpt>
      <trkpt lat="43.528472" lon="144.49639">
        <ele>279.2</ele>
        <time>2023-09-30T03:37:43.000Z</time>
        
      </trkpt>
      <trkpt lat="43.528992" lon="144.497081">
        <ele>282.8</ele>
        <time>2023-09-30T03:38:59.000Z</time>
        
      </trkpt>
      <trkpt lat="43.52972" lon="144.498302">
        <ele>289.6</ele>
        <time>2023-09-30T03:39:42.000Z</time>
        
      </trkpt>
      <trkpt lat="43.530544" lon="144.499535">
        <ele>296.8</ele>
        <time>2023-09-30T03:40:25.000Z</time>
        
      </trkpt>
      <trkpt lat="43.531305" lon="144.500538">
        <ele>303.2</ele>
        <time>2023-09-30T03:41:16.000Z</time>
        
      </trkpt>
      <trkpt lat="43.532189" lon="144.501483">
        <ele>310.4</ele>
        <time>2023-09-30T03:41:59.000Z</time>
        
      </trkpt>
      <trkpt lat="43.533042" lon="144.502195">
        <ele>317</ele>
        <time>2023-09-30T03:42:42.000Z</time>
        
      </trkpt>
      <trkpt lat="43.533798" lon="144.50269">
        <ele>324.8</ele>
        <time>2023-09-30T03:43:25.000Z</time>
        
      </trkpt>
      <trkpt lat="43.534524" lon="144.503188">
        <ele>332.2</ele>
        <time>2023-09-30T03:44:08.000Z</time>
        
      </trkpt>
      <trkpt lat="43.535228" lon="144.503634">
        <ele>340</ele>
        <time>2023-09-30T03:44:51.000Z</time>
        
      </trkpt>
      <trkpt lat="43.535956" lon="144.504094">
        <ele>347.6</ele>
        <time>2023-09-30T03:45:34.000Z</time>
        
      </trkpt>
      <trkpt lat="43.536679" lon="144.504583">
        <ele>355.4</ele>
        <time>2023-09-30T03:46:17.000Z</time>
        
      </trkpt>
      <trkpt lat="43.537396" lon="144.505059">
        <ele>363</ele>
        <time>2023-09-30T03:47:00.000Z</time>
        
      </trkpt>
      <trkpt lat="43.538152" lon="144.505555">
        <ele>370.6</ele>
        <time>2023-09-30T03:47:43.000Z</time>
        
      </trkpt>
      <trkpt lat="43.539" lon="144.506009">
        <ele>377.4</ele>
        <time>2023-09-30T03:48:26.000Z</time>
        
      </trkpt>
      <trkpt lat="43.539905" lon="144.506348">
        <ele>383.8</ele>
        <time>2023-09-30T03:49:09.000Z</time>
        
      </trkpt>
      <trkpt lat="43.540853" lon="144.506543">
        <ele>390.4</ele>
        <time>2023-09-30T03:49:52.000Z</time>
        
      </trkpt>
      <trkpt lat="43.541668" lon="144.506759">
        <ele>399</ele>
        <time>2023-09-30T03:50:35.000Z</time>
        
      </trkpt>
      <trkpt lat="43.541935" lon="144.507899">
        <ele>408.4</ele>
        <time>2023-09-30T03:56:11.000Z</time>
        
      </trkpt>
      <trkpt lat="43.542549" lon="144.508495">
        <ele>416.8</ele>
        <time>2023-09-30T03:56:54.000Z</time>
        
      </trkpt>
      <trkpt lat="43.543261" lon="144.507803">
        <ele>424.4</ele>
        <time>2023-09-30T03:57:37.000Z</time>
        
      </trkpt>
      <trkpt lat="43.544087" lon="144.506902">
        <ele>430.8</ele>
        <time>2023-09-30T03:58:20.000Z</time>
        
      </trkpt>
      <trkpt lat="43.544904" lon="144.506524">
        <ele>438.4</ele>
        <time>2023-09-30T03:59:03.000Z</time>
        
      </trkpt>
      <trkpt lat="43.545678" lon="144.506199">
        <ele>445.4</ele>
        <time>2023-09-30T03:59:46.000Z</time>
        
      </trkpt>
      <trkpt lat="43.546382" lon="144.505651">
        <ele>453</ele>
        <time>2023-09-30T04:00:29.000Z</time>
        
      </trkpt>
      <trkpt lat="43.547162" lon="144.505467">
        <ele>460.8</ele>
        <time>2023-09-30T04:01:12.000Z</time>
        
      </trkpt>
      <trkpt lat="43.547754" lon="144.504849">
        <ele>468</ele>
        <time>2023-09-30T04:01:55.000Z</time>
        
      </trkpt>
      <trkpt lat="43.548331" lon="144.503986">
        <ele>474</ele>
        <time>2023-09-30T04:02:52.000Z</time>
        
      </trkpt>
      <trkpt lat="43.549118" lon="144.50308">
        <ele>482.4</ele>
        <time>2023-09-30T04:03:35.000Z</time>
        
      </trkpt>
      <trkpt lat="43.54992" lon="144.502642">
        <ele>489.6</ele>
        <time>2023-09-30T04:04:30.000Z</time>
        
      </trkpt>
      <trkpt lat="43.550434" lon="144.503912">
        <ele>497</ele>
        <time>2023-09-30T04:05:13.000Z</time>
        
      </trkpt>
      <trkpt lat="43.551019" lon="144.504968">
        <ele>504</ele>
        <time>2023-09-30T04:05:56.000Z</time>
        
      </trkpt>
      <trkpt lat="43.551916" lon="144.504858">
        <ele>510.6</ele>
        <time>2023-09-30T04:06:39.000Z</time>
        
      </trkpt>
      <trkpt lat="43.552723" lon="144.50437">
        <ele>517.6</ele>
        <time>2023-09-30T04:07:22.000Z</time>
        
      </trkpt>
      <trkpt lat="43.553365" lon="144.505014">
        <ele>525.8</ele>
        <time>2023-09-30T04:08:05.000Z</time>
        
      </trkpt>
      <trkpt lat="43.553726" lon="144.50608">
        <ele>533.6</ele>
        <time>2023-09-30T04:08:48.000Z</time>
        
      </trkpt>
      <trkpt lat="43.554549" lon="144.506503">
        <ele>541</ele>
        <time>2023-09-30T04:09:31.000Z</time>
        
      </trkpt>
      <trkpt lat="43.555396" lon="144.506738">
        <ele>548.4</ele>
        <time>2023-09-30T04:10:14.000Z</time>
        
      </trkpt>
      <trkpt lat="43.556045" lon="144.507004">
        <ele>553.6</ele>
        <time>2023-09-30T05:14:50.000Z</time>
        
      </trkpt>
      <trkpt lat="43.556946" lon="144.506616">
        <ele>558.4</ele>
        <time>2023-09-30T05:15:33.000Z</time>
        
      </trkpt>
      <trkpt lat="43.55799" lon="144.505992">
        <ele>563</ele>
        <time>2023-09-30T05:16:16.000Z</time>
        
      </trkpt>
      <trkpt lat="43.559244" lon="144.5053">
        <ele>563.2</ele>
        <time>2023-09-30T05:17:38.000Z</time>
        
      </trkpt>
      <trkpt lat="43.56042" lon="144.504353">
        <ele>566.6</ele>
        <time>2023-09-30T05:18:21.000Z</time>
        
      </trkpt>
      <trkpt lat="43.561451" lon="144.50364">
        <ele>570.8</ele>
        <time>2023-09-30T05:19:22.000Z</time>
        
      </trkpt>
      <trkpt lat="43.562627" lon="144.502984">
        <ele>575.2</ele>
        <time>2023-09-30T05:20:05.000Z</time>
        
      </trkpt>
      <trkpt lat="43.563773" lon="144.50272">
        <ele>580.6</ele>
        <time>2023-09-30T05:20:48.000Z</time>
        
      </trkpt>
      <trkpt lat="43.564594" lon="144.502699">
        <ele>587.8</ele>
        <time>2023-09-30T05:21:31.000Z</time>
        
      </trkpt>
      <trkpt lat="43.56541" lon="144.502791">
        <ele>594.8</ele>
        <time>2023-09-30T05:22:14.000Z</time>
        
      </trkpt>
      <trkpt lat="43.56634" lon="144.50291">
        <ele>601.2</ele>
        <time>2023-09-30T05:22:57.000Z</time>
        
      </trkpt>
      <trkpt lat="43.567342" lon="144.502946">
        <ele>607</ele>
        <time>2023-09-30T05:23:40.000Z</time>
        
      </trkpt>
      <trkpt lat="43.568214" lon="144.502654">
        <ele>613.2</ele>
        <time>2023-09-30T05:24:23.000Z</time>
        
      </trkpt>
      <trkpt lat="43.568958" lon="144.502309">
        <ele>620.2</ele>
        <time>2023-09-30T05:25:06.000Z</time>
        
      </trkpt>
      <trkpt lat="43.569703" lon="144.502009">
        <ele>627.4</ele>
        <time>2023-09-30T05:25:49.000Z</time>
        
      </trkpt>
      <trkpt lat="43.570631" lon="144.501916">
        <ele>633.6</ele>
        <time>2023-09-30T05:26:32.000Z</time>
        
      </trkpt>
      <trkpt lat="43.571433" lon="144.501123">
        <ele>640</ele>
        <time>2023-09-30T05:27:15.000Z</time>
        
      </trkpt>
      <trkpt lat="43.572337" lon="144.501562">
        <ele>645.4</ele>
        <time>2023-09-30T05:28:16.000Z</time>
        
      </trkpt>
      <trkpt lat="43.573436" lon="144.501645">
        <ele>652.6</ele>
        <time>2023-09-30T05:28:59.000Z</time>
        
      </trkpt>
      <trkpt lat="43.574501" lon="144.501592">
        <ele>658.8</ele>
        <time>2023-09-30T05:29:42.000Z</time>
        
      </trkpt>
      <trkpt lat="43.575441" lon="144.501076">
        <ele>665.2</ele>
        <time>2023-09-30T05:30:25.000Z</time>
        
      </trkpt>
      <trkpt lat="43.576573" lon="144.501061">
        <ele>670.2</ele>
        <time>2023-09-30T05:31:08.000Z</time>
        
      </trkpt>
      <trkpt lat="43.577796" lon="144.500938">
        <ele>674.8</ele>
        <time>2023-09-30T05:31:51.000Z</time>
        
      </trkpt>
      <trkpt lat="43.580046" lon="144.499683">
        <ele>671</ele>
        <time>2023-09-30T05:32:34.000Z</time>
        
      </trkpt>
      <trkpt lat="43.581403" lon="144.500242">
        <ele>678.4</ele>
        <time>2023-09-30T05:33:17.000Z</time>
        
      </trkpt>
      <trkpt lat="43.582026" lon="144.501269">
        <ele>680.8</ele>
        <time>2023-09-30T05:34:28.000Z</time>
        
      </trkpt>
      <trkpt lat="43.582778" lon="144.502283">
        <ele>679.4</ele>
        <time>2023-09-30T05:36:15.000Z</time>
        
      </trkpt>
      <trkpt lat="43.58354" lon="144.503043">
        <ele>674.2</ele>
        <time>2023-09-30T05:53:59.000Z</time>
        
      </trkpt>
      <trkpt lat="43.585251" lon="144.503667">
        <ele>662.6</ele>
        <time>2023-09-30T05:59:34.000Z</time>
        
      </trkpt>
      <trkpt lat="43.58909" lon="144.504201">
        <ele>634.4</ele>
        <time>2023-09-30T06:00:17.000Z</time>
        
      </trkpt>
      <trkpt lat="43.592384" lon="144.506666">
        <ele>601.4</ele>
        <time>2023-09-30T06:01:00.000Z</time>
        
      </trkpt>
      <trkpt lat="43.590337" lon="144.503171">
        <ele>582</ele>
        <time>2023-09-30T06:01:43.000Z</time>
        
      </trkpt>
      <trkpt lat="43.587921" lon="144.501279">
        <ele>575.6</ele>
        <time>2023-09-30T06:02:26.000Z</time>
        
      </trkpt>
      <trkpt lat="43.586191" lon="144.500295">
        <ele>571.2</ele>
        <time>2023-09-30T06:03:42.000Z</time>
        
      </trkpt>
      <trkpt lat="43.586072" lon="144.498883">
        <ele>552.8</ele>
        <time>2023-09-30T06:04:25.000Z</time>
        
      </trkpt>
      <trkpt lat="43.588188" lon="144.500489">
        <ele>551.8</ele>
        <time>2023-09-30T06:05:08.000Z</time>
        
      </trkpt>
      <trkpt lat="43.59074" lon="144.500483">
        <ele>526.2</ele>
        <time>2023-09-30T06:05:51.000Z</time>
        
      </trkpt>
      <trkpt lat="43.588564" lon="144.498384">
        <ele>500.2</ele>
        <time>2023-09-30T06:06:34.000Z</time>
        
      </trkpt>
      <trkpt lat="43.585561" lon="144.495579">
        <ele>478</ele>
        <time>2023-09-30T06:07:17.000Z</time>
        
      </trkpt>
      <trkpt lat="43.585665" lon="144.494294">
        <ele>448</ele>
        <time>2023-09-30T06:08:00.000Z</time>
        
      </trkpt>
      <trkpt lat="43.588747" lon="144.494703">
        <ele>418</ele>
        <time>2023-09-30T06:08:43.000Z</time>
        
      </trkpt>
      <trkpt lat="43.590761" lon="144.495516">
        <ele>402</ele>
        <time>2023-09-30T06:09:29.000Z</time>
        
      </trkpt>
      <trkpt lat="43.594488" lon="144.493135">
        <ele>365.8</ele>
        <time>2023-09-30T06:10:12.000Z</time>
        
      </trkpt>
      <trkpt lat="43.597023" lon="144.494275">
        <ele>335.8</ele>
        <time>2023-09-30T06:10:55.000Z</time>
        
      </trkpt>
      <trkpt lat="43.598513" lon="144.489466">
        <ele>298.4</ele>
        <time>2023-09-30T06:11:38.000Z</time>
        
      </trkpt>
      <trkpt lat="43.59958" lon="144.484545">
        <ele>279.4</ele>
        <time>2023-09-30T06:12:21.000Z</time>
        
      </trkpt>
      <trkpt lat="43.601379" lon="144.480568">
        <ele>264.8</ele>
        <time>2023-09-30T06:13:04.000Z</time>
        
      </trkpt>
      <trkpt lat="43.603807" lon="144.475616">
        <ele>236.8</ele>
        <time>2023-09-30T06:13:47.000Z</time>
        
      </trkpt>
      <trkpt lat="43.60602" lon="144.471138">
        <ele>218</ele>
        <time>2023-09-30T06:14:30.000Z</time>
        
      </trkpt>
      <trkpt lat="43.60799" lon="144.467173">
        <ele>205.2</ele>
        <time>2023-09-30T06:15:13.000Z</time>
        
      </trkpt>
      <trkpt lat="43.60988" lon="144.463345">
        <ele>194.4</ele>
        <time>2023-09-30T06:15:56.000Z</time>
        
      </trkpt>
      <trkpt lat="43.610765" lon="144.459453">
        <ele>186.6</ele>
        <time>2023-09-30T06:16:39.000Z</time>
        
      </trkpt>
      <trkpt lat="43.610412" lon="144.456419">
        <ele>181.2</ele>
        <time>2023-09-30T06:17:22.000Z</time>
        
      </trkpt>
      <trkpt lat="43.611992" lon="144.455764">
        <ele>179.2</ele>
        <time>2023-09-30T06:18:54.000Z</time>
        
      </trkpt>
      <trkpt lat="43.614573" lon="144.455189">
        <ele>174.8</ele>
        <time>2023-09-30T06:19:37.000Z</time>
        
      </trkpt>
      <trkpt lat="43.616891" lon="144.455109">
        <ele>170.2</ele>
        <time>2023-09-30T06:20:20.000Z</time>
        
      </trkpt>
      <trkpt lat="43.616667" lon="144.457007">
        <ele>169.8</ele>
        <time>2023-09-30T06:21:03.000Z</time>
        
      </trkpt>
      <trkpt lat="43.616571" lon="144.457605">
        <ele>170.8</ele>
        <time>2023-09-30T06:29:34.000Z</time>
        
      </trkpt>
      <trkpt lat="43.616713" lon="144.45653">
        <ele>167.2</ele>
        <time>2023-09-30T06:35:00.000Z</time>
        
      </trkpt>
      <trkpt lat="43.616957" lon="144.454664">
        <ele>167</ele>
        <time>2023-09-30T06:35:51.000Z</time>
        
      </trkpt>
      <trkpt lat="43.618776" lon="144.454256">
        <ele>164.8</ele>
        <time>2023-09-30T06:36:56.000Z</time>
        
      </trkpt>
      <trkpt lat="43.62016" lon="144.45318">
        <ele>162.8</ele>
        <time>2023-09-30T06:37:39.000Z</time>
        
      </trkpt>
      <trkpt lat="43.619851" lon="144.450593">
        <ele>163</ele>
        <time>2023-09-30T06:38:22.000Z</time>
        
      </trkpt>
      <trkpt lat="43.619565" lon="144.448112">
        <ele>165.8</ele>
        <time>2023-09-30T06:39:05.000Z</time>
        
      </trkpt>
      <trkpt lat="43.619372" lon="144.446229">
        <ele>170</ele>
        <time>2023-09-30T06:39:48.000Z</time>
        
      </trkpt>
      <trkpt lat="43.620041" lon="144.444387">
        <ele>172.4</ele>
        <time>2023-09-30T06:40:31.000Z</time>
        
      </trkpt>
      <trkpt lat="43.619006" lon="144.443311">
        <ele>175.8</ele>
        <time>2023-09-30T06:41:14.000Z</time>
        
      </trkpt>
      <trkpt lat="43.617874" lon="144.443097">
        <ele>180.2</ele>
        <time>2023-09-30T06:41:57.000Z</time>
        
      </trkpt>
      <trkpt lat="43.61939" lon="144.443404">
        <ele>175.6</ele>
        <time>2023-09-30T07:06:30.000Z</time>
        
      </trkpt>
      <trkpt lat="43.621099" lon="144.443015">
        <ele>170.4</ele>
        <time>2023-09-30T07:07:13.000Z</time>
        
      </trkpt>
      <trkpt lat="43.623799" lon="144.441714">
        <ele>164.2</ele>
        <time>2023-09-30T07:07:56.000Z</time>
        
      </trkpt>
      <trkpt lat="43.627144" lon="144.440967">
        <ele>157.2</ele>
        <time>2023-09-30T07:08:39.000Z</time>
        
      </trkpt>
      <trkpt lat="43.630079" lon="144.4403">
        <ele>153</ele>
        <time>2023-09-30T07:09:22.000Z</time>
        
      </trkpt>
      <trkpt lat="43.632659" lon="144.439707">
        <ele>150.6</ele>
        <time>2023-09-30T07:10:05.000Z</time>
        
      </trkpt>
      <trkpt lat="43.634942" lon="144.438789">
        <ele>147</ele>
        <time>2023-09-30T07:10:48.000Z</time>
        
      </trkpt>
      <trkpt lat="43.635626" lon="144.437968">
        <ele>144.6</ele>
        <time>2023-09-30T07:22:05.000Z</time>
        
      </trkpt>
      <trkpt lat="43.637575" lon="144.435909">
        <ele>140.4</ele>
        <time>2023-09-30T07:22:48.000Z</time>
        
      </trkpt>
      <trkpt lat="43.638708" lon="144.432903">
        <ele>136.6</ele>
        <time>2023-09-30T07:23:31.000Z</time>
        
      </trkpt>
      <trkpt lat="43.639145" lon="144.4301">
        <ele>137.2</ele>
        <time>2023-09-30T07:24:14.000Z</time>
        
      </trkpt>
      <trkpt lat="43.639929" lon="144.427477">
        <ele>138.4</ele>
        <time>2023-09-30T07:24:57.000Z</time>
        
      </trkpt>
      <trkpt lat="43.641444" lon="144.424416">
        <ele>135.2</ele>
        <time>2023-09-30T07:25:40.000Z</time>
        
      </trkpt>
      <trkpt lat="43.64261" lon="144.422123">
        <ele>137.8</ele>
        <time>2023-09-30T07:26:23.000Z</time>
        
      </trkpt>
      <trkpt lat="43.643823" lon="144.419495">
        <ele>137.8</ele>
        <time>2023-09-30T07:27:06.000Z</time>
        
      </trkpt>
      <trkpt lat="43.645043" lon="144.416827">
        <ele>137</ele>
        <time>2023-09-30T07:27:49.000Z</time>
        
      </trkpt>
      <trkpt lat="43.646293" lon="144.413521">
        <ele>134.4</ele>
        <time>2023-09-30T07:28:32.000Z</time>
        
      </trkpt>
      <trkpt lat="43.645828" lon="144.410634">
        <ele>136.4</ele>
        <time>2023-09-30T07:29:15.000Z</time>
        
      </trkpt>
      <trkpt lat="43.645282" lon="144.407938">
        <ele>136.6</ele>
        <time>2023-09-30T07:29:58.000Z</time>
        
      </trkpt>
      <trkpt lat="43.644704" lon="144.404901">
        <ele>136.6</ele>
        <time>2023-09-30T07:30:41.000Z</time>
        
      </trkpt>
      <trkpt lat="43.644177" lon="144.402222">
        <ele>138.6</ele>
        <time>2023-09-30T07:31:24.000Z</time>
        
      </trkpt>
      <trkpt lat="43.643681" lon="144.399826">
        <ele>141.4</ele>
        <time>2023-09-30T07:32:07.000Z</time>
        
      </trkpt>
      <trkpt lat="43.643117" lon="144.397065">
        <ele>141.6</ele>
        <time>2023-09-30T07:32:50.000Z</time>
        
      </trkpt>
      <trkpt lat="43.64244" lon="144.393779">
        <ele>139.6</ele>
        <time>2023-09-30T07:33:33.000Z</time>
        
      </trkpt>
      <trkpt lat="43.641839" lon="144.390755">
        <ele>140.2</ele>
        <time>2023-09-30T07:34:16.000Z</time>
        
      </trkpt>
      <trkpt lat="43.641428" lon="144.38868">
        <ele>144</ele>
        <time>2023-09-30T07:34:59.000Z</time>
        
      </trkpt>
      <trkpt lat="43.640996" lon="144.386626">
        <ele>146.4</ele>
        <time>2023-09-30T07:35:42.000Z</time>
        
      </trkpt>
      <trkpt lat="43.640667" lon="144.385001">
        <ele>150.8</ele>
        <time>2023-09-30T07:36:25.000Z</time>
        
      </trkpt>
      <trkpt lat="43.640435" lon="144.383553">
        <ele>156.6</ele>
        <time>2023-09-30T07:37:08.000Z</time>
        
      </trkpt>
      <trkpt lat="43.640415" lon="144.381972">
        <ele>157.6</ele>
        <time>2023-09-30T07:40:39.000Z</time>
        
      </trkpt>
      <trkpt lat="43.641186" lon="144.377462">
        <ele>141</ele>
        <time>2023-09-30T07:41:22.000Z</time>
        
      </trkpt>
      <trkpt lat="43.639898" lon="144.373199">
        <ele>129.2</ele>
        <time>2023-09-30T07:42:05.000Z</time>
        
      </trkpt>
      <trkpt lat="43.638201" lon="144.370751">
        <ele>128.2</ele>
        <time>2023-09-30T07:42:48.000Z</time>
        
      </trkpt>
      <trkpt lat="43.63633" lon="144.368913">
        <ele>128</ele>
        <time>2023-09-30T07:43:31.000Z</time>
        
      </trkpt>
      <trkpt lat="43.634445" lon="144.367107">
        <ele>128</ele>
        <time>2023-09-30T07:44:14.000Z</time>
        
      </trkpt>
      <trkpt lat="43.632537" lon="144.365212">
        <ele>128.4</ele>
        <time>2023-09-30T07:44:57.000Z</time>
        
      </trkpt>
      <trkpt lat="43.630693" lon="144.363573">
        <ele>128.4</ele>
        <time>2023-09-30T07:45:40.000Z</time>
        
      </trkpt>
      <trkpt lat="43.62858" lon="144.362605">
        <ele>129.2</ele>
        <time>2023-09-30T07:46:23.000Z</time>
        
      </trkpt>
      <trkpt lat="43.626326" lon="144.361656">
        <ele>128.4</ele>
        <time>2023-09-30T07:47:06.000Z</time>
        
      </trkpt>
      <trkpt lat="43.625891" lon="144.36113">
        <ele>126</ele>
        <time>2023-09-30T07:49:36.000Z</time>
        
      </trkpt>
      <trkpt lat="43.624747" lon="144.360711">
        <ele>126.6</ele>
        <time>2023-09-30T07:50:19.000Z</time>
        
      </trkpt>
      <trkpt lat="43.62273" lon="144.359628">
        <ele>127.4</ele>
        <time>2023-09-30T07:51:02.000Z</time>
        
      </trkpt>
      <trkpt lat="43.620548" lon="144.359915">
        <ele>128.6</ele>
        <time>2023-09-30T07:51:45.000Z</time>
        
      </trkpt>
      <trkpt lat="43.618096" lon="144.360286">
        <ele>128.2</ele>
        <time>2023-09-30T07:52:28.000Z</time>
        
      </trkpt>
      <trkpt lat="43.615569" lon="144.360646">
        <ele>127.6</ele>
        <time>2023-09-30T07:53:11.000Z</time>
        
      </trkpt>
      <trkpt lat="43.613278" lon="144.360982">
        <ele>127.4</ele>
        <time>2023-09-30T07:53:54.000Z</time>
        
      </trkpt>
      <trkpt lat="43.611073" lon="144.360578">
        <ele>127.4</ele>
        <time>2023-09-30T07:54:37.000Z</time>
        
      </trkpt>
      <trkpt lat="43.608964" lon="144.359326">
        <ele>128</ele>
        <time>2023-09-30T07:55:20.000Z</time>
        
      </trkpt>
      <trkpt lat="43.607171" lon="144.357746">
        <ele>128.4</ele>
        <time>2023-09-30T07:56:03.000Z</time>
        
      </trkpt>
      <trkpt lat="43.605313" lon="144.355601">
        <ele>126.8</ele>
        <time>2023-09-30T07:56:46.000Z</time>
        
      </trkpt>
      <trkpt lat="43.603589" lon="144.353162">
        <ele>126.6</ele>
        <time>2023-09-30T07:57:29.000Z</time>
        
      </trkpt>
      <trkpt lat="43.601589" lon="144.351957">
        <ele>127.8</ele>
        <time>2023-09-30T07:58:12.000Z</time>
        
      </trkpt>
      <trkpt lat="43.600239" lon="144.351227">
        <ele>132.6</ele>
        <time>2023-09-30T08:00:19.000Z</time>
        
      </trkpt>
      <trkpt lat="43.598666" lon="144.350408">
        <ele>136.2</ele>
        <time>2023-09-30T08:01:02.000Z</time>
        
      </trkpt>
      <trkpt lat="43.596728" lon="144.349718">
        <ele>138.2</ele>
        <time>2023-09-30T08:01:45.000Z</time>
        
      </trkpt>
      <trkpt lat="43.594638" lon="144.348917">
        <ele>139</ele>
        <time>2023-09-30T08:02:28.000Z</time>
        
      </trkpt>
      <trkpt lat="43.592552" lon="144.348638">
        <ele>141.8</ele>
        <time>2023-09-30T08:03:11.000Z</time>
        
      </trkpt>
      <trkpt lat="43.590566" lon="144.348794">
        <ele>144.2</ele>
        <time>2023-09-30T08:03:54.000Z</time>
        
      </trkpt>
      <trkpt lat="43.589059" lon="144.349472">
        <ele>150</ele>
        <time>2023-09-30T08:04:37.000Z</time>
        
      </trkpt>
      <trkpt lat="43.587197" lon="144.350173">
        <ele>151.4</ele>
        <time>2023-09-30T08:05:20.000Z</time>
        
      </trkpt>
      <trkpt lat="43.58544" lon="144.350755">
        <ele>155.6</ele>
        <time>2023-09-30T08:06:03.000Z</time>
        
      </trkpt>
      <trkpt lat="43.58366" lon="144.351586">
        <ele>157.2</ele>
        <time>2023-09-30T08:06:46.000Z</time>
        
      </trkpt>
      <trkpt lat="43.580604" lon="144.351528">
        <ele>149.8</ele>
        <time>2023-09-30T08:07:29.000Z</time>
        
      </trkpt>
      <trkpt lat="43.57765" lon="144.350879">
        <ele>144.6</ele>
        <time>2023-09-30T08:08:12.000Z</time>
        
      </trkpt>
      <trkpt lat="43.575325" lon="144.34888">
        <ele>140.8</ele>
        <time>2023-09-30T08:08:55.000Z</time>
        
      </trkpt>
      <trkpt lat="43.572681" lon="144.346174">
        <ele>134.6</ele>
        <time>2023-09-30T08:09:38.000Z</time>
        
      </trkpt>
      <trkpt lat="43.570662" lon="144.344542">
        <ele>136</ele>
        <time>2023-09-30T08:10:21.000Z</time>
        
      </trkpt>
      <trkpt lat="43.568499" lon="144.343331">
        <ele>135.2</ele>
        <time>2023-09-30T08:11:04.000Z</time>
        
      </trkpt>
      <trkpt lat="43.565918" lon="144.343047">
        <ele>133</ele>
        <time>2023-09-30T08:11:47.000Z</time>
        
      </trkpt>
      <trkpt lat="43.563099" lon="144.34244">
        <ele>128.8</ele>
        <time>2023-09-30T08:12:30.000Z</time>
        
      </trkpt>
      <trkpt lat="43.560754" lon="144.340785">
        <ele>128</ele>
        <time>2023-09-30T08:13:13.000Z</time>
        
      </trkpt>
      <trkpt lat="43.558688" lon="144.339406">
        <ele>128</ele>
        <time>2023-09-30T08:13:56.000Z</time>
        
      </trkpt>
      <trkpt lat="43.556696" lon="144.338871">
        <ele>131.6</ele>
        <time>2023-09-30T08:14:39.000Z</time>
        
      </trkpt>
      <trkpt lat="43.554987" lon="144.339115">
        <ele>135.2</ele>
        <time>2023-09-30T08:15:22.000Z</time>
        
      </trkpt>
      <trkpt lat="43.553951" lon="144.338435">
        <ele>136.4</ele>
        <time>2023-09-30T08:16:15.000Z</time>
        
      </trkpt>
      <trkpt lat="43.553732" lon="144.335675">
        <ele>136.2</ele>
        <time>2023-09-30T08:17:15.000Z</time>
        
      </trkpt>
      <trkpt lat="43.553829" lon="144.332101">
        <ele>136</ele>
        <time>2023-09-30T08:17:58.000Z</time>
        
      </trkpt>
      <trkpt lat="43.555222" lon="144.32913">
        <ele>135.2</ele>
        <time>2023-09-30T08:18:41.000Z</time>
        
      </trkpt>
      <trkpt lat="43.55676" lon="144.32588">
        <ele>133</ele>
        <time>2023-09-30T08:19:24.000Z</time>
        
      </trkpt>
      <trkpt lat="43.558237" lon="144.322775">
        <ele>133.4</ele>
        <time>2023-09-30T08:20:07.000Z</time>
        
      </trkpt>
      <trkpt lat="43.559295" lon="144.320543">
        <ele>136.6</ele>
        <time>2023-09-30T08:20:50.000Z</time>
        
      </trkpt>
      <trkpt lat="43.560329" lon="144.318358">
        <ele>140.2</ele>
        <time>2023-09-30T08:21:33.000Z</time>
        
      </trkpt>
      <trkpt lat="43.561411" lon="144.316087">
        <ele>144.2</ele>
        <time>2023-09-30T08:22:16.000Z</time>
        
      </trkpt>
      <trkpt lat="43.56245" lon="144.313901">
        <ele>147.6</ele>
        <time>2023-09-30T08:22:59.000Z</time>
        
      </trkpt>
      <trkpt lat="43.563746" lon="144.311794">
        <ele>149</ele>
        <time>2023-09-30T08:23:42.000Z</time>
        
      </trkpt>
      <trkpt lat="43.565816" lon="144.309946">
        <ele>148</ele>
        <time>2023-09-30T08:24:25.000Z</time>
        
      </trkpt>
      <trkpt lat="43.567262" lon="144.307092">
        <ele>147.4</ele>
        <time>2023-09-30T08:25:08.000Z</time>
        
      </trkpt>
      <trkpt lat="43.568443" lon="144.304513">
        <ele>147</ele>
        <time>2023-09-30T08:25:51.000Z</time>
        
      </trkpt>
      <trkpt lat="43.569254" lon="144.303288">
        <ele>146</ele>
        <time>2023-09-30T08:26:41.000Z</time>
        
      </trkpt>
      <trkpt lat="43.571556" lon="144.305359">
        <ele>141.6</ele>
        <time>2023-09-30T08:27:24.000Z</time>
        
      </trkpt>
      <trkpt lat="43.5741" lon="144.30765">
        <ele>133.6</ele>
        <time>2023-09-30T08:28:07.000Z</time>
        
      </trkpt>
      <trkpt lat="43.57607" lon="144.309439">
        <ele>129.2</ele>
        <time>2023-09-30T08:29:13.000Z</time>
        
      </trkpt>
      <trkpt lat="43.576643" lon="144.309875">
        <ele>127.4</ele>
        <time>2023-09-30T08:29:56.000Z</time>
        
      </trkpt>
      <trkpt lat="43.576833" lon="144.309245">
        <ele>127.4</ele>
        <time>2023-09-30T08:30:18.000Z</time>
        
      </trkpt>
    </trkseg>
  </trk>
</gpx>