<?xml version="1.0" encoding="UTF-8"?>
<gpx version="1.1">
  <trk>
    <trkseg>
      
      <trkpt lat="44.029516" lon="145.17587">
        <ele>51</ele>
        <time>2023-09-28T22:52:57.000Z</time>
        
      </trkpt>
      <trkpt lat="44.028892" lon="145.176779">
        <ele>49.4</ele>
        <time>2023-09-28T22:54:08.000Z</time>
        
      </trkpt>
      <trkpt lat="44.029038" lon="145.178978">
        <ele>48.8</ele>
        <time>2023-09-28T22:55:21.000Z</time>
        
      </trkpt>
      <trkpt lat="44.028383" lon="145.181932">
        <ele>43.4</ele>
        <time>2023-09-28T22:55:55.000Z</time>
        
      </trkpt>
      <trkpt lat="44.026263" lon="145.184457">
        <ele>32.8</ele>
        <time>2023-09-28T22:56:29.000Z</time>
        
      </trkpt>
      <trkpt lat="44.023897" lon="145.186596">
        <ele>24.2</ele>
        <time>2023-09-28T22:57:03.000Z</time>
        
      </trkpt>
      <trkpt lat="44.022557" lon="145.186815">
        <ele>24.8</ele>
        <time>2023-09-28T22:58:33.000Z</time>
        
      </trkpt>
      <trkpt lat="44.021392" lon="145.187642">
        <ele>21</ele>
        <time>2023-09-28T22:59:31.000Z</time>
        
      </trkpt>
      <trkpt lat="44.020513" lon="145.19038">
        <ele>18.8</ele>
        <time>2023-09-28T23:00:05.000Z</time>
        
      </trkpt>
      <trkpt lat="44.018497" lon="145.192685">
        <ele>12</ele>
        <time>2023-09-28T23:00:39.000Z</time>
        
      </trkpt>
      <trkpt lat="44.016416" lon="145.191807">
        <ele>10.8</ele>
        <time>2023-09-28T23:01:13.000Z</time>
        
      </trkpt>
      <trkpt lat="44.014708" lon="145.190345">
        <ele>12</ele>
        <time>2023-09-28T23:01:47.000Z</time>
        
      </trkpt>
      <trkpt lat="44.01336" lon="145.188751">
        <ele>14</ele>
        <time>2023-09-28T23:02:21.000Z</time>
        
      </trkpt>
      <trkpt lat="44.011898" lon="145.186866">
        <ele>14.8</ele>
        <time>2023-09-28T23:02:55.000Z</time>
        
      </trkpt>
      <trkpt lat="44.01051" lon="145.184806">
        <ele>15</ele>
        <time>2023-09-28T23:03:29.000Z</time>
        
      </trkpt>
      <trkpt lat="44.009308" lon="145.182402">
        <ele>14.2</ele>
        <time>2023-09-28T23:04:03.000Z</time>
        
      </trkpt>
      <trkpt lat="44.007924" lon="145.180785">
        <ele>16.2</ele>
        <time>2023-09-28T23:04:37.000Z</time>
        
      </trkpt>
      <trkpt lat="44.006336" lon="145.179585">
        <ele>16.8</ele>
        <time>2023-09-28T23:05:11.000Z</time>
        
      </trkpt>
      <trkpt lat="44.00414" lon="145.178717">
        <ele>14.6</ele>
        <time>2023-09-28T23:05:45.000Z</time>
        
      </trkpt>
      <trkpt lat="44.002176" lon="145.178291">
        <ele>14.4</ele>
        <time>2023-09-28T23:06:19.000Z</time>
        
      </trkpt>
      <trkpt lat="44.001406" lon="145.178114">
        <ele>14</ele>
        <time>2023-09-28T23:14:33.000Z</time>
        
      </trkpt>
      <trkpt lat="43.999687" lon="145.177635">
        <ele>15.2</ele>
        <time>2023-09-28T23:15:07.000Z</time>
        
      </trkpt>
      <trkpt lat="43.998207" lon="145.176308">
        <ele>16</ele>
        <time>2023-09-28T23:15:41.000Z</time>
        
      </trkpt>
      <trkpt lat="43.996751" lon="145.174896">
        <ele>17.2</ele>
        <time>2023-09-28T23:16:15.000Z</time>
        
      </trkpt>
      <trkpt lat="43.995842" lon="145.173603">
        <ele>21</ele>
        <time>2023-09-28T23:16:49.000Z</time>
        
      </trkpt>
      <trkpt lat="43.994821" lon="145.171142">
        <ele>19</ele>
        <time>2023-09-28T23:17:23.000Z</time>
        
      </trkpt>
      <trkpt lat="43.99324" lon="145.168887">
        <ele>18.6</ele>
        <time>2023-09-28T23:17:57.000Z</time>
        
      </trkpt>
      <trkpt lat="43.991406" lon="145.167353">
        <ele>17.6</ele>
        <time>2023-09-28T23:18:31.000Z</time>
        
      </trkpt>
      <trkpt lat="43.990303" lon="145.16477">
        <ele>13</ele>
        <time>2023-09-28T23:19:05.000Z</time>
        
      </trkpt>
      <trkpt lat="43.988949" lon="145.162506">
        <ele>13.4</ele>
        <time>2023-09-28T23:19:39.000Z</time>
        
      </trkpt>
      <trkpt lat="43.987399" lon="145.16097">
        <ele>14.2</ele>
        <time>2023-09-28T23:20:13.000Z</time>
        
      </trkpt>
      <trkpt lat="43.986247" lon="145.159596">
        <ele>13.2</ele>
        <time>2023-09-28T23:21:07.000Z</time>
        
      </trkpt>
      <trkpt lat="43.985145" lon="145.158037">
        <ele>14.6</ele>
        <time>2023-09-28T23:21:41.000Z</time>
        
      </trkpt>
      <trkpt lat="43.983834" lon="145.156029">
        <ele>15.6</ele>
        <time>2023-09-28T23:22:15.000Z</time>
        
      </trkpt>
      <trkpt lat="43.981893" lon="145.154226">
        <ele>13</ele>
        <time>2023-09-28T23:22:49.000Z</time>
        
      </trkpt>
      <trkpt lat="43.979902" lon="145.15368">
        <ele>13.4</ele>
        <time>2023-09-28T23:23:23.000Z</time>
        
      </trkpt>
      <trkpt lat="43.978174" lon="145.153222">
        <ele>14.6</ele>
        <time>2023-09-28T23:23:57.000Z</time>
        
      </trkpt>
      <trkpt lat="43.976241" lon="145.152549">
        <ele>14</ele>
        <time>2023-09-28T23:24:31.000Z</time>
        
      </trkpt>
      <trkpt lat="43.974368" lon="145.151345">
        <ele>13.2</ele>
        <time>2023-09-28T23:25:05.000Z</time>
        
      </trkpt>
      <trkpt lat="43.972798" lon="145.14984">
        <ele>14.2</ele>
        <time>2023-09-28T23:25:39.000Z</time>
        
      </trkpt>
      <trkpt lat="43.971745" lon="145.147795">
        <ele>15.6</ele>
        <time>2023-09-28T23:26:13.000Z</time>
        
      </trkpt>
      <trkpt lat="43.970528" lon="145.145438">
        <ele>14.8</ele>
        <time>2023-09-28T23:26:47.000Z</time>
        
      </trkpt>
      <trkpt lat="43.969512" lon="145.142938">
        <ele>13.4</ele>
        <time>2023-09-28T23:27:21.000Z</time>
        
      </trkpt>
      <trkpt lat="43.96812" lon="145.140943">
        <ele>13.4</ele>
        <time>2023-09-28T23:27:55.000Z</time>
        
      </trkpt>
      <trkpt lat="43.966144" lon="145.140395">
        <ele>13.4</ele>
        <time>2023-09-28T23:28:29.000Z</time>
        
      </trkpt>
      <trkpt lat="43.96445" lon="145.139287">
        <ele>14</ele>
        <time>2023-09-28T23:29:03.000Z</time>
        
      </trkpt>
      <trkpt lat="43.96276" lon="145.138077">
        <ele>13.8</ele>
        <time>2023-09-28T23:29:37.000Z</time>
        
      </trkpt>
      <trkpt lat="43.961022" lon="145.13683">
        <ele>14</ele>
        <time>2023-09-28T23:30:11.000Z</time>
        
      </trkpt>
      <trkpt lat="43.959122" lon="145.135988">
        <ele>14.2</ele>
        <time>2023-09-28T23:30:45.000Z</time>
        
      </trkpt>
      <trkpt lat="43.957901" lon="145.134901">
        <ele>17.8</ele>
        <time>2023-09-28T23:31:19.000Z</time>
        
      </trkpt>
      <trkpt lat="43.956468" lon="145.13401">
        <ele>19.2</ele>
        <time>2023-09-28T23:31:53.000Z</time>
        
      </trkpt>
      <trkpt lat="43.954303" lon="145.133124">
        <ele>15.4</ele>
        <time>2023-09-28T23:32:27.000Z</time>
        
      </trkpt>
      <trkpt lat="43.95266" lon="145.131425">
        <ele>15.4</ele>
        <time>2023-09-28T23:33:01.000Z</time>
        
      </trkpt>
      <trkpt lat="43.951066" lon="145.129895">
        <ele>15.6</ele>
        <time>2023-09-28T23:33:35.000Z</time>
        
      </trkpt>
      <trkpt lat="43.949377" lon="145.128453">
        <ele>15.2</ele>
        <time>2023-09-28T23:34:09.000Z</time>
        
      </trkpt>
      <trkpt lat="43.947564" lon="145.127652">
        <ele>15.2</ele>
        <time>2023-09-28T23:34:43.000Z</time>
        
      </trkpt>
      <trkpt lat="43.945608" lon="145.126606">
        <ele>13.2</ele>
        <time>2023-09-28T23:35:17.000Z</time>
        
      </trkpt>
      <trkpt lat="43.943929" lon="145.125628">
        <ele>14</ele>
        <time>2023-09-28T23:35:51.000Z</time>
        
      </trkpt>
      <trkpt lat="43.942165" lon="145.125172">
        <ele>14.2</ele>
        <time>2023-09-28T23:36:25.000Z</time>
        
      </trkpt>
      <trkpt lat="43.940358" lon="145.125274">
        <ele>14.4</ele>
        <time>2023-09-28T23:36:59.000Z</time>
        
      </trkpt>
      <trkpt lat="43.938584" lon="145.125209">
        <ele>14.6</ele>
        <time>2023-09-28T23:37:33.000Z</time>
        
      </trkpt>
      <trkpt lat="43.937202" lon="145.123348">
        <ele>14.2</ele>
        <time>2023-09-28T23:38:07.000Z</time>
        
      </trkpt>
      <trkpt lat="43.936427" lon="145.122084">
        <ele>19.8</ele>
        <time>2023-09-28T23:38:41.000Z</time>
        
      </trkpt>
      <trkpt lat="43.935865" lon="145.121192">
        <ele>26</ele>
        <time>2023-09-28T23:39:15.000Z</time>
        
      </trkpt>
      <trkpt lat="43.935298" lon="145.120267">
        <ele>31.2</ele>
        <time>2023-09-28T23:39:49.000Z</time>
        
      </trkpt>
      <trkpt lat="43.934768" lon="145.119426">
        <ele>36.8</ele>
        <time>2023-09-28T23:40:23.000Z</time>
        
      </trkpt>
      <trkpt lat="43.93422" lon="145.118535">
        <ele>42</ele>
        <time>2023-09-28T23:40:57.000Z</time>
        
      </trkpt>
      <trkpt lat="43.933531" lon="145.117608">
        <ele>46.6</ele>
        <time>2023-09-28T23:41:31.000Z</time>
        
      </trkpt>
      <trkpt lat="43.932687" lon="145.116792">
        <ele>51.2</ele>
        <time>2023-09-28T23:42:05.000Z</time>
        
      </trkpt>
      <trkpt lat="43.931878" lon="145.11601">
        <ele>55</ele>
        <time>2023-09-28T23:42:39.000Z</time>
        
      </trkpt>
      <trkpt lat="43.931115" lon="145.115286">
        <ele>59.6</ele>
        <time>2023-09-28T23:43:13.000Z</time>
        
      </trkpt>
      <trkpt lat="43.93035" lon="145.11454">
        <ele>64.6</ele>
        <time>2023-09-28T23:43:47.000Z</time>
        
      </trkpt>
      <trkpt lat="43.929612" lon="145.113851">
        <ele>69.6</ele>
        <time>2023-09-28T23:44:21.000Z</time>
        
      </trkpt>
      <trkpt lat="43.929012" lon="145.113271">
        <ele>75</ele>
        <time>2023-09-28T23:45:22.000Z</time>
        
      </trkpt>
      <trkpt lat="43.926476" lon="145.110774">
        <ele>88.2</ele>
        <time>2023-09-28T23:46:53.000Z</time>
        
      </trkpt>
      <trkpt lat="43.925541" lon="145.109821">
        <ele>92</ele>
        <time>2023-09-28T23:47:27.000Z</time>
        
      </trkpt>
      <trkpt lat="43.924551" lon="145.108826">
        <ele>93</ele>
        <time>2023-09-28T23:48:01.000Z</time>
        
      </trkpt>
      <trkpt lat="43.922533" lon="145.107154">
        <ele>83.2</ele>
        <time>2023-09-28T23:48:35.000Z</time>
        
      </trkpt>
      <trkpt lat="43.920139" lon="145.106067">
        <ele>68.8</ele>
        <time>2023-09-28T23:49:09.000Z</time>
        
      </trkpt>
      <trkpt lat="43.919044" lon="145.105571">
        <ele>62.2</ele>
        <time>2023-09-28T23:50:11.000Z</time>
        
      </trkpt>
      <trkpt lat="43.91649" lon="145.106539">
        <ele>55</ele>
        <time>2023-09-28T23:50:45.000Z</time>
        
      </trkpt>
      <trkpt lat="43.914025" lon="145.107232">
        <ele>52.2</ele>
        <time>2023-09-28T23:51:19.000Z</time>
        
      </trkpt>
      <trkpt lat="43.912961" lon="145.106604">
        <ele>57.4</ele>
        <time>2023-09-28T23:51:53.000Z</time>
        
      </trkpt>
      <trkpt lat="43.912156" lon="145.10545">
        <ele>61.4</ele>
        <time>2023-09-28T23:52:27.000Z</time>
        
      </trkpt>
      <trkpt lat="43.911329" lon="145.104096">
        <ele>61.2</ele>
        <time>2023-09-28T23:53:16.000Z</time>
        
      </trkpt>
      <trkpt lat="43.910264" lon="145.102303">
        <ele>62.6</ele>
        <time>2023-09-28T23:53:50.000Z</time>
        
      </trkpt>
      <trkpt lat="43.909432" lon="145.100758">
        <ele>65.6</ele>
        <time>2023-09-28T23:54:24.000Z</time>
        
      </trkpt>
      <trkpt lat="43.908764" lon="145.099389">
        <ele>70.2</ele>
        <time>2023-09-28T23:54:58.000Z</time>
        
      </trkpt>
      <trkpt lat="43.907617" lon="145.098121">
        <ele>71.6</ele>
        <time>2023-09-28T23:55:32.000Z</time>
        
      </trkpt>
      <trkpt lat="43.905739" lon="145.098646">
        <ele>69</ele>
        <time>2023-09-28T23:56:06.000Z</time>
        
      </trkpt>
      <trkpt lat="43.902994" lon="145.099681">
        <ele>55.2</ele>
        <time>2023-09-28T23:56:40.000Z</time>
        
      </trkpt>
      <trkpt lat="43.900834" lon="145.099862">
        <ele>53</ele>
        <time>2023-09-28T23:57:14.000Z</time>
        
      </trkpt>
      <trkpt lat="43.899569" lon="145.099317">
        <ele>56.6</ele>
        <time>2023-09-28T23:57:48.000Z</time>
        
      </trkpt>
      <trkpt lat="43.898448" lon="145.098489">
        <ele>60.2</ele>
        <time>2023-09-28T23:58:22.000Z</time>
        
      </trkpt>
      <trkpt lat="43.897527" lon="145.097448">
        <ele>63</ele>
        <time>2023-09-28T23:58:56.000Z</time>
        
      </trkpt>
      <trkpt lat="43.896756" lon="145.096205">
        <ele>66</ele>
        <time>2023-09-28T23:59:30.000Z</time>
        
      </trkpt>
      <trkpt lat="43.895844" lon="145.095011">
        <ele>68.8</ele>
        <time>2023-09-29T00:00:04.000Z</time>
        
      </trkpt>
      <trkpt lat="43.894264" lon="145.093929">
        <ele>68.8</ele>
        <time>2023-09-29T00:00:38.000Z</time>
        
      </trkpt>
      <trkpt lat="43.89205" lon="145.092488">
        <ele>63.2</ele>
        <time>2023-09-29T00:01:12.000Z</time>
        
      </trkpt>
      <trkpt lat="43.889356" lon="145.091434">
        <ele>55.6</ele>
        <time>2023-09-29T00:01:46.000Z</time>
        
      </trkpt>
      <trkpt lat="43.887014" lon="145.091996">
        <ele>51.8</ele>
        <time>2023-09-29T00:02:20.000Z</time>
        
      </trkpt>
      <trkpt lat="43.884462" lon="145.092775">
        <ele>42.4</ele>
        <time>2023-09-29T00:02:54.000Z</time>
        
      </trkpt>
      <trkpt lat="43.88247" lon="145.09521">
        <ele>21.4</ele>
        <time>2023-09-29T00:03:28.000Z</time>
        
      </trkpt>
      <trkpt lat="43.881208" lon="145.096155">
        <ele>14</ele>
        <time>2023-09-29T00:04:16.000Z</time>
        
      </trkpt>
      <trkpt lat="43.880143" lon="145.096231">
        <ele>11.8</ele>
        <time>2023-09-29T00:10:32.000Z</time>
        
      </trkpt>
      <trkpt lat="43.87847" lon="145.095843">
        <ele>11.8</ele>
        <time>2023-09-29T00:11:06.000Z</time>
        
      </trkpt>
      <trkpt lat="43.876926" lon="145.09514">
        <ele>11.4</ele>
        <time>2023-09-29T00:11:40.000Z</time>
        
      </trkpt>
      <trkpt lat="43.875415" lon="145.093692">
        <ele>10.8</ele>
        <time>2023-09-29T00:12:14.000Z</time>
        
      </trkpt>
      <trkpt lat="43.873905" lon="145.092646">
        <ele>11.2</ele>
        <time>2023-09-29T00:12:48.000Z</time>
        
      </trkpt>
      <trkpt lat="43.872233" lon="145.0926">
        <ele>12.2</ele>
        <time>2023-09-29T00:13:22.000Z</time>
        
      </trkpt>
      <trkpt lat="43.87059" lon="145.092964">
        <ele>13</ele>
        <time>2023-09-29T00:13:56.000Z</time>
        
      </trkpt>
      <trkpt lat="43.868928" lon="145.093353">
        <ele>13</ele>
        <time>2023-09-29T00:14:30.000Z</time>
        
      </trkpt>
      <trkpt lat="43.867346" lon="145.094126">
        <ele>13.4</ele>
        <time>2023-09-29T00:15:04.000Z</time>
        
      </trkpt>
      <trkpt lat="43.86592" lon="145.095046">
        <ele>13.6</ele>
        <time>2023-09-29T00:15:38.000Z</time>
        
      </trkpt>
      <trkpt lat="43.86447" lon="145.095978">
        <ele>13</ele>
        <time>2023-09-29T00:16:12.000Z</time>
        
      </trkpt>
      <trkpt lat="43.863001" lon="145.096915">
        <ele>12.6</ele>
        <time>2023-09-29T00:16:46.000Z</time>
        
      </trkpt>
      <trkpt lat="43.861407" lon="145.097395">
        <ele>12.8</ele>
        <time>2023-09-29T00:17:20.000Z</time>
        
      </trkpt>
      <trkpt lat="43.85964" lon="145.097251">
        <ele>12</ele>
        <time>2023-09-29T00:17:54.000Z</time>
        
      </trkpt>
      <trkpt lat="43.85828" lon="145.09657">
        <ele>14.4</ele>
        <time>2023-09-29T00:18:28.000Z</time>
        
      </trkpt>
      <trkpt lat="43.857512" lon="145.095777">
        <ele>18.6</ele>
        <time>2023-09-29T00:19:02.000Z</time>
        
      </trkpt>
      <trkpt lat="43.856786" lon="145.094977">
        <ele>23</ele>
        <time>2023-09-29T00:19:36.000Z</time>
        
      </trkpt>
      <trkpt lat="43.855954" lon="145.09442">
        <ele>27.2</ele>
        <time>2023-09-29T00:20:10.000Z</time>
        
      </trkpt>
      <trkpt lat="43.855079" lon="145.094019">
        <ele>31.6</ele>
        <time>2023-09-29T00:20:44.000Z</time>
        
      </trkpt>
      <trkpt lat="43.854215" lon="145.093652">
        <ele>35.6</ele>
        <time>2023-09-29T00:21:18.000Z</time>
        
      </trkpt>
      <trkpt lat="43.853287" lon="145.09324">
        <ele>39.4</ele>
        <time>2023-09-29T00:21:52.000Z</time>
        
      </trkpt>
      <trkpt lat="43.851981" lon="145.092667">
        <ele>40.2</ele>
        <time>2023-09-29T00:22:26.000Z</time>
        
      </trkpt>
      <trkpt lat="43.850423" lon="145.091986">
        <ele>40.6</ele>
        <time>2023-09-29T00:23:00.000Z</time>
        
      </trkpt>
      <trkpt lat="43.848729" lon="145.091238">
        <ele>41.4</ele>
        <time>2023-09-29T00:23:34.000Z</time>
        
      </trkpt>
      <trkpt lat="43.846954" lon="145.090453">
        <ele>41.6</ele>
        <time>2023-09-29T00:24:08.000Z</time>
        
      </trkpt>
      <trkpt lat="43.844924" lon="145.089556">
        <ele>40.8</ele>
        <time>2023-09-29T00:24:42.000Z</time>
        
      </trkpt>
      <trkpt lat="43.842861" lon="145.088821">
        <ele>39.8</ele>
        <time>2023-09-29T00:25:16.000Z</time>
        
      </trkpt>
      <trkpt lat="43.840714" lon="145.088241">
        <ele>37.2</ele>
        <time>2023-09-29T00:25:50.000Z</time>
        
      </trkpt>
      <trkpt lat="43.838572" lon="145.087666">
        <ele>33.8</ele>
        <time>2023-09-29T00:26:24.000Z</time>
        
      </trkpt>
      <trkpt lat="43.836359" lon="145.087069">
        <ele>30.2</ele>
        <time>2023-09-29T00:26:58.000Z</time>
        
      </trkpt>
      <trkpt lat="43.83416" lon="145.086479">
        <ele>27.2</ele>
        <time>2023-09-29T00:27:32.000Z</time>
        
      </trkpt>
      <trkpt lat="43.831941" lon="145.086098">
        <ele>23.4</ele>
        <time>2023-09-29T00:28:06.000Z</time>
        
      </trkpt>
      <trkpt lat="43.82958" lon="145.086427">
        <ele>17.6</ele>
        <time>2023-09-29T00:28:40.000Z</time>
        
      </trkpt>
      <trkpt lat="43.82726" lon="145.085233">
        <ele>12.2</ele>
        <time>2023-09-29T00:29:14.000Z</time>
        
      </trkpt>
      <trkpt lat="43.825665" lon="145.084208">
        <ele>14.6</ele>
        <time>2023-09-29T00:29:48.000Z</time>
        
      </trkpt>
      <trkpt lat="43.823751" lon="145.083108">
        <ele>12.6</ele>
        <time>2023-09-29T00:30:22.000Z</time>
        
      </trkpt>
      <trkpt lat="43.82181" lon="145.082426">
        <ele>11.6</ele>
        <time>2023-09-29T00:30:56.000Z</time>
        
      </trkpt>
      <trkpt lat="43.820217" lon="145.081726">
        <ele>13</ele>
        <time>2023-09-29T00:31:30.000Z</time>
        
      </trkpt>
      <trkpt lat="43.819489" lon="145.080596">
        <ele>17.4</ele>
        <time>2023-09-29T00:32:04.000Z</time>
        
      </trkpt>
      <trkpt lat="43.818816" lon="145.079219">
        <ele>22.2</ele>
        <time>2023-09-29T00:32:38.000Z</time>
        
      </trkpt>
      <trkpt lat="43.817833" lon="145.077396">
        <ele>25.8</ele>
        <time>2023-09-29T00:33:12.000Z</time>
        
      </trkpt>
      <trkpt lat="43.816816" lon="145.075238">
        <ele>28.6</ele>
        <time>2023-09-29T00:33:46.000Z</time>
        
      </trkpt>
      <trkpt lat="43.816058" lon="145.073287">
        <ele>31.2</ele>
        <time>2023-09-29T00:34:20.000Z</time>
        
      </trkpt>
      <trkpt lat="43.815367" lon="145.071623">
        <ele>33.8</ele>
        <time>2023-09-29T00:34:54.000Z</time>
        
      </trkpt>
      <trkpt lat="43.814614" lon="145.069783">
        <ele>36</ele>
        <time>2023-09-29T00:35:28.000Z</time>
        
      </trkpt>
      <trkpt lat="43.813755" lon="145.068027">
        <ele>38.8</ele>
        <time>2023-09-29T00:36:02.000Z</time>
        
      </trkpt>
      <trkpt lat="43.812797" lon="145.066415">
        <ele>41.4</ele>
        <time>2023-09-29T00:36:36.000Z</time>
        
      </trkpt>
      <trkpt lat="43.81183" lon="145.064768">
        <ele>44</ele>
        <time>2023-09-29T00:37:10.000Z</time>
        
      </trkpt>
      <trkpt lat="43.810628" lon="145.063221">
        <ele>44.8</ele>
        <time>2023-09-29T00:37:44.000Z</time>
        
      </trkpt>
      <trkpt lat="43.809076" lon="145.062034">
        <ele>45</ele>
        <time>2023-09-29T00:38:18.000Z</time>
        
      </trkpt>
      <trkpt lat="43.807573" lon="145.060864">
        <ele>46.2</ele>
        <time>2023-09-29T00:38:52.000Z</time>
        
      </trkpt>
      <trkpt lat="43.806129" lon="145.059761">
        <ele>47.6</ele>
        <time>2023-09-29T00:39:26.000Z</time>
        
      </trkpt>
      <trkpt lat="43.804557" lon="145.058766">
        <ele>48.8</ele>
        <time>2023-09-29T00:40:00.000Z</time>
        
      </trkpt>
      <trkpt lat="43.802748" lon="145.059007">
        <ele>48.2</ele>
        <time>2023-09-29T00:40:34.000Z</time>
        
      </trkpt>
      <trkpt lat="43.800111" lon="145.06016">
        <ele>38.4</ele>
        <time>2023-09-29T00:41:08.000Z</time>
        
      </trkpt>
      <trkpt lat="43.797123" lon="145.061445">
        <ele>24</ele>
        <time>2023-09-29T00:41:42.000Z</time>
        
      </trkpt>
      <trkpt lat="43.794177" lon="145.061271">
        <ele>12.2</ele>
        <time>2023-09-29T00:42:16.000Z</time>
        
      </trkpt>
      <trkpt lat="43.792704" lon="145.060031">
        <ele>15</ele>
        <time>2023-09-29T00:42:50.000Z</time>
        
      </trkpt>
      <trkpt lat="43.791843" lon="145.059496">
        <ele>19.6</ele>
        <time>2023-09-29T00:43:24.000Z</time>
        
      </trkpt>
      <trkpt lat="43.791305" lon="145.059317">
        <ele>23.8</ele>
        <time>2023-09-29T00:43:58.000Z</time>
        
      </trkpt>
      <trkpt lat="43.790767" lon="145.059137">
        <ele>27.4</ele>
        <time>2023-09-29T00:44:32.000Z</time>
        
      </trkpt>
      <trkpt lat="43.790229" lon="145.058958">
        <ele>31.2</ele>
        <time>2023-09-29T00:45:06.000Z</time>
        
      </trkpt>
      <trkpt lat="43.789691" lon="145.058779">
        <ele>32.8</ele>
        <time>2023-09-29T00:45:40.000Z</time>
        
      </trkpt>
      <trkpt lat="43.789153" lon="145.058599">
        <ele>38.8</ele>
        <time>2023-09-29T00:46:14.000Z</time>
        
      </trkpt>
      <trkpt lat="43.785259" lon="145.057259">
        <ele>40.4</ele>
        <time>2023-09-29T00:50:19.000Z</time>
        
      </trkpt>
      <trkpt lat="43.784203" lon="145.056947">
        <ele>44</ele>
        <time>2023-09-29T00:50:53.000Z</time>
        
      </trkpt>
      <trkpt lat="43.783158" lon="145.056722">
        <ele>47.6</ele>
        <time>2023-09-29T00:51:27.000Z</time>
        
      </trkpt>
      <trkpt lat="43.781975" lon="145.057042">
        <ele>50.2</ele>
        <time>2023-09-29T00:52:01.000Z</time>
        
      </trkpt>
      <trkpt lat="43.780405" lon="145.058078">
        <ele>49.2</ele>
        <time>2023-09-29T00:52:35.000Z</time>
        
      </trkpt>
      <trkpt lat="43.778541" lon="145.059338">
        <ele>47.6</ele>
        <time>2023-09-29T00:53:09.000Z</time>
        
      </trkpt>
      <trkpt lat="43.776562" lon="145.060703">
        <ele>46.2</ele>
        <time>2023-09-29T00:53:43.000Z</time>
        
      </trkpt>
      <trkpt lat="43.77449" lon="145.061066">
        <ele>44.8</ele>
        <time>2023-09-29T00:54:17.000Z</time>
        
      </trkpt>
      <trkpt lat="43.772585" lon="145.060498">
        <ele>44.4</ele>
        <time>2023-09-29T00:54:51.000Z</time>
        
      </trkpt>
      <trkpt lat="43.770559" lon="145.060786">
        <ele>43</ele>
        <time>2023-09-29T00:55:25.000Z</time>
        
      </trkpt>
      <trkpt lat="43.768701" lon="145.061709">
        <ele>42.6</ele>
        <time>2023-09-29T00:55:59.000Z</time>
        
      </trkpt>
      <trkpt lat="43.766465" lon="145.061296">
        <ele>37.8</ele>
        <time>2023-09-29T00:56:33.000Z</time>
        
      </trkpt>
      <trkpt lat="43.763981" lon="145.060604">
        <ele>31</ele>
        <time>2023-09-29T00:57:07.000Z</time>
        
      </trkpt>
      <trkpt lat="43.761455" lon="145.06098">
        <ele>24</ele>
        <time>2023-09-29T00:57:41.000Z</time>
        
      </trkpt>
      <trkpt lat="43.759711" lon="145.062319">
        <ele>24.8</ele>
        <time>2023-09-29T00:58:15.000Z</time>
        
      </trkpt>
      <trkpt lat="43.758862" lon="145.062993">
        <ele>28.4</ele>
        <time>2023-09-29T00:58:49.000Z</time>
        
      </trkpt>
      <trkpt lat="43.758012" lon="145.063243">
        <ele>32.2</ele>
        <time>2023-09-29T00:59:23.000Z</time>
        
      </trkpt>
      <trkpt lat="43.757054" lon="145.063228">
        <ele>35.6</ele>
        <time>2023-09-29T00:59:57.000Z</time>
        
      </trkpt>
      <trkpt lat="43.75589" lon="145.063558">
        <ele>38.4</ele>
        <time>2023-09-29T01:00:31.000Z</time>
        
      </trkpt>
      <trkpt lat="43.754399" lon="145.064194">
        <ele>39.2</ele>
        <time>2023-09-29T01:01:05.000Z</time>
        
      </trkpt>
      <trkpt lat="43.752967" lon="145.064824">
        <ele>39.6</ele>
        <time>2023-09-29T01:01:39.000Z</time>
        
      </trkpt>
      <trkpt lat="43.751336" lon="145.065518">
        <ele>40.2</ele>
        <time>2023-09-29T01:02:13.000Z</time>
        
      </trkpt>
      <trkpt lat="43.74958" lon="145.066283">
        <ele>39.6</ele>
        <time>2023-09-29T01:02:47.000Z</time>
        
      </trkpt>
      <trkpt lat="43.748014" lon="145.067378">
        <ele>40</ele>
        <time>2023-09-29T01:03:21.000Z</time>
        
      </trkpt>
      <trkpt lat="43.746404" lon="145.068692">
        <ele>39.8</ele>
        <time>2023-09-29T01:03:55.000Z</time>
        
      </trkpt>
      <trkpt lat="43.744897" lon="145.069932">
        <ele>39.2</ele>
        <time>2023-09-29T01:04:29.000Z</time>
        
      </trkpt>
      <trkpt lat="43.743404" lon="145.071136">
        <ele>39</ele>
        <time>2023-09-29T01:05:03.000Z</time>
        
      </trkpt>
      <trkpt lat="43.741801" lon="145.072416">
        <ele>38.4</ele>
        <time>2023-09-29T01:05:37.000Z</time>
        
      </trkpt>
      <trkpt lat="43.740123" lon="145.073793">
        <ele>37.4</ele>
        <time>2023-09-29T01:06:11.000Z</time>
        
      </trkpt>
      <trkpt lat="43.738472" lon="145.075534">
        <ele>35.8</ele>
        <time>2023-09-29T01:06:45.000Z</time>
        
      </trkpt>
      <trkpt lat="43.736759" lon="145.077347">
        <ele>35.4</ele>
        <time>2023-09-29T01:07:19.000Z</time>
        
      </trkpt>
      <trkpt lat="43.735265" lon="145.078961">
        <ele>34.4</ele>
        <time>2023-09-29T01:07:53.000Z</time>
        
      </trkpt>
      <trkpt lat="43.733567" lon="145.080758">
        <ele>30.4</ele>
        <time>2023-09-29T01:08:27.000Z</time>
        
      </trkpt>
      <trkpt lat="43.73197" lon="145.082471">
        <ele>29.8</ele>
        <time>2023-09-29T01:09:01.000Z</time>
        
      </trkpt>
      <trkpt lat="43.730448" lon="145.084118">
        <ele>29.2</ele>
        <time>2023-09-29T01:09:35.000Z</time>
        
      </trkpt>
      <trkpt lat="43.728637" lon="145.085095">
        <ele>27.8</ele>
        <time>2023-09-29T01:10:09.000Z</time>
        
      </trkpt>
      <trkpt lat="43.72652" lon="145.08498">
        <ele>21</ele>
        <time>2023-09-29T01:10:43.000Z</time>
        
      </trkpt>
      <trkpt lat="43.724546" lon="145.084838">
        <ele>18.2</ele>
        <time>2023-09-29T01:11:17.000Z</time>
        
      </trkpt>
      <trkpt lat="43.72304" lon="145.084698">
        <ele>17.6</ele>
        <time>2023-09-29T01:12:15.000Z</time>
        
      </trkpt>
      <trkpt lat="43.721459" lon="145.085033">
        <ele>17.8</ele>
        <time>2023-09-29T01:12:49.000Z</time>
        
      </trkpt>
      <trkpt lat="43.720649" lon="145.086493">
        <ele>21</ele>
        <time>2023-09-29T01:13:23.000Z</time>
        
      </trkpt>
      <trkpt lat="43.720618" lon="145.088089">
        <ele>24.8</ele>
        <time>2023-09-29T01:13:57.000Z</time>
        
      </trkpt>
      <trkpt lat="43.720757" lon="145.090309">
        <ele>26</ele>
        <time>2023-09-29T01:14:31.000Z</time>
        
      </trkpt>
      <trkpt lat="43.72078" lon="145.092919">
        <ele>25.2</ele>
        <time>2023-09-29T01:15:05.000Z</time>
        
      </trkpt>
      <trkpt lat="43.719434" lon="145.094723">
        <ele>23.6</ele>
        <time>2023-09-29T01:15:39.000Z</time>
        
      </trkpt>
      <trkpt lat="43.717734" lon="145.095675">
        <ele>22.8</ele>
        <time>2023-09-29T01:16:13.000Z</time>
        
      </trkpt>
      <trkpt lat="43.71647" lon="145.096378">
        <ele>22.6</ele>
        <time>2023-09-29T01:17:25.000Z</time>
        
      </trkpt>
      <trkpt lat="43.714892" lon="145.097244">
        <ele>22.2</ele>
        <time>2023-09-29T01:17:59.000Z</time>
        
      </trkpt>
      <trkpt lat="43.713385" lon="145.098248">
        <ele>21.8</ele>
        <time>2023-09-29T01:18:33.000Z</time>
        
      </trkpt>
      <trkpt lat="43.711747" lon="145.099437">
        <ele>21</ele>
        <time>2023-09-29T01:19:07.000Z</time>
        
      </trkpt>
      <trkpt lat="43.710052" lon="145.100658">
        <ele>19.6</ele>
        <time>2023-09-29T01:19:41.000Z</time>
        
      </trkpt>
      <trkpt lat="43.70826" lon="145.101952">
        <ele>17.4</ele>
        <time>2023-09-29T01:20:15.000Z</time>
        
      </trkpt>
      <trkpt lat="43.706513" lon="145.103237">
        <ele>16.4</ele>
        <time>2023-09-29T01:20:49.000Z</time>
        
      </trkpt>
      <trkpt lat="43.704845" lon="145.104448">
        <ele>15.4</ele>
        <time>2023-09-29T01:21:23.000Z</time>
        
      </trkpt>
      <trkpt lat="43.703196" lon="145.105546">
        <ele>13.2</ele>
        <time>2023-09-29T01:21:57.000Z</time>
        
      </trkpt>
      <trkpt lat="43.701634" lon="145.106791">
        <ele>13.2</ele>
        <time>2023-09-29T01:22:31.000Z</time>
        
      </trkpt>
      <trkpt lat="43.700135" lon="145.1081">
        <ele>13.4</ele>
        <time>2023-09-29T01:23:05.000Z</time>
        
      </trkpt>
      <trkpt lat="43.698624" lon="145.109126">
        <ele>12.8</ele>
        <time>2023-09-29T01:23:39.000Z</time>
        
      </trkpt>
      <trkpt lat="43.6972" lon="145.110108">
        <ele>12.6</ele>
        <time>2023-09-29T01:24:13.000Z</time>
        
      </trkpt>
      <trkpt lat="43.695922" lon="145.111179">
        <ele>13</ele>
        <time>2023-09-29T01:24:47.000Z</time>
        
      </trkpt>
      <trkpt lat="43.694391" lon="145.112079">
        <ele>11.4</ele>
        <time>2023-09-29T01:25:21.000Z</time>
        
      </trkpt>
      <trkpt lat="43.692882" lon="145.113192">
        <ele>11</ele>
        <time>2023-09-29T01:25:55.000Z</time>
        
      </trkpt>
      <trkpt lat="43.691479" lon="145.114181">
        <ele>10.6</ele>
        <time>2023-09-29T01:26:29.000Z</time>
        
      </trkpt>
      <trkpt lat="43.690549" lon="145.114922">
        <ele>10.8</ele>
        <time>2023-09-29T01:27:16.000Z</time>
        
      </trkpt>
      <trkpt lat="43.689053" lon="145.115918">
        <ele>12</ele>
        <time>2023-09-29T01:27:50.000Z</time>
        
      </trkpt>
      <trkpt lat="43.687652" lon="145.116854">
        <ele>12.2</ele>
        <time>2023-09-29T01:28:24.000Z</time>
        
      </trkpt>
      <trkpt lat="43.687047" lon="145.116658">
        <ele>10</ele>
        <time>2023-09-29T01:29:08.000Z</time>
        
      </trkpt>
      <trkpt lat="43.686656" lon="145.116118">
        <ele>10.4</ele>
        <time>2023-09-29T01:35:44.000Z</time>
        
      </trkpt>
      <trkpt lat="43.686186" lon="145.116685">
        <ele>10.8</ele>
        <time>2023-09-29T01:36:18.000Z</time>
        
      </trkpt>
      <trkpt lat="43.685773" lon="145.116665">
        <ele>9.8</ele>
        <time>2023-09-29T01:43:37.000Z</time>
        
      </trkpt>
      <trkpt lat="43.68638" lon="145.116826">
        <ele>10.8</ele>
        <time>2023-09-29T01:44:11.000Z</time>
        
      </trkpt>
      <trkpt lat="43.68674" lon="145.11659">
        <ele>11</ele>
        <time>2023-09-29T01:44:45.000Z</time>
        
      </trkpt>
      <trkpt lat="43.687289" lon="145.116906">
        <ele>10.8</ele>
        <time>2023-09-29T01:45:19.000Z</time>
        
      </trkpt>
      <trkpt lat="43.686302" lon="145.117761">
        <ele>12.8</ele>
        <time>2023-09-29T01:46:11.000Z</time>
        
      </trkpt>
      <trkpt lat="43.684798" lon="145.118767">
        <ele>12.8</ele>
        <time>2023-09-29T01:46:45.000Z</time>
        
      </trkpt>
      <trkpt lat="43.683461" lon="145.119662">
        <ele>13</ele>
        <time>2023-09-29T01:47:19.000Z</time>
        
      </trkpt>
      <trkpt lat="43.682112" lon="145.120485">
        <ele>12.4</ele>
        <time>2023-09-29T01:47:53.000Z</time>
        
      </trkpt>
      <trkpt lat="43.680671" lon="145.121311">
        <ele>12.6</ele>
        <time>2023-09-29T01:48:27.000Z</time>
        
      </trkpt>
      <trkpt lat="43.67919" lon="145.122166">
        <ele>12.2</ele>
        <time>2023-09-29T01:49:01.000Z</time>
        
      </trkpt>
      <trkpt lat="43.677679" lon="145.123026">
        <ele>11.6</ele>
        <time>2023-09-29T01:49:35.000Z</time>
        
      </trkpt>
      <trkpt lat="43.676139" lon="145.123823">
        <ele>10.6</ele>
        <time>2023-09-29T01:50:09.000Z</time>
        
      </trkpt>
      <trkpt lat="43.674616" lon="145.124613">
        <ele>10.6</ele>
        <time>2023-09-29T01:50:43.000Z</time>
        
      </trkpt>
      <trkpt lat="43.673302" lon="145.125276">
        <ele>11.2</ele>
        <time>2023-09-29T01:51:17.000Z</time>
        
      </trkpt>
      <trkpt lat="43.672015" lon="145.12586">
        <ele>12.4</ele>
        <time>2023-09-29T01:51:51.000Z</time>
        
      </trkpt>
      <trkpt lat="43.670518" lon="145.126522">
        <ele>12.4</ele>
        <time>2023-09-29T01:52:25.000Z</time>
        
      </trkpt>
      <trkpt lat="43.668818" lon="145.127325">
        <ele>10.6</ele>
        <time>2023-09-29T01:52:59.000Z</time>
        
      </trkpt>
      <trkpt lat="43.667301" lon="145.128303">
        <ele>9.8</ele>
        <time>2023-09-29T01:53:33.000Z</time>
        
      </trkpt>
      <trkpt lat="43.665784" lon="145.129259">
        <ele>9.4</ele>
        <time>2023-09-29T01:54:07.000Z</time>
        
      </trkpt>
      <trkpt lat="43.664259" lon="145.130239">
        <ele>9.2</ele>
        <time>2023-09-29T01:54:41.000Z</time>
        
      </trkpt>
      <trkpt lat="43.662906" lon="145.131082">
        <ele>9.2</ele>
        <time>2023-09-29T01:55:15.000Z</time>
        
      </trkpt>
      <trkpt lat="43.661813" lon="145.132347">
        <ele>9.4</ele>
        <time>2023-09-29T01:55:49.000Z</time>
        
      </trkpt>
      <trkpt lat="43.660388" lon="145.133082">
        <ele>9.2</ele>
        <time>2023-09-29T01:56:23.000Z</time>
        
      </trkpt>
      <trkpt lat="43.659481" lon="145.133165">
        <ele>8.4</ele>
        <time>2023-09-29T01:57:06.000Z</time>
        
      </trkpt>
      <trkpt lat="43.658222" lon="145.133196">
        <ele>8.6</ele>
        <time>2023-09-29T01:57:40.000Z</time>
        
      </trkpt>
      <trkpt lat="43.657236" lon="145.13328">
        <ele>9.6</ele>
        <time>2023-09-29T01:58:52.000Z</time>
        
      </trkpt>
      <trkpt lat="43.65607" lon="145.133302">
        <ele>10.4</ele>
        <time>2023-09-29T01:59:26.000Z</time>
        
      </trkpt>
      <trkpt lat="43.655763" lon="145.133595">
        <ele>10</ele>
        <time>2023-09-29T02:34:39.000Z</time>
        
      </trkpt>
      <trkpt lat="43.654633" lon="145.133993">
        <ele>10.4</ele>
        <time>2023-09-29T02:35:35.000Z</time>
        
      </trkpt>
      <trkpt lat="43.653349" lon="145.134873">
        <ele>12</ele>
        <time>2023-09-29T02:36:09.000Z</time>
        
      </trkpt>
      <trkpt lat="43.651951" lon="145.135995">
        <ele>12</ele>
        <time>2023-09-29T02:36:43.000Z</time>
        
      </trkpt>
      <trkpt lat="43.650885" lon="145.13674">
        <ele>11.8</ele>
        <time>2023-09-29T02:37:32.000Z</time>
        
      </trkpt>
      <trkpt lat="43.64983" lon="145.138098">
        <ele>12.8</ele>
        <time>2023-09-29T02:38:06.000Z</time>
        
      </trkpt>
      <trkpt lat="43.648799" lon="145.139705">
        <ele>13</ele>
        <time>2023-09-29T02:38:40.000Z</time>
        
      </trkpt>
      <trkpt lat="43.647684" lon="145.141444">
        <ele>13</ele>
        <time>2023-09-29T02:39:14.000Z</time>
        
      </trkpt>
      <trkpt lat="43.646545" lon="145.143226">
        <ele>13.2</ele>
        <time>2023-09-29T02:39:48.000Z</time>
        
      </trkpt>
      <trkpt lat="43.64553" lon="145.145064">
        <ele>13.4</ele>
        <time>2023-09-29T02:40:22.000Z</time>
        
      </trkpt>
      <trkpt lat="43.644605" lon="145.146973">
        <ele>12.6</ele>
        <time>2023-09-29T02:40:56.000Z</time>
        
      </trkpt>
      <trkpt lat="43.64367" lon="145.149065">
        <ele>12.8</ele>
        <time>2023-09-29T02:41:30.000Z</time>
        
      </trkpt>
      <trkpt lat="43.642847" lon="145.151101">
        <ele>12</ele>
        <time>2023-09-29T02:42:04.000Z</time>
        
      </trkpt>
      <trkpt lat="43.642089" lon="145.153008">
        <ele>11.8</ele>
        <time>2023-09-29T02:42:38.000Z</time>
        
      </trkpt>
      <trkpt lat="43.64135" lon="145.155025">
        <ele>12</ele>
        <time>2023-09-29T02:43:12.000Z</time>
        
      </trkpt>
      <trkpt lat="43.640622" lon="145.157131">
        <ele>12.8</ele>
        <time>2023-09-29T02:43:46.000Z</time>
        
      </trkpt>
      <trkpt lat="43.639931" lon="145.159289">
        <ele>13.6</ele>
        <time>2023-09-29T02:44:20.000Z</time>
        
      </trkpt>
      <trkpt lat="43.639346" lon="145.161602">
        <ele>14</ele>
        <time>2023-09-29T02:44:54.000Z</time>
        
      </trkpt>
      <trkpt lat="43.638359" lon="145.163691">
        <ele>10.4</ele>
        <time>2023-09-29T02:45:28.000Z</time>
        
      </trkpt>
      <trkpt lat="43.637829" lon="145.166201">
        <ele>10.8</ele>
        <time>2023-09-29T02:46:02.000Z</time>
        
      </trkpt>
      <trkpt lat="43.637287" lon="145.168619">
        <ele>10.4</ele>
        <time>2023-09-29T02:46:36.000Z</time>
        
      </trkpt>
      <trkpt lat="43.636565" lon="145.170912">
        <ele>11.2</ele>
        <time>2023-09-29T02:47:10.000Z</time>
        
      </trkpt>
      <trkpt lat="43.63597" lon="145.17275">
        <ele>11.4</ele>
        <time>2023-09-29T02:47:44.000Z</time>
        
      </trkpt>
      <trkpt lat="43.635559" lon="145.173995">
        <ele>10.6</ele>
        <time>2023-09-29T02:48:42.000Z</time>
        
      </trkpt>
      <trkpt lat="43.63503" lon="145.175626">
        <ele>10.8</ele>
        <time>2023-09-29T02:49:16.000Z</time>
        
      </trkpt>
      <trkpt lat="43.63441" lon="145.17753">
        <ele>12</ele>
        <time>2023-09-29T02:49:50.000Z</time>
        
      </trkpt>
      <trkpt lat="43.633761" lon="145.179525">
        <ele>11.8</ele>
        <time>2023-09-29T02:50:24.000Z</time>
        
      </trkpt>
      <trkpt lat="43.633101" lon="145.181498">
        <ele>10.6</ele>
        <time>2023-09-29T02:50:58.000Z</time>
        
      </trkpt>
      <trkpt lat="43.632504" lon="145.183359">
        <ele>10.2</ele>
        <time>2023-09-29T02:51:32.000Z</time>
        
      </trkpt>
      <trkpt lat="43.632061" lon="145.185228">
        <ele>10</ele>
        <time>2023-09-29T02:52:06.000Z</time>
        
      </trkpt>
      <trkpt lat="43.631437" lon="145.187082">
        <ele>9.8</ele>
        <time>2023-09-29T02:52:40.000Z</time>
        
      </trkpt>
      <trkpt lat="43.630887" lon="145.188737">
        <ele>9</ele>
        <time>2023-09-29T02:53:28.000Z</time>
        
      </trkpt>
      <trkpt lat="43.630172" lon="145.190483">
        <ele>9.8</ele>
        <time>2023-09-29T02:54:02.000Z</time>
        
      </trkpt>
      <trkpt lat="43.629403" lon="145.192356">
        <ele>10</ele>
        <time>2023-09-29T02:54:36.000Z</time>
        
      </trkpt>
      <trkpt lat="43.628775" lon="145.194247">
        <ele>10.4</ele>
        <time>2023-09-29T02:55:10.000Z</time>
        
      </trkpt>
      <trkpt lat="43.628163" lon="145.196072">
        <ele>10.4</ele>
        <time>2023-09-29T02:55:44.000Z</time>
        
      </trkpt>
      <trkpt lat="43.627859" lon="145.197991">
        <ele>9.6</ele>
        <time>2023-09-29T02:56:18.000Z</time>
        
      </trkpt>
      <trkpt lat="43.627584" lon="145.19989">
        <ele>9.4</ele>
        <time>2023-09-29T02:56:52.000Z</time>
        
      </trkpt>
      <trkpt lat="43.627118" lon="145.201742">
        <ele>9.4</ele>
        <time>2023-09-29T02:57:26.000Z</time>
        
      </trkpt>
      <trkpt lat="43.626965" lon="145.202078">
        <ele>8.2</ele>
        <time>2023-09-29T02:58:12.000Z</time>
        
      </trkpt>
      <trkpt lat="43.627584" lon="145.199517">
        <ele>8.2</ele>
        <time>2023-09-29T02:58:46.000Z</time>
        
      </trkpt>
      <trkpt lat="43.627982" lon="145.19679">
        <ele>8.6</ele>
        <time>2023-09-29T02:59:20.000Z</time>
        
      </trkpt>
      <trkpt lat="43.628079" lon="145.19601">
        <ele>8.4</ele>
        <time>2023-09-29T03:12:16.000Z</time>
        
      </trkpt>
      <trkpt lat="43.628591" lon="145.194627">
        <ele>9</ele>
        <time>2023-09-29T03:12:50.000Z</time>
        
      </trkpt>
      <trkpt lat="43.62932" lon="145.192472">
        <ele>8.8</ele>
        <time>2023-09-29T03:13:24.000Z</time>
        
      </trkpt>
      <trkpt lat="43.630316" lon="145.190035">
        <ele>8.4</ele>
        <time>2023-09-29T03:13:58.000Z</time>
        
      </trkpt>
      <trkpt lat="43.630886" lon="145.188566">
        <ele>8.2</ele>
        <time>2023-09-29T03:14:59.000Z</time>
        
      </trkpt>
      <trkpt lat="43.631689" lon="145.186158">
        <ele>8.6</ele>
        <time>2023-09-29T03:15:33.000Z</time>
        
      </trkpt>
      <trkpt lat="43.632373" lon="145.1836">
        <ele>9</ele>
        <time>2023-09-29T03:16:07.000Z</time>
        
      </trkpt>
      <trkpt lat="43.633187" lon="145.181077">
        <ele>9</ele>
        <time>2023-09-29T03:16:41.000Z</time>
        
      </trkpt>
      <trkpt lat="43.633991" lon="145.178634">
        <ele>9</ele>
        <time>2023-09-29T03:17:15.000Z</time>
        
      </trkpt>
      <trkpt lat="43.634823" lon="145.1761">
        <ele>9.4</ele>
        <time>2023-09-29T03:17:49.000Z</time>
        
      </trkpt>
      <trkpt lat="43.635213" lon="145.174912">
        <ele>9</ele>
        <time>2023-09-29T03:19:09.000Z</time>
        
      </trkpt>
      <trkpt lat="43.635921" lon="145.172711">
        <ele>8.8</ele>
        <time>2023-09-29T03:19:43.000Z</time>
        
      </trkpt>
      <trkpt lat="43.636772" lon="145.170101">
        <ele>9</ele>
        <time>2023-09-29T03:20:17.000Z</time>
        
      </trkpt>
      <trkpt lat="43.637539" lon="145.167288">
        <ele>9.6</ele>
        <time>2023-09-29T03:20:51.000Z</time>
        
      </trkpt>
      <trkpt lat="43.63815" lon="145.164512">
        <ele>9.6</ele>
        <time>2023-09-29T03:21:25.000Z</time>
        
      </trkpt>
      <trkpt lat="43.638507" lon="145.162639">
        <ele>9</ele>
        <time>2023-09-29T03:21:59.000Z</time>
        
      </trkpt>
      <trkpt lat="43.639341" lon="145.161663">
        <ele>12</ele>
        <time>2023-09-29T03:22:33.000Z</time>
        
      </trkpt>
      <trkpt lat="43.639563" lon="145.160465">
        <ele>12</ele>
        <time>2023-09-29T03:23:30.000Z</time>
        
      </trkpt>
      <trkpt lat="43.64027" lon="145.157887">
        <ele>12.2</ele>
        <time>2023-09-29T03:24:04.000Z</time>
        
      </trkpt>
      <trkpt lat="43.641235" lon="145.155103">
        <ele>10.8</ele>
        <time>2023-09-29T03:24:38.000Z</time>
        
      </trkpt>
      <trkpt lat="43.642237" lon="145.152382">
        <ele>11</ele>
        <time>2023-09-29T03:25:12.000Z</time>
        
      </trkpt>
      <trkpt lat="43.643323" lon="145.14968">
        <ele>10.6</ele>
        <time>2023-09-29T03:25:46.000Z</time>
        
      </trkpt>
      <trkpt lat="43.644464" lon="145.147069">
        <ele>10.8</ele>
        <time>2023-09-29T03:26:20.000Z</time>
        
      </trkpt>
      <trkpt lat="43.645699" lon="145.144527">
        <ele>11.6</ele>
        <time>2023-09-29T03:26:54.000Z</time>
        
      </trkpt>
      <trkpt lat="43.647115" lon="145.142186">
        <ele>11.8</ele>
        <time>2023-09-29T03:27:28.000Z</time>
        
      </trkpt>
      <trkpt lat="43.648569" lon="145.139913">
        <ele>11.4</ele>
        <time>2023-09-29T03:28:02.000Z</time>
        
      </trkpt>
      <trkpt lat="43.649934" lon="145.137786">
        <ele>11.2</ele>
        <time>2023-09-29T03:28:36.000Z</time>
        
      </trkpt>
      <trkpt lat="43.650524" lon="145.137098">
        <ele>10</ele>
        <time>2023-09-29T03:55:03.000Z</time>
        
      </trkpt>
      <trkpt lat="43.65166" lon="145.13624">
        <ele>10</ele>
        <time>2023-09-29T03:55:37.000Z</time>
        
      </trkpt>
      <trkpt lat="43.652787" lon="145.135255">
        <ele>10.4</ele>
        <time>2023-09-29T03:56:11.000Z</time>
        
      </trkpt>
      <trkpt lat="43.653982" lon="145.134237">
        <ele>9.6</ele>
        <time>2023-09-29T03:56:45.000Z</time>
        
      </trkpt>
      <trkpt lat="43.655457" lon="145.13354">
        <ele>9</ele>
        <time>2023-09-29T03:57:40.000Z</time>
        
      </trkpt>
      <trkpt lat="43.656962" lon="145.133226">
        <ele>9</ele>
        <time>2023-09-29T03:58:14.000Z</time>
        
      </trkpt>
      <trkpt lat="43.658724" lon="145.133031">
        <ele>8.6</ele>
        <time>2023-09-29T03:58:48.000Z</time>
        
      </trkpt>
      <trkpt lat="43.65983" lon="145.133205">
        <ele>8.6</ele>
        <time>2023-09-29T03:59:33.000Z</time>
        
      </trkpt>
      <trkpt lat="43.659855" lon="145.13331">
        <ele>8</ele>
        <time>2023-09-29T04:00:07.000Z</time>
        
      </trkpt>
      <trkpt lat="43.659524" lon="145.132557">
        <ele>7.8</ele>
        <time>2023-09-29T04:55:10.000Z</time>
        
      </trkpt>
      <trkpt lat="43.659491" lon="145.130786">
        <ele>8.8</ele>
        <time>2023-09-29T04:56:07.000Z</time>
        
      </trkpt>
      <trkpt lat="43.659403" lon="145.128198">
        <ele>9.6</ele>
        <time>2023-09-29T04:56:41.000Z</time>
        
      </trkpt>
      <trkpt lat="43.659307" lon="145.125909">
        <ele>10.2</ele>
        <time>2023-09-29T04:57:15.000Z</time>
        
      </trkpt>
      <trkpt lat="43.659011" lon="145.123149">
        <ele>10.6</ele>
        <time>2023-09-29T04:57:49.000Z</time>
        
      </trkpt>
      <trkpt lat="43.658535" lon="145.120431">
        <ele>11.2</ele>
        <time>2023-09-29T04:58:23.000Z</time>
        
      </trkpt>
      <trkpt lat="43.658101" lon="145.117964">
        <ele>11</ele>
        <time>2023-09-29T04:58:57.000Z</time>
        
      </trkpt>
      <trkpt lat="43.657885" lon="145.116072">
        <ele>11.8</ele>
        <time>2023-09-29T04:59:58.000Z</time>
        
      </trkpt>
      <trkpt lat="43.658512" lon="145.113802">
        <ele>13.6</ele>
        <time>2023-09-29T05:00:32.000Z</time>
        
      </trkpt>
      <trkpt lat="43.659353" lon="145.11158">
        <ele>14.2</ele>
        <time>2023-09-29T05:01:06.000Z</time>
        
      </trkpt>
      <trkpt lat="43.660376" lon="145.108852">
        <ele>13.8</ele>
        <time>2023-09-29T05:01:40.000Z</time>
        
      </trkpt>
      <trkpt lat="43.660469" lon="145.105601">
        <ele>11.4</ele>
        <time>2023-09-29T05:02:14.000Z</time>
        
      </trkpt>
      <trkpt lat="43.658915" lon="145.103351">
        <ele>11.6</ele>
        <time>2023-09-29T05:02:48.000Z</time>
        
      </trkpt>
      <trkpt lat="43.65735" lon="145.101349">
        <ele>11.4</ele>
        <time>2023-09-29T05:03:22.000Z</time>
        
      </trkpt>
      <trkpt lat="43.655718" lon="145.099585">
        <ele>11.6</ele>
        <time>2023-09-29T05:03:56.000Z</time>
        
      </trkpt>
      <trkpt lat="43.654042" lon="145.097787">
        <ele>12</ele>
        <time>2023-09-29T05:04:30.000Z</time>
        
      </trkpt>
      <trkpt lat="43.652922" lon="145.095491">
        <ele>13</ele>
        <time>2023-09-29T05:05:04.000Z</time>
        
      </trkpt>
      <trkpt lat="43.652541" lon="145.092551">
        <ele>13.4</ele>
        <time>2023-09-29T05:05:38.000Z</time>
        
      </trkpt>
      <trkpt lat="43.651568" lon="145.090316">
        <ele>15</ele>
        <time>2023-09-29T05:06:12.000Z</time>
        
      </trkpt>
      <trkpt lat="43.650178" lon="145.088933">
        <ele>16.6</ele>
        <time>2023-09-29T05:06:46.000Z</time>
        
      </trkpt>
      <trkpt lat="43.648392" lon="145.087158">
        <ele>14.6</ele>
        <time>2023-09-29T05:07:20.000Z</time>
        
      </trkpt>
      <trkpt lat="43.647288" lon="145.086079">
        <ele>16</ele>
        <time>2023-09-29T05:08:28.000Z</time>
        
      </trkpt>
      <trkpt lat="43.64594" lon="145.084658">
        <ele>18.6</ele>
        <time>2023-09-29T05:09:02.000Z</time>
        
      </trkpt>
      <trkpt lat="43.645064" lon="145.082329">
        <ele>19.6</ele>
        <time>2023-09-29T05:09:36.000Z</time>
        
      </trkpt>
      <trkpt lat="43.644363" lon="145.079838">
        <ele>19.8</ele>
        <time>2023-09-29T05:10:10.000Z</time>
        
      </trkpt>
      <trkpt lat="43.643622" lon="145.077214">
        <ele>20</ele>
        <time>2023-09-29T05:10:44.000Z</time>
        
      </trkpt>
      <trkpt lat="43.642822" lon="145.074501">
        <ele>19.8</ele>
        <time>2023-09-29T05:11:18.000Z</time>
        
      </trkpt>
      <trkpt lat="43.641436" lon="145.072254">
        <ele>17.2</ele>
        <time>2023-09-29T05:11:52.000Z</time>
        
      </trkpt>
      <trkpt lat="43.641566" lon="145.071117">
        <ele>16.4</ele>
        <time>2023-09-29T05:12:49.000Z</time>
        
      </trkpt>
      <trkpt lat="43.642482" lon="145.068532">
        <ele>16</ele>
        <time>2023-09-29T05:13:23.000Z</time>
        
      </trkpt>
      <trkpt lat="43.643406" lon="145.065877">
        <ele>16.2</ele>
        <time>2023-09-29T05:13:57.000Z</time>
        
      </trkpt>
      <trkpt lat="43.644305" lon="145.063325">
        <ele>16.4</ele>
        <time>2023-09-29T05:14:31.000Z</time>
        
      </trkpt>
      <trkpt lat="43.645026" lon="145.061255">
        <ele>16.2</ele>
        <time>2023-09-29T05:15:05.000Z</time>
        
      </trkpt>
      <trkpt lat="43.645834" lon="145.058975">
        <ele>16.2</ele>
        <time>2023-09-29T05:15:39.000Z</time>
        
      </trkpt>
      <trkpt lat="43.646651" lon="145.056663">
        <ele>16.4</ele>
        <time>2023-09-29T05:16:13.000Z</time>
        
      </trkpt>
      <trkpt lat="43.647462" lon="145.054356">
        <ele>19.2</ele>
        <time>2023-09-29T05:16:47.000Z</time>
        
      </trkpt>
      <trkpt lat="43.648391" lon="145.051711">
        <ele>17.4</ele>
        <time>2023-09-29T05:17:21.000Z</time>
        
      </trkpt>
      <trkpt lat="43.649241" lon="145.049281">
        <ele>17.6</ele>
        <time>2023-09-29T05:17:55.000Z</time>
        
      </trkpt>
      <trkpt lat="43.650026" lon="145.047059">
        <ele>18.2</ele>
        <time>2023-09-29T05:18:29.000Z</time>
        
      </trkpt>
      <trkpt lat="43.650803" lon="145.044866">
        <ele>20</ele>
        <time>2023-09-29T05:19:03.000Z</time>
        
      </trkpt>
      <trkpt lat="43.651412" lon="145.043102">
        <ele>22.6</ele>
        <time>2023-09-29T05:19:50.000Z</time>
        
      </trkpt>
      <trkpt lat="43.652062" lon="145.04128">
        <ele>26.8</ele>
        <time>2023-09-29T05:20:24.000Z</time>
        
      </trkpt>
      <trkpt lat="43.65269" lon="145.039474">
        <ele>30.8</ele>
        <time>2023-09-29T05:20:58.000Z</time>
        
      </trkpt>
      <trkpt lat="43.653446" lon="145.037311">
        <ele>33.2</ele>
        <time>2023-09-29T05:21:32.000Z</time>
        
      </trkpt>
      <trkpt lat="43.65424" lon="145.035068">
        <ele>34.2</ele>
        <time>2023-09-29T05:22:06.000Z</time>
        
      </trkpt>
      <trkpt lat="43.655103" lon="145.032611">
        <ele>33.8</ele>
        <time>2023-09-29T05:22:40.000Z</time>
        
      </trkpt>
      <trkpt lat="43.655448" lon="145.030553">
        <ele>32.2</ele>
        <time>2023-09-29T05:23:14.000Z</time>
        
      </trkpt>
      <trkpt lat="43.653525" lon="145.029265">
        <ele>31.6</ele>
        <time>2023-09-29T05:23:48.000Z</time>
        
      </trkpt>
      <trkpt lat="43.651552" lon="145.02794">
        <ele>31.6</ele>
        <time>2023-09-29T05:24:22.000Z</time>
        
      </trkpt>
      <trkpt lat="43.651861" lon="145.025996">
        <ele>33</ele>
        <time>2023-09-29T05:24:56.000Z</time>
        
      </trkpt>
      <trkpt lat="43.652658" lon="145.023737">
        <ele>35</ele>
        <time>2023-09-29T05:25:30.000Z</time>
        
      </trkpt>
      <trkpt lat="43.653399" lon="145.021579">
        <ele>36.4</ele>
        <time>2023-09-29T05:26:04.000Z</time>
        
      </trkpt>
      <trkpt lat="43.65178" lon="145.020452">
        <ele>35.8</ele>
        <time>2023-09-29T05:26:38.000Z</time>
        
      </trkpt>
      <trkpt lat="43.649786" lon="145.019125">
        <ele>37</ele>
        <time>2023-09-29T05:27:12.000Z</time>
        
      </trkpt>
      <trkpt lat="43.647798" lon="145.017801">
        <ele>38.6</ele>
        <time>2023-09-29T05:27:46.000Z</time>
        
      </trkpt>
      <trkpt lat="43.645528" lon="145.0163">
        <ele>36</ele>
        <time>2023-09-29T05:28:20.000Z</time>
        
      </trkpt>
      <trkpt lat="43.643078" lon="145.014674">
        <ele>33</ele>
        <time>2023-09-29T05:28:54.000Z</time>
        
      </trkpt>
      <trkpt lat="43.640759" lon="145.013126">
        <ele>32.4</ele>
        <time>2023-09-29T05:29:28.000Z</time>
        
      </trkpt>
      <trkpt lat="43.639306" lon="145.012152">
        <ele>32</ele>
        <time>2023-09-29T05:33:02.000Z</time>
        
      </trkpt>
      <trkpt lat="43.637495" lon="145.010957">
        <ele>32.8</ele>
        <time>2023-09-29T05:33:36.000Z</time>
        
      </trkpt>
      <trkpt lat="43.635546" lon="145.009659">
        <ele>33.6</ele>
        <time>2023-09-29T05:34:10.000Z</time>
        
      </trkpt>
      <trkpt lat="43.633524" lon="145.008286">
        <ele>32.4</ele>
        <time>2023-09-29T05:34:44.000Z</time>
        
      </trkpt>
      <trkpt lat="43.632613" lon="145.007716">
        <ele>32.2</ele>
        <time>2023-09-29T05:37:25.000Z</time>
        
      </trkpt>
      <trkpt lat="43.630697" lon="145.006429">
        <ele>30</ele>
        <time>2023-09-29T05:37:59.000Z</time>
        
      </trkpt>
      <trkpt lat="43.628638" lon="145.005071">
        <ele>28.6</ele>
        <time>2023-09-29T05:38:33.000Z</time>
        
      </trkpt>
      <trkpt lat="43.626656" lon="145.003747">
        <ele>27</ele>
        <time>2023-09-29T05:39:07.000Z</time>
        
      </trkpt>
      <trkpt lat="43.624437" lon="145.002286">
        <ele>23.8</ele>
        <time>2023-09-29T05:39:41.000Z</time>
        
      </trkpt>
      <trkpt lat="43.62276" lon="145.001168">
        <ele>27</ele>
        <time>2023-09-29T05:40:15.000Z</time>
        
      </trkpt>
      <trkpt lat="43.621719" lon="145.000477">
        <ele>31.8</ele>
        <time>2023-09-29T05:40:49.000Z</time>
        
      </trkpt>
      <trkpt lat="43.620417" lon="144.999603">
        <ele>33.8</ele>
        <time>2023-09-29T05:41:23.000Z</time>
        
      </trkpt>
      <trkpt lat="43.618614" lon="144.998404">
        <ele>32.8</ele>
        <time>2023-09-29T05:41:57.000Z</time>
        
      </trkpt>
      <trkpt lat="43.616923" lon="144.997276">
        <ele>33</ele>
        <time>2023-09-29T05:42:31.000Z</time>
        
      </trkpt>
      <trkpt lat="43.615014" lon="144.996011">
        <ele>30</ele>
        <time>2023-09-29T05:43:05.000Z</time>
        
      </trkpt>
      <trkpt lat="43.613136" lon="144.994795">
        <ele>28.4</ele>
        <time>2023-09-29T05:43:39.000Z</time>
        
      </trkpt>
      <trkpt lat="43.611472" lon="144.993479">
        <ele>29</ele>
        <time>2023-09-29T05:44:13.000Z</time>
        
      </trkpt>
      <trkpt lat="43.609651" lon="144.991859">
        <ele>28</ele>
        <time>2023-09-29T05:44:47.000Z</time>
        
      </trkpt>
      <trkpt lat="43.607843" lon="144.990481">
        <ele>26.8</ele>
        <time>2023-09-29T05:45:21.000Z</time>
        
      </trkpt>
      <trkpt lat="43.606232" lon="144.989781">
        <ele>27.6</ele>
        <time>2023-09-29T05:45:55.000Z</time>
        
      </trkpt>
      <trkpt lat="43.605056" lon="144.989178">
        <ele>31.6</ele>
        <time>2023-09-29T05:46:29.000Z</time>
        
      </trkpt>
      <trkpt lat="43.604029" lon="144.988638">
        <ele>36.4</ele>
        <time>2023-09-29T05:47:03.000Z</time>
        
      </trkpt>
      <trkpt lat="43.603019" lon="144.988141">
        <ele>41</ele>
        <time>2023-09-29T05:47:37.000Z</time>
        
      </trkpt>
      <trkpt lat="43.601973" lon="144.987645">
        <ele>45.2</ele>
        <time>2023-09-29T05:48:11.000Z</time>
        
      </trkpt>
      <trkpt lat="43.600743" lon="144.987087">
        <ele>49</ele>
        <time>2023-09-29T05:48:45.000Z</time>
        
      </trkpt>
      <trkpt lat="43.599462" lon="144.98649">
        <ele>52</ele>
        <time>2023-09-29T05:49:19.000Z</time>
        
      </trkpt>
      <trkpt lat="43.598091" lon="144.985857">
        <ele>53.2</ele>
        <time>2023-09-29T05:49:53.000Z</time>
        
      </trkpt>
      <trkpt lat="43.596544" lon="144.985143">
        <ele>53.2</ele>
        <time>2023-09-29T05:50:27.000Z</time>
        
      </trkpt>
      <trkpt lat="43.594865" lon="144.984354">
        <ele>53.4</ele>
        <time>2023-09-29T05:51:01.000Z</time>
        
      </trkpt>
      <trkpt lat="43.593189" lon="144.983589">
        <ele>53.6</ele>
        <time>2023-09-29T05:51:35.000Z</time>
        
      </trkpt>
      <trkpt lat="43.59122" lon="144.982663">
        <ele>51.2</ele>
        <time>2023-09-29T05:52:09.000Z</time>
        
      </trkpt>
      <trkpt lat="43.589297" lon="144.981774">
        <ele>51.6</ele>
        <time>2023-09-29T05:52:43.000Z</time>
        
      </trkpt>
      <trkpt lat="43.5875" lon="144.981211">
        <ele>52</ele>
        <time>2023-09-29T05:53:17.000Z</time>
        
      </trkpt>
      <trkpt lat="43.5854" lon="144.981202">
        <ele>50</ele>
        <time>2023-09-29T05:53:51.000Z</time>
        
      </trkpt>
      <trkpt lat="43.583243" lon="144.981187">
        <ele>47.4</ele>
        <time>2023-09-29T05:54:25.000Z</time>
        
      </trkpt>
      <trkpt lat="43.580841" lon="144.980815">
        <ele>39.8</ele>
        <time>2023-09-29T05:54:59.000Z</time>
        
      </trkpt>
      <trkpt lat="43.579603" lon="144.981715">
        <ele>42.4</ele>
        <time>2023-09-29T05:55:33.000Z</time>
        
      </trkpt>
      <trkpt lat="43.578797" lon="144.982766">
        <ele>47.4</ele>
        <time>2023-09-29T05:56:07.000Z</time>
        
      </trkpt>
      <trkpt lat="43.578023" lon="144.983732">
        <ele>52.2</ele>
        <time>2023-09-29T05:56:41.000Z</time>
        
      </trkpt>
      <trkpt lat="43.576927" lon="144.985102">
        <ele>52</ele>
        <time>2023-09-29T05:57:15.000Z</time>
        
      </trkpt>
      <trkpt lat="43.575165" lon="144.987189">
        <ele>46.6</ele>
        <time>2023-09-29T05:57:49.000Z</time>
        
      </trkpt>
      <trkpt lat="43.572707" lon="144.987889">
        <ele>40</ele>
        <time>2023-09-29T05:58:23.000Z</time>
        
      </trkpt>
      <trkpt lat="43.570404" lon="144.987813">
        <ele>33.4</ele>
        <time>2023-09-29T05:58:57.000Z</time>
        
      </trkpt>
      <trkpt lat="43.568809" lon="144.989476">
        <ele>26.2</ele>
        <time>2023-09-29T05:59:31.000Z</time>
        
      </trkpt>
      <trkpt lat="43.567872" lon="144.991039">
        <ele>25.4</ele>
        <time>2023-09-29T06:00:05.000Z</time>
        
      </trkpt>
      <trkpt lat="43.566659" lon="144.990416">
        <ele>25.4</ele>
        <time>2023-09-29T06:00:53.000Z</time>
        
      </trkpt>
      <trkpt lat="43.565448" lon="144.989632">
        <ele>25.6</ele>
        <time>2023-09-29T06:02:11.000Z</time>
        
      </trkpt>
      <trkpt lat="43.564064" lon="144.988742">
        <ele>27.2</ele>
        <time>2023-09-29T06:02:45.000Z</time>
        
      </trkpt>
      <trkpt lat="43.562557" lon="144.987667">
        <ele>27.6</ele>
        <time>2023-09-29T06:03:19.000Z</time>
        
      </trkpt>
      <trkpt lat="43.561273" lon="144.986272">
        <ele>27.6</ele>
        <time>2023-09-29T06:03:53.000Z</time>
        
      </trkpt>
      <trkpt lat="43.562337" lon="144.984568">
        <ele>27</ele>
        <time>2023-09-29T06:04:27.000Z</time>
        
      </trkpt>
      <trkpt lat="43.563343" lon="144.983331">
        <ele>27.8</ele>
        <time>2023-09-29T06:05:01.000Z</time>
        
      </trkpt>
      <trkpt lat="43.564365" lon="144.982067">
        <ele>30.2</ele>
        <time>2023-09-29T06:05:35.000Z</time>
        
      </trkpt>
      <trkpt lat="43.564989" lon="144.982752">
        <ele>30.2</ele>
        <time>2023-09-29T06:06:09.000Z</time>
        
      </trkpt>
      <trkpt lat="43.565896" lon="144.981647">
        <ele>31.8</ele>
        <time>2023-09-29T06:06:43.000Z</time>
        
      </trkpt>
      <trkpt lat="43.566568" lon="144.98114">
        <ele>35.2</ele>
        <time>2023-09-29T06:07:49.000Z</time>
        
      </trkpt>
      <trkpt lat="43.565715" lon="144.981885">
        <ele>35.6</ele>
        <time>2023-09-29T08:08:36.000Z</time>
        
      </trkpt>
      <trkpt lat="43.56468" lon="144.983162">
        <ele>32.6</ele>
        <time>2023-09-29T08:09:10.000Z</time>
        
      </trkpt>
      <trkpt lat="43.563552" lon="144.984572">
        <ele>30.8</ele>
        <time>2023-09-29T08:09:44.000Z</time>
        
      </trkpt>
      <trkpt lat="43.562626" lon="144.984491">
        <ele>30.2</ele>
        <time>2023-09-29T08:10:18.000Z</time>
        
      </trkpt>
      <trkpt lat="43.561724" lon="144.983133">
        <ele>30.6</ele>
        <time>2023-09-29T08:10:52.000Z</time>
        
      </trkpt>
      <trkpt lat="43.560759" lon="144.98168">
        <ele>31</ele>
        <time>2023-09-29T08:11:26.000Z</time>
        
      </trkpt>
      <trkpt lat="43.559755" lon="144.980162">
        <ele>32</ele>
        <time>2023-09-29T08:12:00.000Z</time>
        
      </trkpt>
      <trkpt lat="43.558647" lon="144.978475">
        <ele>31.2</ele>
        <time>2023-09-29T08:12:34.000Z</time>
        
      </trkpt>
      <trkpt lat="43.557643" lon="144.976959">
        <ele>31.8</ele>
        <time>2023-09-29T08:13:08.000Z</time>
        
      </trkpt>
      <trkpt lat="43.556839" lon="144.97571">
        <ele>32</ele>
        <time>2023-09-29T08:13:42.000Z</time>
        
      </trkpt>
      <trkpt lat="43.5564" lon="144.975642">
        <ele>32</ele>
        <time>2023-09-29T08:25:17.000Z</time>
        
      </trkpt>
      <trkpt lat="43.555774" lon="144.97467">
        <ele>33</ele>
        <time>2023-09-29T08:26:01.000Z</time>
        
      </trkpt>
      <trkpt lat="43.555102" lon="144.973402">
        <ele>33.8</ele>
        <time>2023-09-29T08:26:44.000Z</time>
        
      </trkpt>
      <trkpt lat="43.555238" lon="144.972293">
        <ele>36.6</ele>
        <time>2023-09-29T08:27:18.000Z</time>
        
      </trkpt>
      <trkpt lat="43.555413" lon="144.97083">
        <ele>38.2</ele>
        <time>2023-09-29T08:27:52.000Z</time>
        
      </trkpt>
      <trkpt lat="43.556023" lon="144.970404">
        <ele>40.6</ele>
        <time>2023-09-29T08:28:26.000Z</time>
        
      </trkpt>
      <trkpt lat="43.556841" lon="144.970341">
        <ele>45.6</ele>
        <time>2023-09-29T08:29:00.000Z</time>
        
      </trkpt>
      <trkpt lat="43.557632" lon="144.970158">
        <ele>50.2</ele>
        <time>2023-09-29T08:29:34.000Z</time>
        
      </trkpt>
      <trkpt lat="43.558448" lon="144.969875">
        <ele>55</ele>
        <time>2023-09-29T08:30:08.000Z</time>
        
      </trkpt>
      <trkpt lat="43.559369" lon="144.969419">
        <ele>57.8</ele>
        <time>2023-09-29T08:31:20.000Z</time>
        
      </trkpt>
      <trkpt lat="43.560566" lon="144.968994">
        <ele>61</ele>
        <time>2023-09-29T08:31:54.000Z</time>
        
      </trkpt>
      <trkpt lat="43.561837" lon="144.968222">
        <ele>63.4</ele>
        <time>2023-09-29T08:32:28.000Z</time>
        
      </trkpt>
      <trkpt lat="43.563046" lon="144.967301">
        <ele>66</ele>
        <time>2023-09-29T08:33:02.000Z</time>
        
      </trkpt>
      <trkpt lat="43.56415" lon="144.966481">
        <ele>69</ele>
        <time>2023-09-29T08:33:36.000Z</time>
        
      </trkpt>
      <trkpt lat="43.565218" lon="144.965797">
        <ele>72.2</ele>
        <time>2023-09-29T08:34:10.000Z</time>
        
      </trkpt>
      <trkpt lat="43.566394" lon="144.965383">
        <ele>75</ele>
        <time>2023-09-29T08:34:44.000Z</time>
        
      </trkpt>
      <trkpt lat="43.567661" lon="144.964991">
        <ele>74.8</ele>
        <time>2023-09-29T08:35:18.000Z</time>
        
      </trkpt>
      <trkpt lat="43.567732" lon="144.963662">
        <ele>74.8</ele>
        <time>2023-09-29T08:35:52.000Z</time>
        
      </trkpt>
      <trkpt lat="43.567456" lon="144.962209">
        <ele>72.6</ele>
        <time>2023-09-29T08:36:53.000Z</time>
        
      </trkpt>
      <trkpt lat="43.566496" lon="144.959924">
        <ele>66.6</ele>
        <time>2023-09-29T08:37:27.000Z</time>
        
      </trkpt>
      <trkpt lat="43.565079" lon="144.957608">
        <ele>58.6</ele>
        <time>2023-09-29T08:38:01.000Z</time>
        
      </trkpt>
      <trkpt lat="43.565303" lon="144.955954">
        <ele>61.6</ele>
        <time>2023-09-29T08:38:35.000Z</time>
        
      </trkpt>
      <trkpt lat="43.564843" lon="144.954583">
        <ele>64.2</ele>
        <time>2023-09-29T08:39:09.000Z</time>
        
      </trkpt>
      <trkpt lat="43.563735" lon="144.954381">
        <ele>66.6</ele>
        <time>2023-09-29T08:39:43.000Z</time>
        
      </trkpt>
      <trkpt lat="43.562642" lon="144.954915">
        <ele>61</ele>
        <time>2023-09-29T08:40:17.000Z</time>
        
      </trkpt>
      <trkpt lat="43.563005" lon="144.956231">
        <ele>62.4</ele>
        <time>2023-09-29T08:41:27.000Z</time>
        
      </trkpt>
      <trkpt lat="43.563537" lon="144.956816">
        <ele>63.4</ele>
        <time>2023-09-29T08:42:01.000Z</time>
        
      </trkpt>
      <trkpt lat="43.56353" lon="144.957231">
        <ele>63.2</ele>
        <time>2023-09-29T08:43:02.000Z</time>
        
      </trkpt>
      <trkpt lat="43.563579" lon="144.956534">
        <ele>63.2</ele>
        <time>2023-09-29T08:43:36.000Z</time>
        
      </trkpt>
      <trkpt lat="43.563906" lon="144.956321">
        <ele>63</ele>
        <time>2023-09-29T08:44:10.000Z</time>
        
      </trkpt>
      <trkpt lat="43.563773" lon="144.956001">
        <ele>63.4</ele>
        <time>2023-09-29T08:45:03.000Z</time>
        
      </trkpt>
      <trkpt lat="43.564343" lon="144.955831">
        <ele>63.6</ele>
        <time>2023-09-29T08:45:37.000Z</time>
        
      </trkpt>
      <trkpt lat="43.563767" lon="144.956046">
        <ele>64</ele>
        <time>2023-09-29T08:46:11.000Z</time>
        
      </trkpt>
      <trkpt lat="43.563527" lon="144.956767">
        <ele>64</ele>
        <time>2023-09-29T08:46:45.000Z</time>
        
      </trkpt>
      <trkpt lat="43.563558" lon="144.956794">
        <ele>64</ele>
        <time>2023-09-29T08:46:51.000Z</time>
        
      </trkpt>
    </trkseg>
  </trk>
</gpx>