<?xml version="1.0" encoding="UTF-8"?>
<gpx version="1.1">
  <trk>
    <trkseg>
      
      <trkpt lat="43.91103" lon="144.66151">
        <ele>27.2</ele>
        <time>2023-09-27T00:23:23.000Z</time>
        
      </trkpt>
      <trkpt lat="43.91103" lon="144.66151">
        <ele>26.4</ele>
        <time>2023-09-27T00:23:52.000Z</time>
        
      </trkpt>
      <trkpt lat="43.911119" lon="144.661881">
        <ele>-4</ele>
        <time>2023-09-27T01:05:39.000Z</time>
        
      </trkpt>
      <trkpt lat="43.911265" lon="144.661933">
        <ele>-3</ele>
        <time>2023-09-27T01:06:18.000Z</time>
        
      </trkpt>
      <trkpt lat="43.910879" lon="144.663413">
        <ele>-2.4</ele>
        <time>2023-09-27T01:06:47.000Z</time>
        
      </trkpt>
      <trkpt lat="43.911748" lon="144.663807">
        <ele>0.8</ele>
        <time>2023-09-27T01:07:16.000Z</time>
        
      </trkpt>
      <trkpt lat="43.911758" lon="144.664915">
        <ele>1.2</ele>
        <time>2023-09-27T01:07:45.000Z</time>
        
      </trkpt>
      <trkpt lat="43.910803" lon="144.666482">
        <ele>0.8</ele>
        <time>2023-09-27T01:08:14.000Z</time>
        
      </trkpt>
      <trkpt lat="43.909849" lon="144.667991">
        <ele>1.6</ele>
        <time>2023-09-27T01:08:43.000Z</time>
        
      </trkpt>
      <trkpt lat="43.909425" lon="144.668656">
        <ele>4.4</ele>
        <time>2023-09-27T01:25:38.000Z</time>
        
      </trkpt>
      <trkpt lat="43.909069" lon="144.670025">
        <ele>3.6</ele>
        <time>2023-09-27T01:26:07.000Z</time>
        
      </trkpt>
      <trkpt lat="43.90886" lon="144.671791">
        <ele>1.2</ele>
        <time>2023-09-27T01:26:36.000Z</time>
        
      </trkpt>
      <trkpt lat="43.908886" lon="144.673575">
        <ele>1.6</ele>
        <time>2023-09-27T01:27:05.000Z</time>
        
      </trkpt>
      <trkpt lat="43.910012" lon="144.673569">
        <ele>3.6</ele>
        <time>2023-09-27T01:27:39.000Z</time>
        
      </trkpt>
      <trkpt lat="43.911098" lon="144.673554">
        <ele>4.8</ele>
        <time>2023-09-27T01:28:39.000Z</time>
        
      </trkpt>
      <trkpt lat="43.912538" lon="144.673501">
        <ele>6</ele>
        <time>2023-09-27T01:29:08.000Z</time>
        
      </trkpt>
      <trkpt lat="43.914058" lon="144.673459">
        <ele>5.8</ele>
        <time>2023-09-27T01:29:37.000Z</time>
        
      </trkpt>
      <trkpt lat="43.915071" lon="144.673891">
        <ele>4.6</ele>
        <time>2023-09-27T01:30:16.000Z</time>
        
      </trkpt>
      <trkpt lat="43.915365" lon="144.676293">
        <ele>2.6</ele>
        <time>2023-09-27T01:30:45.000Z</time>
        
      </trkpt>
      <trkpt lat="43.915506" lon="144.678251">
        <ele>1.8</ele>
        <time>2023-09-27T01:31:14.000Z</time>
        
      </trkpt>
      <trkpt lat="43.915606" lon="144.679508">
        <ele>2</ele>
        <time>2023-09-27T01:31:57.000Z</time>
        
      </trkpt>
      <trkpt lat="43.915854" lon="144.680491">
        <ele>3</ele>
        <time>2023-09-27T01:32:45.000Z</time>
        
      </trkpt>
      <trkpt lat="43.91652" lon="144.682097">
        <ele>5.4</ele>
        <time>2023-09-27T01:33:14.000Z</time>
        
      </trkpt>
      <trkpt lat="43.916862" lon="144.683767">
        <ele>7.8</ele>
        <time>2023-09-27T01:33:43.000Z</time>
        
      </trkpt>
      <trkpt lat="43.916919" lon="144.685899">
        <ele>8</ele>
        <time>2023-09-27T01:34:12.000Z</time>
        
      </trkpt>
      <trkpt lat="43.916973" lon="144.688184">
        <ele>7.2</ele>
        <time>2023-09-27T01:34:41.000Z</time>
        
      </trkpt>
      <trkpt lat="43.916991" lon="144.690509">
        <ele>7</ele>
        <time>2023-09-27T01:35:10.000Z</time>
        
      </trkpt>
      <trkpt lat="43.917074" lon="144.69289">
        <ele>6.2</ele>
        <time>2023-09-27T01:35:39.000Z</time>
        
      </trkpt>
      <trkpt lat="43.917183" lon="144.695329">
        <ele>5.8</ele>
        <time>2023-09-27T01:36:08.000Z</time>
        
      </trkpt>
      <trkpt lat="43.917283" lon="144.697729">
        <ele>5.2</ele>
        <time>2023-09-27T01:36:37.000Z</time>
        
      </trkpt>
      <trkpt lat="43.917402" lon="144.699891">
        <ele>6</ele>
        <time>2023-09-27T01:37:06.000Z</time>
        
      </trkpt>
      <trkpt lat="43.916218" lon="144.700447">
        <ele>8</ele>
        <time>2023-09-27T01:37:35.000Z</time>
        
      </trkpt>
      <trkpt lat="43.914544" lon="144.700597">
        <ele>8.4</ele>
        <time>2023-09-27T01:38:04.000Z</time>
        
      </trkpt>
      <trkpt lat="43.912652" lon="144.700761">
        <ele>6.2</ele>
        <time>2023-09-27T01:38:33.000Z</time>
        
      </trkpt>
      <trkpt lat="43.912687" lon="144.702782">
        <ele>5.2</ele>
        <time>2023-09-27T01:39:02.000Z</time>
        
      </trkpt>
      <trkpt lat="43.91272" lon="144.704909">
        <ele>5</ele>
        <time>2023-09-27T01:39:31.000Z</time>
        
      </trkpt>
      <trkpt lat="43.912822" lon="144.706398">
        <ele>5.4</ele>
        <time>2023-09-27T01:40:48.000Z</time>
        
      </trkpt>
      <trkpt lat="43.912931" lon="144.708828">
        <ele>4.8</ele>
        <time>2023-09-27T01:41:17.000Z</time>
        
      </trkpt>
      <trkpt lat="43.913043" lon="144.711334">
        <ele>4.4</ele>
        <time>2023-09-27T01:41:46.000Z</time>
        
      </trkpt>
      <trkpt lat="43.913149" lon="144.713755">
        <ele>5</ele>
        <time>2023-09-27T01:42:15.000Z</time>
        
      </trkpt>
      <trkpt lat="43.913255" lon="144.716151">
        <ele>5.2</ele>
        <time>2023-09-27T01:42:44.000Z</time>
        
      </trkpt>
      <trkpt lat="43.913362" lon="144.718436">
        <ele>6.4</ele>
        <time>2023-09-27T01:43:13.000Z</time>
        
      </trkpt>
      <trkpt lat="43.913461" lon="144.720564">
        <ele>7</ele>
        <time>2023-09-27T01:43:42.000Z</time>
        
      </trkpt>
      <trkpt lat="43.913566" lon="144.723057">
        <ele>5.2</ele>
        <time>2023-09-27T01:44:11.000Z</time>
        
      </trkpt>
      <trkpt lat="43.91366" lon="144.725457">
        <ele>4.4</ele>
        <time>2023-09-27T01:44:40.000Z</time>
        
      </trkpt>
      <trkpt lat="43.913772" lon="144.727785">
        <ele>4.8</ele>
        <time>2023-09-27T01:45:09.000Z</time>
        
      </trkpt>
      <trkpt lat="43.91386" lon="144.729958">
        <ele>5.6</ele>
        <time>2023-09-27T01:45:38.000Z</time>
        
      </trkpt>
      <trkpt lat="43.913952" lon="144.732205">
        <ele>5.6</ele>
        <time>2023-09-27T01:46:07.000Z</time>
        
      </trkpt>
      <trkpt lat="43.914057" lon="144.73448">
        <ele>5.8</ele>
        <time>2023-09-27T01:46:36.000Z</time>
        
      </trkpt>
      <trkpt lat="43.914158" lon="144.736629">
        <ele>5.8</ele>
        <time>2023-09-27T01:47:05.000Z</time>
        
      </trkpt>
      <trkpt lat="43.914256" lon="144.738798">
        <ele>6.6</ele>
        <time>2023-09-27T01:47:34.000Z</time>
        
      </trkpt>
      <trkpt lat="43.914341" lon="144.740961">
        <ele>6.6</ele>
        <time>2023-09-27T01:48:03.000Z</time>
        
      </trkpt>
      <trkpt lat="43.914443" lon="144.743241">
        <ele>6.6</ele>
        <time>2023-09-27T01:48:32.000Z</time>
        
      </trkpt>
      <trkpt lat="43.914555" lon="144.745549">
        <ele>6.2</ele>
        <time>2023-09-27T01:49:01.000Z</time>
        
      </trkpt>
      <trkpt lat="43.914657" lon="144.747698">
        <ele>5.8</ele>
        <time>2023-09-27T01:49:30.000Z</time>
        
      </trkpt>
      <trkpt lat="43.914745" lon="144.749881">
        <ele>5.8</ele>
        <time>2023-09-27T01:49:59.000Z</time>
        
      </trkpt>
      <trkpt lat="43.914806" lon="144.751224">
        <ele>9</ele>
        <time>2023-09-27T01:50:49.000Z</time>
        
      </trkpt>
      <trkpt lat="43.914853" lon="144.752193">
        <ele>8.2</ele>
        <time>2023-09-27T01:51:37.000Z</time>
        
      </trkpt>
      <trkpt lat="43.914958" lon="144.75454">
        <ele>7.6</ele>
        <time>2023-09-27T01:52:06.000Z</time>
        
      </trkpt>
      <trkpt lat="43.915044" lon="144.756665">
        <ele>8.4</ele>
        <time>2023-09-27T01:52:35.000Z</time>
        
      </trkpt>
      <trkpt lat="43.91514" lon="144.758781">
        <ele>9.4</ele>
        <time>2023-09-27T01:53:04.000Z</time>
        
      </trkpt>
      <trkpt lat="43.915226" lon="144.760684">
        <ele>9.8</ele>
        <time>2023-09-27T01:53:33.000Z</time>
        
      </trkpt>
      <trkpt lat="43.915317" lon="144.762862">
        <ele>11</ele>
        <time>2023-09-27T01:54:02.000Z</time>
        
      </trkpt>
      <trkpt lat="43.915421" lon="144.765142">
        <ele>10.8</ele>
        <time>2023-09-27T01:54:31.000Z</time>
        
      </trkpt>
      <trkpt lat="43.91552" lon="144.767419">
        <ele>11</ele>
        <time>2023-09-27T01:55:00.000Z</time>
        
      </trkpt>
      <trkpt lat="43.915616" lon="144.769564">
        <ele>11.6</ele>
        <time>2023-09-27T01:55:29.000Z</time>
        
      </trkpt>
      <trkpt lat="43.915714" lon="144.771605">
        <ele>12.6</ele>
        <time>2023-09-27T01:55:58.000Z</time>
        
      </trkpt>
      <trkpt lat="43.915786" lon="144.77336">
        <ele>15.2</ele>
        <time>2023-09-27T01:56:27.000Z</time>
        
      </trkpt>
      <trkpt lat="43.915856" lon="144.774968">
        <ele>18.4</ele>
        <time>2023-09-27T01:56:56.000Z</time>
        
      </trkpt>
      <trkpt lat="43.915925" lon="144.776592">
        <ele>21.6</ele>
        <time>2023-09-27T01:57:25.000Z</time>
        
      </trkpt>
      <trkpt lat="43.915986" lon="144.77817">
        <ele>24.6</ele>
        <time>2023-09-27T01:57:54.000Z</time>
        
      </trkpt>
      <trkpt lat="43.916069" lon="144.780001">
        <ele>25.8</ele>
        <time>2023-09-27T01:58:23.000Z</time>
        
      </trkpt>
      <trkpt lat="43.916157" lon="144.78214">
        <ele>26.6</ele>
        <time>2023-09-27T01:58:52.000Z</time>
        
      </trkpt>
      <trkpt lat="43.91623" lon="144.783749">
        <ele>30.4</ele>
        <time>2023-09-27T01:59:21.000Z</time>
        
      </trkpt>
      <trkpt lat="43.917757" lon="144.783946">
        <ele>27.8</ele>
        <time>2023-09-27T01:59:50.000Z</time>
        
      </trkpt>
      <trkpt lat="43.919227" lon="144.783917">
        <ele>21.8</ele>
        <time>2023-09-27T02:00:19.000Z</time>
        
      </trkpt>
      <trkpt lat="43.920394" lon="144.783727">
        <ele>18.8</ele>
        <time>2023-09-27T02:02:00.000Z</time>
        
      </trkpt>
      <trkpt lat="43.922602" lon="144.783552">
        <ele>11.6</ele>
        <time>2023-09-27T02:02:29.000Z</time>
        
      </trkpt>
      <trkpt lat="43.924646" lon="144.783378">
        <ele>8.4</ele>
        <time>2023-09-27T02:02:58.000Z</time>
        
      </trkpt>
      <trkpt lat="43.926291" lon="144.783244">
        <ele>8.6</ele>
        <time>2023-09-27T02:03:27.000Z</time>
        
      </trkpt>
      <trkpt lat="43.927493" lon="144.784349">
        <ele>9</ele>
        <time>2023-09-27T02:03:56.000Z</time>
        
      </trkpt>
      <trkpt lat="43.928188" lon="144.786669">
        <ele>7.2</ele>
        <time>2023-09-27T02:04:25.000Z</time>
        
      </trkpt>
      <trkpt lat="43.928913" lon="144.788977">
        <ele>7.4</ele>
        <time>2023-09-27T02:04:54.000Z</time>
        
      </trkpt>
      <trkpt lat="43.92969" lon="144.791132">
        <ele>7.4</ele>
        <time>2023-09-27T02:05:23.000Z</time>
        
      </trkpt>
      <trkpt lat="43.930071" lon="144.792945">
        <ele>5.8</ele>
        <time>2023-09-27T02:05:52.000Z</time>
        
      </trkpt>
      <trkpt lat="43.930285" lon="144.795022">
        <ele>5.4</ele>
        <time>2023-09-27T02:06:21.000Z</time>
        
      </trkpt>
      <trkpt lat="43.930556" lon="144.796787">
        <ele>8.2</ele>
        <time>2023-09-27T02:06:50.000Z</time>
        
      </trkpt>
      <trkpt lat="43.931623" lon="144.797689">
        <ele>11.6</ele>
        <time>2023-09-27T02:07:19.000Z</time>
        
      </trkpt>
      <trkpt lat="43.932403" lon="144.798335">
        <ele>13.6</ele>
        <time>2023-09-27T02:08:01.000Z</time>
        
      </trkpt>
      <trkpt lat="43.933503" lon="144.799252">
        <ele>16.2</ele>
        <time>2023-09-27T02:08:30.000Z</time>
        
      </trkpt>
      <trkpt lat="43.934764" lon="144.800249">
        <ele>18.8</ele>
        <time>2023-09-27T02:08:59.000Z</time>
        
      </trkpt>
      <trkpt lat="43.935958" lon="144.801237">
        <ele>21.2</ele>
        <time>2023-09-27T02:09:28.000Z</time>
        
      </trkpt>
      <trkpt lat="43.937257" lon="144.80229">
        <ele>22.6</ele>
        <time>2023-09-27T02:09:57.000Z</time>
        
      </trkpt>
      <trkpt lat="43.938444" lon="144.80332">
        <ele>24.2</ele>
        <time>2023-09-27T02:10:26.000Z</time>
        
      </trkpt>
      <trkpt lat="43.939327" lon="144.804702">
        <ele>26</ele>
        <time>2023-09-27T02:10:55.000Z</time>
        
      </trkpt>
      <trkpt lat="43.939833" lon="144.806271">
        <ele>29.2</ele>
        <time>2023-09-27T02:11:24.000Z</time>
        
      </trkpt>
      <trkpt lat="43.940205" lon="144.808047">
        <ele>28</ele>
        <time>2023-09-27T02:12:26.000Z</time>
        
      </trkpt>
      <trkpt lat="43.940684" lon="144.810263">
        <ele>29.4</ele>
        <time>2023-09-27T02:12:55.000Z</time>
        
      </trkpt>
      <trkpt lat="43.940962" lon="144.811544">
        <ele>34.8</ele>
        <time>2023-09-27T02:13:24.000Z</time>
        
      </trkpt>
      <trkpt lat="43.941296" lon="144.813072">
        <ele>37.4</ele>
        <time>2023-09-27T02:13:53.000Z</time>
        
      </trkpt>
      <trkpt lat="43.941751" lon="144.815192">
        <ele>36.6</ele>
        <time>2023-09-27T02:14:22.000Z</time>
        
      </trkpt>
      <trkpt lat="43.94261" lon="144.817807">
        <ele>32.8</ele>
        <time>2023-09-27T02:14:51.000Z</time>
        
      </trkpt>
      <trkpt lat="43.943675" lon="144.81994">
        <ele>31.8</ele>
        <time>2023-09-27T02:15:20.000Z</time>
        
      </trkpt>
      <trkpt lat="43.944828" lon="144.822231">
        <ele>29.4</ele>
        <time>2023-09-27T02:15:49.000Z</time>
        
      </trkpt>
      <trkpt lat="43.946162" lon="144.824978">
        <ele>23.2</ele>
        <time>2023-09-27T02:16:18.000Z</time>
        
      </trkpt>
      <trkpt lat="43.947561" lon="144.8278">
        <ele>18.4</ele>
        <time>2023-09-27T02:16:47.000Z</time>
        
      </trkpt>
      <trkpt lat="43.948764" lon="144.830169">
        <ele>16</ele>
        <time>2023-09-27T02:17:16.000Z</time>
        
      </trkpt>
      <trkpt lat="43.949331" lon="144.831702">
        <ele>19.2</ele>
        <time>2023-09-27T02:17:45.000Z</time>
        
      </trkpt>
      <trkpt lat="43.949706" lon="144.832693">
        <ele>25.8</ele>
        <time>2023-09-27T02:18:14.000Z</time>
        
      </trkpt>
      <trkpt lat="43.950037" lon="144.83344">
        <ele>31.2</ele>
        <time>2023-09-27T02:18:43.000Z</time>
        
      </trkpt>
      <trkpt lat="43.950421" lon="144.834334">
        <ele>35.8</ele>
        <time>2023-09-27T02:19:12.000Z</time>
        
      </trkpt>
      <trkpt lat="43.951092" lon="144.835217">
        <ele>39</ele>
        <time>2023-09-27T02:19:41.000Z</time>
        
      </trkpt>
      <trkpt lat="43.951846" lon="144.835932">
        <ele>42</ele>
        <time>2023-09-27T02:20:21.000Z</time>
        
      </trkpt>
      <trkpt lat="43.95313" lon="144.836482">
        <ele>42.8</ele>
        <time>2023-09-27T02:20:50.000Z</time>
        
      </trkpt>
      <trkpt lat="43.955294" lon="144.836838">
        <ele>34.8</ele>
        <time>2023-09-27T02:21:19.000Z</time>
        
      </trkpt>
      <trkpt lat="43.957082" lon="144.837153">
        <ele>30.8</ele>
        <time>2023-09-27T02:21:48.000Z</time>
        
      </trkpt>
      <trkpt lat="43.958877" lon="144.837393">
        <ele>26.4</ele>
        <time>2023-09-27T02:22:17.000Z</time>
        
      </trkpt>
      <trkpt lat="43.960624" lon="144.837582">
        <ele>22.8</ele>
        <time>2023-09-27T02:22:46.000Z</time>
        
      </trkpt>
      <trkpt lat="43.962109" lon="144.837765">
        <ele>19.8</ele>
        <time>2023-09-27T02:23:15.000Z</time>
        
      </trkpt>
      <trkpt lat="43.963421" lon="144.839131">
        <ele>12.6</ele>
        <time>2023-09-27T02:24:10.000Z</time>
        
      </trkpt>
      <trkpt lat="43.964713" lon="144.840915">
        <ele>9.2</ele>
        <time>2023-09-27T02:24:39.000Z</time>
        
      </trkpt>
      <trkpt lat="43.965944" lon="144.842216">
        <ele>9.6</ele>
        <time>2023-09-27T02:25:08.000Z</time>
        
      </trkpt>
      <trkpt lat="43.967187" lon="144.843304">
        <ele>9.8</ele>
        <time>2023-09-27T02:25:37.000Z</time>
        
      </trkpt>
      <trkpt lat="43.968431" lon="144.844339">
        <ele>9.8</ele>
        <time>2023-09-27T02:26:06.000Z</time>
        
      </trkpt>
      <trkpt lat="43.969635" lon="144.84532">
        <ele>9.8</ele>
        <time>2023-09-27T02:26:35.000Z</time>
        
      </trkpt>
      <trkpt lat="43.970814" lon="144.846295">
        <ele>10</ele>
        <time>2023-09-27T02:27:04.000Z</time>
        
      </trkpt>
      <trkpt lat="43.971916" lon="144.847355">
        <ele>10.4</ele>
        <time>2023-09-27T02:27:33.000Z</time>
        
      </trkpt>
      <trkpt lat="43.972827" lon="144.848353">
        <ele>12.2</ele>
        <time>2023-09-27T02:28:02.000Z</time>
        
      </trkpt>
      <trkpt lat="43.973389" lon="144.849366">
        <ele>12.6</ele>
        <time>2023-09-27T02:28:31.000Z</time>
        
      </trkpt>
      <trkpt lat="43.973694" lon="144.850731">
        <ele>12</ele>
        <time>2023-09-27T02:29:21.000Z</time>
        
      </trkpt>
      <trkpt lat="43.97359" lon="144.852623">
        <ele>10.8</ele>
        <time>2023-09-27T02:30:05.000Z</time>
        
      </trkpt>
      <trkpt lat="43.973937" lon="144.854914">
        <ele>9.6</ele>
        <time>2023-09-27T02:30:34.000Z</time>
        
      </trkpt>
      <trkpt lat="43.974557" lon="144.856983">
        <ele>9.2</ele>
        <time>2023-09-27T02:31:03.000Z</time>
        
      </trkpt>
      <trkpt lat="43.975309" lon="144.858756">
        <ele>9.6</ele>
        <time>2023-09-27T02:31:32.000Z</time>
        
      </trkpt>
      <trkpt lat="43.97606" lon="144.860502">
        <ele>10</ele>
        <time>2023-09-27T02:32:01.000Z</time>
        
      </trkpt>
      <trkpt lat="43.977293" lon="144.861871">
        <ele>10.6</ele>
        <time>2023-09-27T02:32:30.000Z</time>
        
      </trkpt>
      <trkpt lat="43.978365" lon="144.863229">
        <ele>10.6</ele>
        <time>2023-09-27T02:32:59.000Z</time>
        
      </trkpt>
      <trkpt lat="43.97892" lon="144.865134">
        <ele>10</ele>
        <time>2023-09-27T02:33:28.000Z</time>
        
      </trkpt>
      <trkpt lat="43.979511" lon="144.867133">
        <ele>9.4</ele>
        <time>2023-09-27T02:33:57.000Z</time>
        
      </trkpt>
      <trkpt lat="43.980085" lon="144.869111">
        <ele>8.6</ele>
        <time>2023-09-27T02:34:26.000Z</time>
        
      </trkpt>
      <trkpt lat="43.98037" lon="144.871122">
        <ele>8.2</ele>
        <time>2023-09-27T02:34:55.000Z</time>
        
      </trkpt>
      <trkpt lat="43.981032" lon="144.873078">
        <ele>9.4</ele>
        <time>2023-09-27T02:35:24.000Z</time>
        
      </trkpt>
      <trkpt lat="43.981687" lon="144.874888">
        <ele>11.6</ele>
        <time>2023-09-27T02:35:53.000Z</time>
        
      </trkpt>
      <trkpt lat="43.982297" lon="144.876392">
        <ele>13.2</ele>
        <time>2023-09-27T02:36:22.000Z</time>
        
      </trkpt>
      <trkpt lat="43.983418" lon="144.877659">
        <ele>12.6</ele>
        <time>2023-09-27T02:36:51.000Z</time>
        
      </trkpt>
      <trkpt lat="43.984571" lon="144.879506">
        <ele>11</ele>
        <time>2023-09-27T02:37:20.000Z</time>
        
      </trkpt>
      <trkpt lat="43.985536" lon="144.881421">
        <ele>11</ele>
        <time>2023-09-27T02:37:49.000Z</time>
        
      </trkpt>
      <trkpt lat="43.986975" lon="144.882887">
        <ele>10</ele>
        <time>2023-09-27T02:38:18.000Z</time>
        
      </trkpt>
      <trkpt lat="43.987913" lon="144.883837">
        <ele>9.6</ele>
        <time>2023-09-27T02:39:06.000Z</time>
        
      </trkpt>
      <trkpt lat="43.988893" lon="144.884826">
        <ele>12.6</ele>
        <time>2023-09-27T02:39:35.000Z</time>
        
      </trkpt>
      <trkpt lat="43.989896" lon="144.886046">
        <ele>14.2</ele>
        <time>2023-09-27T02:40:04.000Z</time>
        
      </trkpt>
      <trkpt lat="43.990386" lon="144.887526">
        <ele>13.2</ele>
        <time>2023-09-27T02:42:10.000Z</time>
        
      </trkpt>
      <trkpt lat="43.990846" lon="144.889527">
        <ele>13.2</ele>
        <time>2023-09-27T02:42:39.000Z</time>
        
      </trkpt>
      <trkpt lat="43.991546" lon="144.891328">
        <ele>12.6</ele>
        <time>2023-09-27T02:43:08.000Z</time>
        
      </trkpt>
      <trkpt lat="43.99249" lon="144.892923">
        <ele>12.6</ele>
        <time>2023-09-27T02:43:48.000Z</time>
        
      </trkpt>
      <trkpt lat="43.993629" lon="144.894808">
        <ele>11.6</ele>
        <time>2023-09-27T02:44:17.000Z</time>
        
      </trkpt>
      <trkpt lat="43.994536" lon="144.896293">
        <ele>14.2</ele>
        <time>2023-09-27T02:44:46.000Z</time>
        
      </trkpt>
      <trkpt lat="43.995333" lon="144.897619">
        <ele>17.4</ele>
        <time>2023-09-27T02:45:15.000Z</time>
        
      </trkpt>
      <trkpt lat="43.996388" lon="144.899328">
        <ele>16.4</ele>
        <time>2023-09-27T02:45:44.000Z</time>
        
      </trkpt>
      <trkpt lat="43.997927" lon="144.901135">
        <ele>13.2</ele>
        <time>2023-09-27T02:46:13.000Z</time>
        
      </trkpt>
      <trkpt lat="43.999431" lon="144.902776">
        <ele>11.8</ele>
        <time>2023-09-27T02:46:42.000Z</time>
        
      </trkpt>
      <trkpt lat="44.000752" lon="144.904537">
        <ele>9.8</ele>
        <time>2023-09-27T02:47:11.000Z</time>
        
      </trkpt>
      <trkpt lat="44.00168" lon="144.90636">
        <ele>10.4</ele>
        <time>2023-09-27T02:47:40.000Z</time>
        
      </trkpt>
      <trkpt lat="44.002417" lon="144.907953">
        <ele>12</ele>
        <time>2023-09-27T02:48:09.000Z</time>
        
      </trkpt>
      <trkpt lat="44.003323" lon="144.909959">
        <ele>11.2</ele>
        <time>2023-09-27T02:48:38.000Z</time>
        
      </trkpt>
      <trkpt lat="44.004488" lon="144.911756">
        <ele>11</ele>
        <time>2023-09-27T02:49:07.000Z</time>
        
      </trkpt>
      <trkpt lat="44.005943" lon="144.912832">
        <ele>11.2</ele>
        <time>2023-09-27T02:49:36.000Z</time>
        
      </trkpt>
      <trkpt lat="44.007254" lon="144.91392">
        <ele>11.2</ele>
        <time>2023-09-27T02:50:05.000Z</time>
        
      </trkpt>
      <trkpt lat="44.00865" lon="144.915112">
        <ele>10.2</ele>
        <time>2023-09-27T02:50:34.000Z</time>
        
      </trkpt>
      <trkpt lat="44.010044" lon="144.916313">
        <ele>10</ele>
        <time>2023-09-27T02:51:03.000Z</time>
        
      </trkpt>
      <trkpt lat="44.011479" lon="144.917362">
        <ele>10.2</ele>
        <time>2023-09-27T02:51:32.000Z</time>
        
      </trkpt>
      <trkpt lat="44.012769" lon="144.918333">
        <ele>9.8</ele>
        <time>2023-09-27T02:52:01.000Z</time>
        
      </trkpt>
      <trkpt lat="44.013983" lon="144.919568">
        <ele>9.4</ele>
        <time>2023-09-27T02:52:30.000Z</time>
        
      </trkpt>
      <trkpt lat="44.015189" lon="144.920768">
        <ele>9.6</ele>
        <time>2023-09-27T02:52:59.000Z</time>
        
      </trkpt>
      <trkpt lat="44.016501" lon="144.921795">
        <ele>10.4</ele>
        <time>2023-09-27T02:53:28.000Z</time>
        
      </trkpt>
      <trkpt lat="44.017716" lon="144.92282">
        <ele>11</ele>
        <time>2023-09-27T02:53:57.000Z</time>
        
      </trkpt>
      <trkpt lat="44.018824" lon="144.924242">
        <ele>10.8</ele>
        <time>2023-09-27T02:54:26.000Z</time>
        
      </trkpt>
      <trkpt lat="44.020344" lon="144.925079">
        <ele>10.4</ele>
        <time>2023-09-27T02:54:55.000Z</time>
        
      </trkpt>
      <trkpt lat="44.021826" lon="144.925577">
        <ele>10</ele>
        <time>2023-09-27T02:55:24.000Z</time>
        
      </trkpt>
      <trkpt lat="44.023287" lon="144.926244">
        <ele>9.6</ele>
        <time>2023-09-27T02:55:53.000Z</time>
        
      </trkpt>
      <trkpt lat="44.024692" lon="144.926811">
        <ele>10.6</ele>
        <time>2023-09-27T02:56:22.000Z</time>
        
      </trkpt>
      <trkpt lat="44.02603" lon="144.927348">
        <ele>12</ele>
        <time>2023-09-27T02:56:51.000Z</time>
        
      </trkpt>
      <trkpt lat="44.027264" lon="144.928351">
        <ele>12.6</ele>
        <time>2023-09-27T02:57:20.000Z</time>
        
      </trkpt>
      <trkpt lat="44.028882" lon="144.928867">
        <ele>10</ele>
        <time>2023-09-27T02:57:49.000Z</time>
        
      </trkpt>
      <trkpt lat="44.030401" lon="144.92906">
        <ele>9.4</ele>
        <time>2023-09-27T02:58:18.000Z</time>
        
      </trkpt>
      <trkpt lat="44.031573" lon="144.92936">
        <ele>9</ele>
        <time>2023-09-27T02:59:09.000Z</time>
        
      </trkpt>
      <trkpt lat="44.032981" lon="144.929267">
        <ele>9.6</ele>
        <time>2023-09-27T02:59:38.000Z</time>
        
      </trkpt>
      <trkpt lat="44.034059" lon="144.93024">
        <ele>9.4</ele>
        <time>2023-09-27T03:00:07.000Z</time>
        
      </trkpt>
      <trkpt lat="44.035014" lon="144.931696">
        <ele>9.8</ele>
        <time>2023-09-27T03:00:36.000Z</time>
        
      </trkpt>
      <trkpt lat="44.036009" lon="144.932843">
        <ele>10.8</ele>
        <time>2023-09-27T03:01:05.000Z</time>
        
      </trkpt>
      <trkpt lat="44.03701" lon="144.93356">
        <ele>12.4</ele>
        <time>2023-09-27T03:01:34.000Z</time>
        
      </trkpt>
      <trkpt lat="44.037645" lon="144.934035">
        <ele>13.4</ele>
        <time>2023-09-27T03:02:03.000Z</time>
        
      </trkpt>
      <trkpt lat="44.037847" lon="144.934185">
        <ele>13.6</ele>
        <time>2023-09-27T03:10:23.000Z</time>
        
      </trkpt>
      <trkpt lat="44.037398" lon="144.933911">
        <ele>13.2</ele>
        <time>2023-09-27T03:12:32.000Z</time>
        
      </trkpt>
      <trkpt lat="44.037608" lon="144.933833">
        <ele>13.8</ele>
        <time>2023-09-27T03:13:08.000Z</time>
        
      </trkpt>
      <trkpt lat="44.038525" lon="144.934886">
        <ele>14.8</ele>
        <time>2023-09-27T03:13:37.000Z</time>
        
      </trkpt>
      <trkpt lat="44.038773" lon="144.935915">
        <ele>14</ele>
        <time>2023-09-27T03:14:06.000Z</time>
        
      </trkpt>
      <trkpt lat="44.039021" lon="144.936943">
        <ele>12</ele>
        <time>2023-09-27T03:14:35.000Z</time>
        
      </trkpt>
      <trkpt lat="44.03927" lon="144.94108">
        <ele>9.4</ele>
        <time>2023-09-27T03:15:04.000Z</time>
        
      </trkpt>
      <trkpt lat="44.038836" lon="144.943215">
        <ele>9</ele>
        <time>2023-09-27T03:15:33.000Z</time>
        
      </trkpt>
      <trkpt lat="44.039334" lon="144.945282">
        <ele>9.2</ele>
        <time>2023-09-27T03:16:02.000Z</time>
        
      </trkpt>
      <trkpt lat="44.040392" lon="144.946703">
        <ele>10.2</ele>
        <time>2023-09-27T03:16:31.000Z</time>
        
      </trkpt>
      <trkpt lat="44.041677" lon="144.947651">
        <ele>10.6</ele>
        <time>2023-09-27T03:17:00.000Z</time>
        
      </trkpt>
      <trkpt lat="44.042457" lon="144.949078">
        <ele>11.4</ele>
        <time>2023-09-27T03:17:29.000Z</time>
        
      </trkpt>
      <trkpt lat="44.042927" lon="144.95068">
        <ele>13.6</ele>
        <time>2023-09-27T03:17:58.000Z</time>
        
      </trkpt>
      <trkpt lat="44.044063" lon="144.952258">
        <ele>13.2</ele>
        <time>2023-09-27T03:18:27.000Z</time>
        
      </trkpt>
      <trkpt lat="44.045547" lon="144.953546">
        <ele>11.8</ele>
        <time>2023-09-27T03:18:56.000Z</time>
        
      </trkpt>
      <trkpt lat="44.046859" lon="144.954678">
        <ele>11.8</ele>
        <time>2023-09-27T03:19:25.000Z</time>
        
      </trkpt>
      <trkpt lat="44.047633" lon="144.956254">
        <ele>12</ele>
        <time>2023-09-27T03:19:54.000Z</time>
        
      </trkpt>
      <trkpt lat="44.048144" lon="144.958194">
        <ele>11.8</ele>
        <time>2023-09-27T03:20:23.000Z</time>
        
      </trkpt>
      <trkpt lat="44.049478" lon="144.959541">
        <ele>11.6</ele>
        <time>2023-09-27T03:20:52.000Z</time>
        
      </trkpt>
      <trkpt lat="44.051034" lon="144.960706">
        <ele>10.8</ele>
        <time>2023-09-27T03:21:21.000Z</time>
        
      </trkpt>
      <trkpt lat="44.052594" lon="144.960392">
        <ele>10.2</ele>
        <time>2023-09-27T03:21:50.000Z</time>
        
      </trkpt>
      <trkpt lat="44.05393" lon="144.959863">
        <ele>10</ele>
        <time>2023-09-27T03:22:19.000Z</time>
        
      </trkpt>
      <trkpt lat="44.05474" lon="144.960298">
        <ele>9.6</ele>
        <time>2023-09-27T03:23:14.000Z</time>
        
      </trkpt>
      <trkpt lat="44.055306" lon="144.961734">
        <ele>9.2</ele>
        <time>2023-09-27T03:23:43.000Z</time>
        
      </trkpt>
      <trkpt lat="44.055566" lon="144.963638">
        <ele>9</ele>
        <time>2023-09-27T03:24:12.000Z</time>
        
      </trkpt>
      <trkpt lat="44.05631" lon="144.965096">
        <ele>10.4</ele>
        <time>2023-09-27T03:24:41.000Z</time>
        
      </trkpt>
      <trkpt lat="44.05638" lon="144.966578">
        <ele>10</ele>
        <time>2023-09-27T03:25:25.000Z</time>
        
      </trkpt>
      <trkpt lat="44.056766" lon="144.968659">
        <ele>10.6</ele>
        <time>2023-09-27T03:25:54.000Z</time>
        
      </trkpt>
      <trkpt lat="44.057976" lon="144.970329">
        <ele>10.2</ele>
        <time>2023-09-27T03:26:23.000Z</time>
        
      </trkpt>
      <trkpt lat="44.058858" lon="144.971863">
        <ele>11.2</ele>
        <time>2023-09-27T03:26:52.000Z</time>
        
      </trkpt>
      <trkpt lat="44.059821" lon="144.973107">
        <ele>13.4</ele>
        <time>2023-09-27T03:27:21.000Z</time>
        
      </trkpt>
      <trkpt lat="44.060927" lon="144.974507">
        <ele>13.2</ele>
        <time>2023-09-27T03:27:50.000Z</time>
        
      </trkpt>
      <trkpt lat="44.061971" lon="144.975838">
        <ele>11.4</ele>
        <time>2023-09-27T03:28:19.000Z</time>
        
      </trkpt>
      <trkpt lat="44.062812" lon="144.976909">
        <ele>11.4</ele>
        <time>2023-09-27T03:29:10.000Z</time>
        
      </trkpt>
      <trkpt lat="44.063552" lon="144.978197">
        <ele>12.4</ele>
        <time>2023-09-27T03:29:39.000Z</time>
        
      </trkpt>
      <trkpt lat="44.063997" lon="144.979">
        <ele>12.2</ele>
        <time>2023-09-27T03:30:08.000Z</time>
        
      </trkpt>
      <trkpt lat="44.065385" lon="144.981773">
        <ele>11.6</ele>
        <time>2023-09-27T03:30:37.000Z</time>
        
      </trkpt>
      <trkpt lat="44.065608" lon="144.983933">
        <ele>10</ele>
        <time>2023-09-27T03:31:06.000Z</time>
        
      </trkpt>
      <trkpt lat="44.065744" lon="144.985798">
        <ele>9.4</ele>
        <time>2023-09-27T03:31:56.000Z</time>
        
      </trkpt>
      <trkpt lat="44.066333" lon="144.987622">
        <ele>10.2</ele>
        <time>2023-09-27T03:32:25.000Z</time>
        
      </trkpt>
      <trkpt lat="44.06759" lon="144.989757">
        <ele>7.4</ele>
        <time>2023-09-27T03:32:54.000Z</time>
        
      </trkpt>
      <trkpt lat="44.068829" lon="144.991339">
        <ele>6.6</ele>
        <time>2023-09-27T03:33:23.000Z</time>
        
      </trkpt>
      <trkpt lat="44.070082" lon="144.992511">
        <ele>7.4</ele>
        <time>2023-09-27T03:33:52.000Z</time>
        
      </trkpt>
      <trkpt lat="44.070957" lon="144.993451">
        <ele>10</ele>
        <time>2023-09-27T03:34:21.000Z</time>
        
      </trkpt>
      <trkpt lat="44.07107" lon="144.994238">
        <ele>10.2</ele>
        <time>2023-09-27T03:34:55.000Z</time>
        
      </trkpt>
      <trkpt lat="44.070324" lon="144.994428">
        <ele>10.4</ele>
        <time>2023-09-27T03:35:59.000Z</time>
        
      </trkpt>
      <trkpt lat="44.070015" lon="144.994385">
        <ele>11.2</ele>
        <time>2023-09-27T03:43:50.000Z</time>
        
      </trkpt>
      <trkpt lat="44.070753" lon="144.994241">
        <ele>11.2</ele>
        <time>2023-09-27T03:44:32.000Z</time>
        
      </trkpt>
      <trkpt lat="44.070908" lon="144.993521">
        <ele>10.6</ele>
        <time>2023-09-27T03:45:01.000Z</time>
        
      </trkpt>
      <trkpt lat="44.069759" lon="144.992328">
        <ele>8</ele>
        <time>2023-09-27T03:45:30.000Z</time>
        
      </trkpt>
      <trkpt lat="44.068984" lon="144.991394">
        <ele>6</ele>
        <time>2023-09-27T03:46:12.000Z</time>
        
      </trkpt>
      <trkpt lat="44.069035" lon="144.990786">
        <ele>5.8</ele>
        <time>2023-09-27T03:46:41.000Z</time>
        
      </trkpt>
      <trkpt lat="44.068408" lon="144.990228">
        <ele>5</ele>
        <time>2023-09-27T04:12:01.000Z</time>
        
      </trkpt>
      <trkpt lat="44.06861" lon="144.990466">
        <ele>5.4</ele>
        <time>2023-09-27T04:12:52.000Z</time>
        
      </trkpt>
      <trkpt lat="44.069084" lon="144.991607">
        <ele>5.8</ele>
        <time>2023-09-27T04:13:21.000Z</time>
        
      </trkpt>
      <trkpt lat="44.070058" lon="144.992478">
        <ele>6.6</ele>
        <time>2023-09-27T04:13:50.000Z</time>
        
      </trkpt>
      <trkpt lat="44.070886" lon="144.993345">
        <ele>8.8</ele>
        <time>2023-09-27T04:14:19.000Z</time>
        
      </trkpt>
      <trkpt lat="44.070986" lon="144.994267">
        <ele>8.8</ele>
        <time>2023-09-27T04:14:48.000Z</time>
        
      </trkpt>
      <trkpt lat="44.07" lon="144.994376">
        <ele>9.4</ele>
        <time>2023-09-27T04:15:17.000Z</time>
        
      </trkpt>
      <trkpt lat="44.070569" lon="144.994292">
        <ele>9.6</ele>
        <time>2023-09-27T04:15:46.000Z</time>
        
      </trkpt>
      <trkpt lat="44.071057" lon="144.995081">
        <ele>12.8</ele>
        <time>2023-09-27T04:16:34.000Z</time>
        
      </trkpt>
      <trkpt lat="44.071155" lon="144.995778">
        <ele>17</ele>
        <time>2023-09-27T04:17:18.000Z</time>
        
      </trkpt>
      <trkpt lat="44.071148" lon="144.996495">
        <ele>23.4</ele>
        <time>2023-09-27T04:17:47.000Z</time>
        
      </trkpt>
      <trkpt lat="44.071194" lon="144.997087">
        <ele>28.4</ele>
        <time>2023-09-27T04:18:16.000Z</time>
        
      </trkpt>
      <trkpt lat="44.07149" lon="144.997529">
        <ele>33.2</ele>
        <time>2023-09-27T04:18:45.000Z</time>
        
      </trkpt>
      <trkpt lat="44.071371" lon="144.998041">
        <ele>38.2</ele>
        <time>2023-09-27T04:19:14.000Z</time>
        
      </trkpt>
      <trkpt lat="44.070814" lon="144.998187">
        <ele>43.6</ele>
        <time>2023-09-27T04:19:43.000Z</time>
        
      </trkpt>
      <trkpt lat="44.070407" lon="144.998618">
        <ele>48</ele>
        <time>2023-09-27T04:20:12.000Z</time>
        
      </trkpt>
      <trkpt lat="44.070149" lon="144.999281">
        <ele>53.2</ele>
        <time>2023-09-27T04:20:41.000Z</time>
        
      </trkpt>
      <trkpt lat="44.06991" lon="144.999904">
        <ele>58</ele>
        <time>2023-09-27T04:21:10.000Z</time>
        
      </trkpt>
      <trkpt lat="44.070295" lon="145.000664">
        <ele>63.2</ele>
        <time>2023-09-27T04:21:39.000Z</time>
        
      </trkpt>
      <trkpt lat="44.070614" lon="145.000936">
        <ele>64.2</ele>
        <time>2023-09-27T04:22:28.000Z</time>
        
      </trkpt>
      <trkpt lat="44.071262" lon="145.001863">
        <ele>67</ele>
        <time>2023-09-27T04:22:57.000Z</time>
        
      </trkpt>
      <trkpt lat="44.071869" lon="145.001862">
        <ele>67</ele>
        <time>2023-09-27T04:23:26.000Z</time>
        
      </trkpt>
      <trkpt lat="44.072425" lon="145.002069">
        <ele>69.4</ele>
        <time>2023-09-27T04:24:07.000Z</time>
        
      </trkpt>
      <trkpt lat="44.073212" lon="145.00153">
        <ele>63</ele>
        <time>2023-09-27T04:24:36.000Z</time>
        
      </trkpt>
      <trkpt lat="44.073572" lon="145.001892">
        <ele>62.4</ele>
        <time>2023-09-27T04:25:05.000Z</time>
        
      </trkpt>
      <trkpt lat="44.074017" lon="145.002069">
        <ele>59</ele>
        <time>2023-09-27T04:25:34.000Z</time>
        
      </trkpt>
      <trkpt lat="44.073749" lon="145.001782">
        <ele>60.6</ele>
        <time>2023-09-27T04:26:20.000Z</time>
        
      </trkpt>
      <trkpt lat="44.073767" lon="145.001907">
        <ele>60.8</ele>
        <time>2023-09-27T04:49:36.000Z</time>
        
      </trkpt>
      <trkpt lat="44.073299" lon="145.001636">
        <ele>62.6</ele>
        <time>2023-09-27T04:50:05.000Z</time>
        
      </trkpt>
      <trkpt lat="44.073373" lon="145.00169">
        <ele>63</ele>
        <time>2023-09-27T04:54:36.000Z</time>
        
      </trkpt>
      <trkpt lat="44.073632" lon="145.001677">
        <ele>60.4</ele>
        <time>2023-09-27T04:55:30.000Z</time>
        
      </trkpt>
      <trkpt lat="44.07294" lon="145.001444">
        <ele>62.4</ele>
        <time>2023-09-27T04:55:59.000Z</time>
        
      </trkpt>
      <trkpt lat="44.072174" lon="145.0002">
        <ele>60.6</ele>
        <time>2023-09-27T04:56:28.000Z</time>
        
      </trkpt>
      <trkpt lat="44.071107" lon="144.998814">
        <ele>52.6</ele>
        <time>2023-09-27T04:56:57.000Z</time>
        
      </trkpt>
      <trkpt lat="44.070397" lon="144.999541">
        <ele>57</ele>
        <time>2023-09-27T04:57:26.000Z</time>
        
      </trkpt>
      <trkpt lat="44.070828" lon="144.998286">
        <ele>48.8</ele>
        <time>2023-09-27T04:57:55.000Z</time>
        
      </trkpt>
      <trkpt lat="44.071089" lon="144.995844">
        <ele>23.8</ele>
        <time>2023-09-27T04:58:24.000Z</time>
        
      </trkpt>
      <trkpt lat="44.070949" lon="144.994251">
        <ele>7.6</ele>
        <time>2023-09-27T04:59:01.000Z</time>
        
      </trkpt>
      <trkpt lat="44.071547" lon="144.995122">
        <ele>9.2</ele>
        <time>2023-09-27T04:59:30.000Z</time>
        
      </trkpt>
      <trkpt lat="44.071865" lon="144.995609">
        <ele>8</ele>
        <time>2023-09-27T05:16:51.000Z</time>
        
      </trkpt>
      <trkpt lat="44.071878" lon="144.995603">
        <ele>8.4</ele>
        <time>2023-09-27T05:17:20.000Z</time>
        
      </trkpt>
      <trkpt lat="44.071744" lon="144.995627">
        <ele>10.4</ele>
        <time>2023-09-27T06:40:02.000Z</time>
        
      </trkpt>
      <trkpt lat="44.072266" lon="144.997192">
        <ele>9.6</ele>
        <time>2023-09-27T06:40:31.000Z</time>
        
      </trkpt>
      <trkpt lat="44.07347" lon="144.998876">
        <ele>7.8</ele>
        <time>2023-09-27T06:41:00.000Z</time>
        
      </trkpt>
      <trkpt lat="44.074953" lon="144.999461">
        <ele>9</ele>
        <time>2023-09-27T06:41:29.000Z</time>
        
      </trkpt>
      <trkpt lat="44.076263" lon="145.000604">
        <ele>8</ele>
        <time>2023-09-27T06:41:58.000Z</time>
        
      </trkpt>
      <trkpt lat="44.0772" lon="145.002398">
        <ele>8</ele>
        <time>2023-09-27T06:42:27.000Z</time>
        
      </trkpt>
      <trkpt lat="44.078153" lon="145.004208">
        <ele>7.6</ele>
        <time>2023-09-27T06:42:56.000Z</time>
        
      </trkpt>
      <trkpt lat="44.079207" lon="145.005959">
        <ele>7.2</ele>
        <time>2023-09-27T06:43:25.000Z</time>
        
      </trkpt>
      <trkpt lat="44.080455" lon="145.007234">
        <ele>8</ele>
        <time>2023-09-27T06:43:54.000Z</time>
        
      </trkpt>
      <trkpt lat="44.081873" lon="145.008064">
        <ele>9</ele>
        <time>2023-09-27T06:44:23.000Z</time>
        
      </trkpt>
      <trkpt lat="44.083312" lon="145.008915">
        <ele>9</ele>
        <time>2023-09-27T06:44:52.000Z</time>
        
      </trkpt>
      <trkpt lat="44.084529" lon="145.010068">
        <ele>11.2</ele>
        <time>2023-09-27T06:45:21.000Z</time>
        
      </trkpt>
      <trkpt lat="44.085159" lon="145.010918">
        <ele>17</ele>
        <time>2023-09-27T06:45:50.000Z</time>
        
      </trkpt>
      <trkpt lat="44.085522" lon="145.011825">
        <ele>22.4</ele>
        <time>2023-09-27T06:46:19.000Z</time>
        
      </trkpt>
      <trkpt lat="44.085696" lon="145.012849">
        <ele>27.2</ele>
        <time>2023-09-27T06:46:48.000Z</time>
        
      </trkpt>
      <trkpt lat="44.08569" lon="145.013759">
        <ele>31.2</ele>
        <time>2023-09-27T06:47:33.000Z</time>
        
      </trkpt>
      <trkpt lat="44.085384" lon="145.015047">
        <ele>37</ele>
        <time>2023-09-27T06:48:15.000Z</time>
        
      </trkpt>
      <trkpt lat="44.084976" lon="145.016152">
        <ele>41.8</ele>
        <time>2023-09-27T06:48:44.000Z</time>
        
      </trkpt>
      <trkpt lat="44.084923" lon="145.017325">
        <ele>47</ele>
        <time>2023-09-27T06:49:13.000Z</time>
        
      </trkpt>
      <trkpt lat="44.085724" lon="145.017383">
        <ele>52.6</ele>
        <time>2023-09-27T06:49:42.000Z</time>
        
      </trkpt>
      <trkpt lat="44.085952" lon="145.016191">
        <ele>58</ele>
        <time>2023-09-27T06:50:11.000Z</time>
        
      </trkpt>
      <trkpt lat="44.086181" lon="145.015027">
        <ele>63.2</ele>
        <time>2023-09-27T06:50:40.000Z</time>
        
      </trkpt>
      <trkpt lat="44.086374" lon="145.013921">
        <ele>68.8</ele>
        <time>2023-09-27T06:51:09.000Z</time>
        
      </trkpt>
      <trkpt lat="44.08643" lon="145.012894">
        <ele>73.8</ele>
        <time>2023-09-27T06:51:38.000Z</time>
        
      </trkpt>
      <trkpt lat="44.086649" lon="145.011883">
        <ele>78.6</ele>
        <time>2023-09-27T06:52:33.000Z</time>
        
      </trkpt>
      <trkpt lat="44.087218" lon="145.010963">
        <ele>84.4</ele>
        <time>2023-09-27T06:53:23.000Z</time>
        
      </trkpt>
      <trkpt lat="44.087979" lon="145.010338">
        <ele>90</ele>
        <time>2023-09-27T06:53:52.000Z</time>
        
      </trkpt>
      <trkpt lat="44.088746" lon="145.009794">
        <ele>95.4</ele>
        <time>2023-09-27T06:54:21.000Z</time>
        
      </trkpt>
      <trkpt lat="44.08946" lon="145.00998">
        <ele>99.6</ele>
        <time>2023-09-27T06:54:50.000Z</time>
        
      </trkpt>
      <trkpt lat="44.09021" lon="145.010883">
        <ele>104.6</ele>
        <time>2023-09-27T06:55:19.000Z</time>
        
      </trkpt>
      <trkpt lat="44.091038" lon="145.011517">
        <ele>110.2</ele>
        <time>2023-09-27T06:55:48.000Z</time>
        
      </trkpt>
      <trkpt lat="44.091613" lon="145.012503">
        <ele>115.2</ele>
        <time>2023-09-27T06:56:17.000Z</time>
        
      </trkpt>
      <trkpt lat="44.091642" lon="145.013832">
        <ele>120.4</ele>
        <time>2023-09-27T06:56:46.000Z</time>
        
      </trkpt>
      <trkpt lat="44.091168" lon="145.01496">
        <ele>125</ele>
        <time>2023-09-27T06:57:15.000Z</time>
        
      </trkpt>
      <trkpt lat="44.090613" lon="145.016055">
        <ele>130</ele>
        <time>2023-09-27T06:57:44.000Z</time>
        
      </trkpt>
      <trkpt lat="44.090124" lon="145.017301">
        <ele>134.8</ele>
        <time>2023-09-27T06:58:13.000Z</time>
        
      </trkpt>
      <trkpt lat="44.089958" lon="145.018624">
        <ele>139</ele>
        <time>2023-09-27T06:58:58.000Z</time>
        
      </trkpt>
      <trkpt lat="44.089976" lon="145.020114">
        <ele>144.4</ele>
        <time>2023-09-27T06:59:27.000Z</time>
        
      </trkpt>
      <trkpt lat="44.090001" lon="145.021381">
        <ele>149.4</ele>
        <time>2023-09-27T07:00:10.000Z</time>
        
      </trkpt>
      <trkpt lat="44.090155" lon="145.022406">
        <ele>153.8</ele>
        <time>2023-09-27T07:01:04.000Z</time>
        
      </trkpt>
      <trkpt lat="44.090696" lon="145.023507">
        <ele>159.8</ele>
        <time>2023-09-27T07:01:33.000Z</time>
        
      </trkpt>
      <trkpt lat="44.091276" lon="145.024246">
        <ele>164.8</ele>
        <time>2023-09-27T07:02:14.000Z</time>
        
      </trkpt>
      <trkpt lat="44.092567" lon="145.024471">
        <ele>168.6</ele>
        <time>2023-09-27T07:02:43.000Z</time>
        
      </trkpt>
      <trkpt lat="44.093722" lon="145.025031">
        <ele>169</ele>
        <time>2023-09-27T07:03:39.000Z</time>
        
      </trkpt>
      <trkpt lat="44.094564" lon="145.028007">
        <ele>160.8</ele>
        <time>2023-09-27T07:04:08.000Z</time>
        
      </trkpt>
      <trkpt lat="44.096151" lon="145.02962">
        <ele>161.4</ele>
        <time>2023-09-27T07:04:37.000Z</time>
        
      </trkpt>
      <trkpt lat="44.097343" lon="145.031783">
        <ele>159.8</ele>
        <time>2023-09-27T07:05:06.000Z</time>
        
      </trkpt>
      <trkpt lat="44.098995" lon="145.034597">
        <ele>147.8</ele>
        <time>2023-09-27T07:05:35.000Z</time>
        
      </trkpt>
      <trkpt lat="44.100942" lon="145.034158">
        <ele>146.6</ele>
        <time>2023-09-27T07:06:04.000Z</time>
        
      </trkpt>
      <trkpt lat="44.102943" lon="145.034469">
        <ele>146.4</ele>
        <time>2023-09-27T07:06:33.000Z</time>
        
      </trkpt>
      <trkpt lat="44.104263" lon="145.036017">
        <ele>141.4</ele>
        <time>2023-09-27T07:07:02.000Z</time>
        
      </trkpt>
      <trkpt lat="44.105923" lon="145.036896">
        <ele>122.8</ele>
        <time>2023-09-27T07:07:31.000Z</time>
        
      </trkpt>
      <trkpt lat="44.10567" lon="145.038753">
        <ele>115.6</ele>
        <time>2023-09-27T07:08:07.000Z</time>
        
      </trkpt>
      <trkpt lat="44.105112" lon="145.040926">
        <ele>104.8</ele>
        <time>2023-09-27T07:08:36.000Z</time>
        
      </trkpt>
      <trkpt lat="44.105043" lon="145.042434">
        <ele>92.8</ele>
        <time>2023-09-27T07:09:38.000Z</time>
        
      </trkpt>
      <trkpt lat="44.103544" lon="145.045283">
        <ele>75.2</ele>
        <time>2023-09-27T07:10:07.000Z</time>
        
      </trkpt>
      <trkpt lat="44.102329" lon="145.048179">
        <ele>57.6</ele>
        <time>2023-09-27T07:10:36.000Z</time>
        
      </trkpt>
      <trkpt lat="44.103668" lon="145.047115">
        <ele>41.4</ele>
        <time>2023-09-27T07:11:05.000Z</time>
        
      </trkpt>
      <trkpt lat="44.103087" lon="145.050101">
        <ele>30.8</ele>
        <time>2023-09-27T07:11:34.000Z</time>
        
      </trkpt>
      <trkpt lat="44.102733" lon="145.052091">
        <ele>34.8</ele>
        <time>2023-09-27T07:12:03.000Z</time>
        
      </trkpt>
      <trkpt lat="44.102684" lon="145.053168">
        <ele>40.8</ele>
        <time>2023-09-27T07:12:32.000Z</time>
        
      </trkpt>
      <trkpt lat="44.102553" lon="145.054181">
        <ele>46.4</ele>
        <time>2023-09-27T07:13:01.000Z</time>
        
      </trkpt>
      <trkpt lat="44.102461" lon="145.055168">
        <ele>51.4</ele>
        <time>2023-09-27T07:13:51.000Z</time>
        
      </trkpt>
      <trkpt lat="44.102417" lon="145.056282">
        <ele>57.8</ele>
        <time>2023-09-27T07:14:20.000Z</time>
        
      </trkpt>
      <trkpt lat="44.102492" lon="145.057332">
        <ele>63.8</ele>
        <time>2023-09-27T07:14:49.000Z</time>
        
      </trkpt>
      <trkpt lat="44.102598" lon="145.058353">
        <ele>70</ele>
        <time>2023-09-27T07:15:18.000Z</time>
        
      </trkpt>
      <trkpt lat="44.102823" lon="145.059407">
        <ele>74.6</ele>
        <time>2023-09-27T07:15:47.000Z</time>
        
      </trkpt>
      <trkpt lat="44.10326" lon="145.060315">
        <ele>79.4</ele>
        <time>2023-09-27T07:16:16.000Z</time>
        
      </trkpt>
      <trkpt lat="44.103756" lon="145.061184">
        <ele>84.4</ele>
        <time>2023-09-27T07:16:45.000Z</time>
        
      </trkpt>
      <trkpt lat="44.104368" lon="145.061761">
        <ele>90.4</ele>
        <time>2023-09-27T07:17:14.000Z</time>
        
      </trkpt>
      <trkpt lat="44.104934" lon="145.062464">
        <ele>96.8</ele>
        <time>2023-09-27T07:17:43.000Z</time>
        
      </trkpt>
      <trkpt lat="44.105268" lon="145.063392">
        <ele>102.4</ele>
        <time>2023-09-27T07:18:12.000Z</time>
        
      </trkpt>
      <trkpt lat="44.105721" lon="145.064172">
        <ele>107.4</ele>
        <time>2023-09-27T07:18:41.000Z</time>
        
      </trkpt>
      <trkpt lat="44.105889" lon="145.063249">
        <ele>113</ele>
        <time>2023-09-27T07:19:10.000Z</time>
        
      </trkpt>
      <trkpt lat="44.105756" lon="145.062255">
        <ele>119</ele>
        <time>2023-09-27T07:19:39.000Z</time>
        
      </trkpt>
      <trkpt lat="44.105607" lon="145.061278">
        <ele>124.8</ele>
        <time>2023-09-27T07:20:08.000Z</time>
        
      </trkpt>
      <trkpt lat="44.105503" lon="145.060169">
        <ele>130.6</ele>
        <time>2023-09-27T07:20:37.000Z</time>
        
      </trkpt>
      <trkpt lat="44.105412" lon="145.058465">
        <ele>133.2</ele>
        <time>2023-09-27T07:21:06.000Z</time>
        
      </trkpt>
      <trkpt lat="44.106447" lon="145.057361">
        <ele>135</ele>
        <time>2023-09-27T07:21:35.000Z</time>
        
      </trkpt>
      <trkpt lat="44.108347" lon="145.05674">
        <ele>132.2</ele>
        <time>2023-09-27T07:22:04.000Z</time>
        
      </trkpt>
      <trkpt lat="44.109523" lon="145.057453">
        <ele>136.4</ele>
        <time>2023-09-27T07:22:33.000Z</time>
        
      </trkpt>
      <trkpt lat="44.110163" lon="145.057926">
        <ele>142.8</ele>
        <time>2023-09-27T07:23:02.000Z</time>
        
      </trkpt>
      <trkpt lat="44.110756" lon="145.058385">
        <ele>149.6</ele>
        <time>2023-09-27T07:23:31.000Z</time>
        
      </trkpt>
      <trkpt lat="44.111405" lon="145.058862">
        <ele>155.6</ele>
        <time>2023-09-27T07:24:00.000Z</time>
        
      </trkpt>
      <trkpt lat="44.112253" lon="145.059928">
        <ele>158.2</ele>
        <time>2023-09-27T07:24:29.000Z</time>
        
      </trkpt>
      <trkpt lat="44.112874" lon="145.061114">
        <ele>162.2</ele>
        <time>2023-09-27T07:24:58.000Z</time>
        
      </trkpt>
      <trkpt lat="44.113475" lon="145.06225">
        <ele>167</ele>
        <time>2023-09-27T07:25:27.000Z</time>
        
      </trkpt>
      <trkpt lat="44.114063" lon="145.063416">
        <ele>170</ele>
        <time>2023-09-27T07:25:56.000Z</time>
        
      </trkpt>
      <trkpt lat="44.114775" lon="145.064722">
        <ele>172.8</ele>
        <time>2023-09-27T07:26:25.000Z</time>
        
      </trkpt>
      <trkpt lat="44.115511" lon="145.066115">
        <ele>175.4</ele>
        <time>2023-09-27T07:26:54.000Z</time>
        
      </trkpt>
      <trkpt lat="44.116073" lon="145.067211">
        <ele>180.4</ele>
        <time>2023-09-27T07:27:23.000Z</time>
        
      </trkpt>
      <trkpt lat="44.116767" lon="145.068522">
        <ele>183.8</ele>
        <time>2023-09-27T07:27:52.000Z</time>
        
      </trkpt>
      <trkpt lat="44.117441" lon="145.0698">
        <ele>187.6</ele>
        <time>2023-09-27T07:28:21.000Z</time>
        
      </trkpt>
      <trkpt lat="44.11806" lon="145.070997">
        <ele>191.4</ele>
        <time>2023-09-27T07:28:50.000Z</time>
        
      </trkpt>
      <trkpt lat="44.118626" lon="145.072076">
        <ele>196.4</ele>
        <time>2023-09-27T07:29:19.000Z</time>
        
      </trkpt>
      <trkpt lat="44.119181" lon="145.073117">
        <ele>201.6</ele>
        <time>2023-09-27T07:29:48.000Z</time>
        
      </trkpt>
      <trkpt lat="44.119724" lon="145.074149">
        <ele>205.4</ele>
        <time>2023-09-27T07:30:17.000Z</time>
        
      </trkpt>
      <trkpt lat="44.119721" lon="145.075325">
        <ele>210.2</ele>
        <time>2023-09-27T07:30:57.000Z</time>
        
      </trkpt>
      <trkpt lat="44.11938" lon="145.076404">
        <ele>215.6</ele>
        <time>2023-09-27T07:31:26.000Z</time>
        
      </trkpt>
      <trkpt lat="44.119459" lon="145.077093">
        <ele>220.2</ele>
        <time>2023-09-27T07:32:09.000Z</time>
        
      </trkpt>
      <trkpt lat="44.119649" lon="145.077964">
        <ele>227.6</ele>
        <time>2023-09-27T07:32:38.000Z</time>
        
      </trkpt>
      <trkpt lat="44.119718" lon="145.07881">
        <ele>234</ele>
        <time>2023-09-27T07:33:07.000Z</time>
        
      </trkpt>
      <trkpt lat="44.120075" lon="145.079492">
        <ele>241.4</ele>
        <time>2023-09-27T07:34:00.000Z</time>
        
      </trkpt>
      <trkpt lat="44.120831" lon="145.080172">
        <ele>246.2</ele>
        <time>2023-09-27T07:34:29.000Z</time>
        
      </trkpt>
      <trkpt lat="44.121896" lon="145.080477">
        <ele>245.8</ele>
        <time>2023-09-27T07:34:58.000Z</time>
        
      </trkpt>
      <trkpt lat="44.121853" lon="145.080596">
        <ele>244.2</ele>
        <time>2023-09-27T08:01:50.000Z</time>
        
      </trkpt>
      <trkpt lat="44.120921" lon="145.080307">
        <ele>247.2</ele>
        <time>2023-09-27T08:02:43.000Z</time>
        
      </trkpt>
      <trkpt lat="44.119894" lon="145.079357">
        <ele>243.2</ele>
        <time>2023-09-27T08:04:42.000Z</time>
        
      </trkpt>
      <trkpt lat="44.119384" lon="145.076226">
        <ele>218.8</ele>
        <time>2023-09-27T08:05:11.000Z</time>
        
      </trkpt>
      <trkpt lat="44.119484" lon="145.073832">
        <ele>203.4</ele>
        <time>2023-09-27T08:06:02.000Z</time>
        
      </trkpt>
      <trkpt lat="44.118101" lon="145.071178">
        <ele>194.6</ele>
        <time>2023-09-27T08:06:31.000Z</time>
        
      </trkpt>
      <trkpt lat="44.116555" lon="145.068231">
        <ele>183.6</ele>
        <time>2023-09-27T08:07:00.000Z</time>
        
      </trkpt>
      <trkpt lat="44.114976" lon="145.065221">
        <ele>173.2</ele>
        <time>2023-09-27T08:07:29.000Z</time>
        
      </trkpt>
      <trkpt lat="44.113424" lon="145.062268">
        <ele>167.4</ele>
        <time>2023-09-27T08:07:58.000Z</time>
        
      </trkpt>
      <trkpt lat="44.111689" lon="145.059167">
        <ele>156.4</ele>
        <time>2023-09-27T08:08:27.000Z</time>
        
      </trkpt>
      <trkpt lat="44.108974" lon="145.057149">
        <ele>136.8</ele>
        <time>2023-09-27T08:08:56.000Z</time>
        
      </trkpt>
      <trkpt lat="44.106563" lon="145.057349">
        <ele>131.6</ele>
        <time>2023-09-27T08:09:25.000Z</time>
        
      </trkpt>
      <trkpt lat="44.105449" lon="145.059102">
        <ele>131</ele>
        <time>2023-09-27T08:09:54.000Z</time>
        
      </trkpt>
      <trkpt lat="44.105796" lon="145.062306">
        <ele>121</ele>
        <time>2023-09-27T08:10:23.000Z</time>
        
      </trkpt>
      <trkpt lat="44.105127" lon="145.063088">
        <ele>102.4</ele>
        <time>2023-09-27T08:10:52.000Z</time>
        
      </trkpt>
      <trkpt lat="44.102978" lon="145.059952">
        <ele>78.6</ele>
        <time>2023-09-27T08:11:21.000Z</time>
        
      </trkpt>
      <trkpt lat="44.102364" lon="145.055854">
        <ele>58</ele>
        <time>2023-09-27T08:11:50.000Z</time>
        
      </trkpt>
      <trkpt lat="44.102785" lon="145.051559">
        <ele>35</ele>
        <time>2023-09-27T08:12:19.000Z</time>
        
      </trkpt>
      <trkpt lat="44.103375" lon="145.048456">
        <ele>26.8</ele>
        <time>2023-09-27T08:12:48.000Z</time>
        
      </trkpt>
      <trkpt lat="44.103556" lon="145.047107">
        <ele>33.4</ele>
        <time>2023-09-27T08:13:17.000Z</time>
        
      </trkpt>
      <trkpt lat="44.103133" lon="145.04761">
        <ele>39.4</ele>
        <time>2023-09-27T08:14:07.000Z</time>
        
      </trkpt>
      <trkpt lat="44.102857" lon="145.048575">
        <ele>45.2</ele>
        <time>2023-09-27T08:14:36.000Z</time>
        
      </trkpt>
      <trkpt lat="44.102317" lon="145.048258">
        <ele>49.8</ele>
        <time>2023-09-27T08:15:05.000Z</time>
        
      </trkpt>
      <trkpt lat="44.10238" lon="145.047058">
        <ele>54.2</ele>
        <time>2023-09-27T08:15:34.000Z</time>
        
      </trkpt>
      <trkpt lat="44.103045" lon="145.046341">
        <ele>60.2</ele>
        <time>2023-09-27T08:16:03.000Z</time>
        
      </trkpt>
      <trkpt lat="44.103441" lon="145.045478">
        <ele>65.8</ele>
        <time>2023-09-27T08:16:32.000Z</time>
        
      </trkpt>
      <trkpt lat="44.10368" lon="145.044497">
        <ele>70.4</ele>
        <time>2023-09-27T08:17:01.000Z</time>
        
      </trkpt>
      <trkpt lat="44.104062" lon="145.04367">
        <ele>76</ele>
        <time>2023-09-27T08:17:30.000Z</time>
        
      </trkpt>
      <trkpt lat="44.104596" lon="145.043108">
        <ele>80.8</ele>
        <time>2023-09-27T08:17:59.000Z</time>
        
      </trkpt>
      <trkpt lat="44.105013" lon="145.042386">
        <ele>86.4</ele>
        <time>2023-09-27T08:18:28.000Z</time>
        
      </trkpt>
      <trkpt lat="44.105436" lon="145.041685">
        <ele>91.6</ele>
        <time>2023-09-27T08:18:57.000Z</time>
        
      </trkpt>
      <trkpt lat="44.105126" lon="145.041007">
        <ele>97.8</ele>
        <time>2023-09-27T08:19:26.000Z</time>
        
      </trkpt>
      <trkpt lat="44.104815" lon="145.040362">
        <ele>103</ele>
        <time>2023-09-27T08:19:55.000Z</time>
        
      </trkpt>
      <trkpt lat="44.105222" lon="145.039558">
        <ele>106.6</ele>
        <time>2023-09-27T08:20:24.000Z</time>
        
      </trkpt>
      <trkpt lat="44.105617" lon="145.038735">
        <ele>109.8</ele>
        <time>2023-09-27T08:21:11.000Z</time>
        
      </trkpt>
      <trkpt lat="44.105569" lon="145.037768">
        <ele>115.4</ele>
        <time>2023-09-27T08:21:40.000Z</time>
        
      </trkpt>
      <trkpt lat="44.105889" lon="145.036715">
        <ele>120.4</ele>
        <time>2023-09-27T08:22:09.000Z</time>
        
      </trkpt>
      <trkpt lat="44.105455" lon="145.036167">
        <ele>125.2</ele>
        <time>2023-09-27T08:22:38.000Z</time>
        
      </trkpt>
      <trkpt lat="44.104794" lon="145.036261">
        <ele>130.2</ele>
        <time>2023-09-27T08:23:07.000Z</time>
        
      </trkpt>
      <trkpt lat="44.10419" lon="145.035954">
        <ele>135.8</ele>
        <time>2023-09-27T08:23:36.000Z</time>
        
      </trkpt>
      <trkpt lat="44.104197" lon="145.03492">
        <ele>140.8</ele>
        <time>2023-09-27T08:24:05.000Z</time>
        
      </trkpt>
      <trkpt lat="44.103129" lon="145.034569">
        <ele>143.2</ele>
        <time>2023-09-27T08:24:34.000Z</time>
        
      </trkpt>
      <trkpt lat="44.101942" lon="145.034238">
        <ele>145.8</ele>
        <time>2023-09-27T08:25:03.000Z</time>
        
      </trkpt>
      <trkpt lat="44.100535" lon="145.034357">
        <ele>146</ele>
        <time>2023-09-27T08:25:32.000Z</time>
        
      </trkpt>
      <trkpt lat="44.098985" lon="145.034653">
        <ele>146</ele>
        <time>2023-09-27T08:26:01.000Z</time>
        
      </trkpt>
      <trkpt lat="44.098023" lon="145.033162">
        <ele>148</ele>
        <time>2023-09-27T08:26:30.000Z</time>
        
      </trkpt>
      <trkpt lat="44.097423" lon="145.032039">
        <ele>154.8</ele>
        <time>2023-09-27T08:26:59.000Z</time>
        
      </trkpt>
      <trkpt lat="44.096812" lon="145.030884">
        <ele>159.4</ele>
        <time>2023-09-27T08:27:28.000Z</time>
        
      </trkpt>
      <trkpt lat="44.095954" lon="145.029496">
        <ele>160.8</ele>
        <time>2023-09-27T08:27:57.000Z</time>
        
      </trkpt>
      <trkpt lat="44.094634" lon="145.028227">
        <ele>160.6</ele>
        <time>2023-09-27T08:28:26.000Z</time>
        
      </trkpt>
      <trkpt lat="44.094052" lon="145.026338">
        <ele>162.6</ele>
        <time>2023-09-27T08:28:55.000Z</time>
        
      </trkpt>
      <trkpt lat="44.09379" lon="145.025275">
        <ele>166.8</ele>
        <time>2023-09-27T08:29:40.000Z</time>
        
      </trkpt>
      <trkpt lat="44.09298" lon="145.024581">
        <ele>170.2</ele>
        <time>2023-09-27T08:30:09.000Z</time>
        
      </trkpt>
      <trkpt lat="44.091568" lon="145.024362">
        <ele>168.2</ele>
        <time>2023-09-27T08:30:38.000Z</time>
        
      </trkpt>
      <trkpt lat="44.09033" lon="145.02301">
        <ele>160.8</ele>
        <time>2023-09-27T08:31:07.000Z</time>
        
      </trkpt>
      <trkpt lat="44.089918" lon="145.019451">
        <ele>146.4</ele>
        <time>2023-09-27T08:31:36.000Z</time>
        
      </trkpt>
      <trkpt lat="44.090498" lon="145.016163">
        <ele>135.2</ele>
        <time>2023-09-27T08:32:05.000Z</time>
        
      </trkpt>
      <trkpt lat="44.091636" lon="145.01301">
        <ele>122.2</ele>
        <time>2023-09-27T08:32:34.000Z</time>
        
      </trkpt>
      <trkpt lat="44.089845" lon="145.010536">
        <ele>108.6</ele>
        <time>2023-09-27T08:33:03.000Z</time>
        
      </trkpt>
      <trkpt lat="44.088495" lon="145.009941">
        <ele>96.6</ele>
        <time>2023-09-27T08:33:32.000Z</time>
        
      </trkpt>
      <trkpt lat="44.087039" lon="145.011295">
        <ele>88.2</ele>
        <time>2023-09-27T08:34:50.000Z</time>
        
      </trkpt>
      <trkpt lat="44.086499" lon="145.012866">
        <ele>78.6</ele>
        <time>2023-09-27T08:36:04.000Z</time>
        
      </trkpt>
      <trkpt lat="44.086001" lon="145.016328">
        <ele>63.2</ele>
        <time>2023-09-27T08:36:33.000Z</time>
        
      </trkpt>
      <trkpt lat="44.084817" lon="145.016474">
        <ele>49.4</ele>
        <time>2023-09-27T08:37:02.000Z</time>
        
      </trkpt>
      <trkpt lat="44.085658" lon="145.012751">
        <ele>33.6</ele>
        <time>2023-09-27T08:37:31.000Z</time>
        
      </trkpt>
      <trkpt lat="44.083863" lon="145.00953">
        <ele>14.4</ele>
        <time>2023-09-27T08:38:00.000Z</time>
        
      </trkpt>
      <trkpt lat="44.082011" lon="145.008205">
        <ele>10.4</ele>
        <time>2023-09-27T08:38:29.000Z</time>
        
      </trkpt>
      <trkpt lat="44.080517" lon="145.007368">
        <ele>9.6</ele>
        <time>2023-09-27T08:38:58.000Z</time>
        
      </trkpt>
      <trkpt lat="44.079497" lon="145.006521">
        <ele>8.4</ele>
        <time>2023-09-27T08:39:40.000Z</time>
        
      </trkpt>
      <trkpt lat="44.07839" lon="145.004741">
        <ele>7.8</ele>
        <time>2023-09-27T08:40:09.000Z</time>
        
      </trkpt>
      <trkpt lat="44.077372" lon="145.00294">
        <ele>7.8</ele>
        <time>2023-09-27T08:40:38.000Z</time>
        
      </trkpt>
      <trkpt lat="44.076818" lon="145.001758">
        <ele>6.6</ele>
        <time>2023-09-27T08:41:46.000Z</time>
        
      </trkpt>
      <trkpt lat="44.07581" lon="145.000196">
        <ele>6.8</ele>
        <time>2023-09-27T08:42:15.000Z</time>
        
      </trkpt>
      <trkpt lat="44.074346" lon="144.999319">
        <ele>6.6</ele>
        <time>2023-09-27T08:42:44.000Z</time>
        
      </trkpt>
      <trkpt lat="44.072929" lon="144.998357">
        <ele>6</ele>
        <time>2023-09-27T08:43:13.000Z</time>
        
      </trkpt>
      <trkpt lat="44.071945" lon="144.996735">
        <ele>6.8</ele>
        <time>2023-09-27T08:43:42.000Z</time>
        
      </trkpt>
      <trkpt lat="44.071463" lon="144.995158">
        <ele>8.8</ele>
        <time>2023-09-27T08:44:11.000Z</time>
        
      </trkpt>
      <trkpt lat="44.071055" lon="144.99478">
        <ele>8.4</ele>
        <time>2023-09-27T09:16:18.000Z</time>
        
      </trkpt>
      <trkpt lat="44.070898" lon="144.99474">
        <ele>8.4</ele>
        <time>2023-09-27T09:16:47.000Z</time>
        
      </trkpt>
      <trkpt lat="44.071115" lon="144.995487">
        <ele>13.6</ele>
        <time>2023-09-27T09:17:16.000Z</time>
        
      </trkpt>
      <trkpt lat="44.071135" lon="144.996111">
        <ele>18.8</ele>
        <time>2023-09-27T09:17:45.000Z</time>
        
      </trkpt>
      <trkpt lat="44.071108" lon="144.996715">
        <ele>23.4</ele>
        <time>2023-09-27T09:18:14.000Z</time>
        
      </trkpt>
      <trkpt lat="44.07137" lon="144.99732">
        <ele>29</ele>
        <time>2023-09-27T09:18:43.000Z</time>
        
      </trkpt>
      <trkpt lat="44.071545" lon="144.997832">
        <ele>34</ele>
        <time>2023-09-27T09:19:12.000Z</time>
        
      </trkpt>
      <trkpt lat="44.071139" lon="144.998173">
        <ele>38.6</ele>
        <time>2023-09-27T09:19:41.000Z</time>
        
      </trkpt>
      <trkpt lat="44.070626" lon="144.998414">
        <ele>43.6</ele>
        <time>2023-09-27T09:20:10.000Z</time>
        
      </trkpt>
      <trkpt lat="44.070278" lon="144.998947">
        <ele>48.8</ele>
        <time>2023-09-27T09:20:39.000Z</time>
        
      </trkpt>
      <trkpt lat="44.070058" lon="144.999592">
        <ele>54.2</ele>
        <time>2023-09-27T09:21:08.000Z</time>
        
      </trkpt>
      <trkpt lat="44.070732" lon="144.999149">
        <ele>56.2</ele>
        <time>2023-09-27T09:21:37.000Z</time>
        
      </trkpt>
      <trkpt lat="44.071478" lon="144.999024">
        <ele>53</ele>
        <time>2023-09-27T09:22:06.000Z</time>
        
      </trkpt>
      <trkpt lat="44.071936" lon="144.999488">
        <ele>56.4</ele>
        <time>2023-09-27T09:22:35.000Z</time>
        
      </trkpt>
      <trkpt lat="44.072113" lon="144.998973">
        <ele>54.8</ele>
        <time>2023-09-27T09:23:04.000Z</time>
        
      </trkpt>
      <trkpt lat="44.071966" lon="144.999739">
        <ele>57</ele>
        <time>2023-09-27T09:24:00.000Z</time>
        
      </trkpt>
      <trkpt lat="44.072443" lon="145.000696">
        <ele>60.2</ele>
        <time>2023-09-27T09:24:29.000Z</time>
        
      </trkpt>
      <trkpt lat="44.072913" lon="145.001422">
        <ele>63</ele>
        <time>2023-09-27T09:24:58.000Z</time>
        
      </trkpt>
      <trkpt lat="44.073494" lon="145.001825">
        <ele>62.4</ele>
        <time>2023-09-27T09:25:27.000Z</time>
        
      </trkpt>
      <trkpt lat="44.07374" lon="145.00156">
        <ele>60.2</ele>
        <time>2023-09-27T09:26:04.000Z</time>
        
      </trkpt>
      <trkpt lat="44.073246" lon="145.00167">
        <ele>62.6</ele>
        <time>2023-09-27T09:29:10.000Z</time>
        
      </trkpt>
      <trkpt lat="44.072894" lon="145.001123">
        <ele>62.6</ele>
        <time>2023-09-27T09:29:39.000Z</time>
        
      </trkpt>
      <trkpt lat="44.073208" lon="145.000841">
        <ele>61.4</ele>
        <time>2023-09-27T09:29:54.000Z</time>
        
      </trkpt>
    </trkseg>
  </trk>
</gpx>