<?xml version="1.0" encoding="UTF-8"?>
<gpx version="1.1">
  <trk>
    <trkseg>
      
      <trkpt lat="44.073152" lon="145.001502">
        <ele>99.2</ele>
        <time>2023-09-27T22:24:35.000Z</time>
        
      </trkpt>
      <trkpt lat="44.07221" lon="145.000227">
        <ele>84</ele>
        <time>2023-09-27T22:25:35.000Z</time>
        
      </trkpt>
      <trkpt lat="44.07109" lon="144.99884">
        <ele>72.8</ele>
        <time>2023-09-27T22:26:11.000Z</time>
        
      </trkpt>
      <trkpt lat="44.070241" lon="144.999622">
        <ele>74.2</ele>
        <time>2023-09-27T22:26:47.000Z</time>
        
      </trkpt>
      <trkpt lat="44.071233" lon="144.998172">
        <ele>58.6</ele>
        <time>2023-09-27T22:27:23.000Z</time>
        
      </trkpt>
      <trkpt lat="44.071059" lon="144.995294">
        <ele>31</ele>
        <time>2023-09-27T22:27:59.000Z</time>
        
      </trkpt>
      <trkpt lat="44.070051" lon="144.994406">
        <ele>21.2</ele>
        <time>2023-09-27T22:28:35.000Z</time>
        
      </trkpt>
      <trkpt lat="44.071116" lon="144.994824">
        <ele>21</ele>
        <time>2023-09-27T22:29:11.000Z</time>
        
      </trkpt>
      <trkpt lat="44.071622" lon="144.995254">
        <ele>17.4</ele>
        <time>2023-09-27T22:55:42.000Z</time>
        
      </trkpt>
      <trkpt lat="44.072049" lon="144.996773">
        <ele>16.4</ele>
        <time>2023-09-27T23:06:17.000Z</time>
        
      </trkpt>
      <trkpt lat="44.073439" lon="144.998872">
        <ele>14.8</ele>
        <time>2023-09-27T23:06:53.000Z</time>
        
      </trkpt>
      <trkpt lat="44.075407" lon="144.999759">
        <ele>16</ele>
        <time>2023-09-27T23:07:29.000Z</time>
        
      </trkpt>
      <trkpt lat="44.076876" lon="145.001735">
        <ele>15.8</ele>
        <time>2023-09-27T23:08:05.000Z</time>
        
      </trkpt>
      <trkpt lat="44.078024" lon="145.004037">
        <ele>16</ele>
        <time>2023-09-27T23:08:41.000Z</time>
        
      </trkpt>
      <trkpt lat="44.079271" lon="145.00609">
        <ele>16</ele>
        <time>2023-09-27T23:09:17.000Z</time>
        
      </trkpt>
      <trkpt lat="44.080836" lon="145.007516">
        <ele>17.6</ele>
        <time>2023-09-27T23:09:53.000Z</time>
        
      </trkpt>
      <trkpt lat="44.082542" lon="145.008358">
        <ele>18.2</ele>
        <time>2023-09-27T23:10:29.000Z</time>
        
      </trkpt>
      <trkpt lat="44.083971" lon="145.009569">
        <ele>19.2</ele>
        <time>2023-09-27T23:11:05.000Z</time>
        
      </trkpt>
      <trkpt lat="44.084795" lon="145.01039">
        <ele>23.8</ele>
        <time>2023-09-27T23:11:41.000Z</time>
        
      </trkpt>
      <trkpt lat="44.085308" lon="145.01124">
        <ele>29.8</ele>
        <time>2023-09-27T23:12:17.000Z</time>
        
      </trkpt>
      <trkpt lat="44.085595" lon="145.012158">
        <ele>33.8</ele>
        <time>2023-09-27T23:12:53.000Z</time>
        
      </trkpt>
      <trkpt lat="44.085711" lon="145.013181">
        <ele>37.2</ele>
        <time>2023-09-27T23:13:29.000Z</time>
        
      </trkpt>
      <trkpt lat="44.085607" lon="145.014222">
        <ele>41.6</ele>
        <time>2023-09-27T23:14:05.000Z</time>
        
      </trkpt>
      <trkpt lat="44.085287" lon="145.015325">
        <ele>46</ele>
        <time>2023-09-27T23:14:41.000Z</time>
        
      </trkpt>
      <trkpt lat="44.084884" lon="145.016393">
        <ele>49.8</ele>
        <time>2023-09-27T23:15:17.000Z</time>
        
      </trkpt>
      <trkpt lat="44.085054" lon="145.01751">
        <ele>54.8</ele>
        <time>2023-09-27T23:15:53.000Z</time>
        
      </trkpt>
      <trkpt lat="44.085808" lon="145.017243">
        <ele>59.2</ele>
        <time>2023-09-27T23:16:29.000Z</time>
        
      </trkpt>
      <trkpt lat="44.085968" lon="145.015987">
        <ele>65</ele>
        <time>2023-09-27T23:17:05.000Z</time>
        
      </trkpt>
      <trkpt lat="44.086243" lon="145.014811">
        <ele>70</ele>
        <time>2023-09-27T23:17:41.000Z</time>
        
      </trkpt>
      <trkpt lat="44.08639" lon="145.013596">
        <ele>76.6</ele>
        <time>2023-09-27T23:18:17.000Z</time>
        
      </trkpt>
      <trkpt lat="44.086484" lon="145.012454">
        <ele>83.4</ele>
        <time>2023-09-27T23:18:53.000Z</time>
        
      </trkpt>
      <trkpt lat="44.086879" lon="145.011429">
        <ele>89.4</ele>
        <time>2023-09-27T23:19:29.000Z</time>
        
      </trkpt>
      <trkpt lat="44.087357" lon="145.010864">
        <ele>93.6</ele>
        <time>2023-09-27T23:20:53.000Z</time>
        
      </trkpt>
      <trkpt lat="44.088131" lon="145.010276">
        <ele>99.2</ele>
        <time>2023-09-27T23:21:29.000Z</time>
        
      </trkpt>
      <trkpt lat="44.088929" lon="145.009815">
        <ele>104.8</ele>
        <time>2023-09-27T23:22:05.000Z</time>
        
      </trkpt>
      <trkpt lat="44.089773" lon="145.010355">
        <ele>110.4</ele>
        <time>2023-09-27T23:22:41.000Z</time>
        
      </trkpt>
      <trkpt lat="44.090521" lon="145.011158">
        <ele>115</ele>
        <time>2023-09-27T23:23:17.000Z</time>
        
      </trkpt>
      <trkpt lat="44.091319" lon="145.011874">
        <ele>119.6</ele>
        <time>2023-09-27T23:23:53.000Z</time>
        
      </trkpt>
      <trkpt lat="44.091672" lon="145.0129">
        <ele>123.8</ele>
        <time>2023-09-27T23:24:29.000Z</time>
        
      </trkpt>
      <trkpt lat="44.091559" lon="145.014084">
        <ele>127.8</ele>
        <time>2023-09-27T23:25:05.000Z</time>
        
      </trkpt>
      <trkpt lat="44.09107" lon="145.015159">
        <ele>132</ele>
        <time>2023-09-27T23:25:41.000Z</time>
        
      </trkpt>
      <trkpt lat="44.090551" lon="145.016184">
        <ele>136.4</ele>
        <time>2023-09-27T23:26:17.000Z</time>
        
      </trkpt>
      <trkpt lat="44.090095" lon="145.017396">
        <ele>140.6</ele>
        <time>2023-09-27T23:26:53.000Z</time>
        
      </trkpt>
      <trkpt lat="44.089949" lon="145.018764">
        <ele>145.2</ele>
        <time>2023-09-27T23:27:29.000Z</time>
        
      </trkpt>
      <trkpt lat="44.08996" lon="145.020063">
        <ele>149.6</ele>
        <time>2023-09-27T23:28:05.000Z</time>
        
      </trkpt>
      <trkpt lat="44.089985" lon="145.021306">
        <ele>154.4</ele>
        <time>2023-09-27T23:28:41.000Z</time>
        
      </trkpt>
      <trkpt lat="44.090142" lon="145.022414">
        <ele>158.2</ele>
        <time>2023-09-27T23:29:17.000Z</time>
        
      </trkpt>
      <trkpt lat="44.090584" lon="145.023334">
        <ele>163</ele>
        <time>2023-09-27T23:29:53.000Z</time>
        
      </trkpt>
      <trkpt lat="44.091285" lon="145.023246">
        <ele>167.2</ele>
        <time>2023-09-27T23:30:29.000Z</time>
        
      </trkpt>
      <trkpt lat="44.091511" lon="145.023396">
        <ele>167.6</ele>
        <time>2023-09-27T23:39:08.000Z</time>
        
      </trkpt>
      <trkpt lat="44.090737" lon="145.023641">
        <ele>165.6</ele>
        <time>2023-09-27T23:39:44.000Z</time>
        
      </trkpt>
      <trkpt lat="44.091424" lon="145.024674">
        <ele>173.8</ele>
        <time>2023-09-27T23:40:20.000Z</time>
        
      </trkpt>
      <trkpt lat="44.091974" lon="145.025617">
        <ele>176.6</ele>
        <time>2023-09-27T23:40:56.000Z</time>
        
      </trkpt>
      <trkpt lat="44.092309" lon="145.02674">
        <ele>180.6</ele>
        <time>2023-09-27T23:41:32.000Z</time>
        
      </trkpt>
      <trkpt lat="44.09237" lon="145.027716">
        <ele>184.8</ele>
        <time>2023-09-27T23:42:08.000Z</time>
        
      </trkpt>
      <trkpt lat="44.092236" lon="145.028754">
        <ele>189.6</ele>
        <time>2023-09-27T23:42:44.000Z</time>
        
      </trkpt>
      <trkpt lat="44.092023" lon="145.029738">
        <ele>195.2</ele>
        <time>2023-09-27T23:43:20.000Z</time>
        
      </trkpt>
      <trkpt lat="44.091819" lon="145.030679">
        <ele>199.8</ele>
        <time>2023-09-27T23:43:56.000Z</time>
        
      </trkpt>
      <trkpt lat="44.091596" lon="145.031666">
        <ele>205.4</ele>
        <time>2023-09-27T23:44:32.000Z</time>
        
      </trkpt>
      <trkpt lat="44.091132" lon="145.032626">
        <ele>210.8</ele>
        <time>2023-09-27T23:45:08.000Z</time>
        
      </trkpt>
      <trkpt lat="44.090534" lon="145.033277">
        <ele>216</ele>
        <time>2023-09-27T23:45:44.000Z</time>
        
      </trkpt>
      <trkpt lat="44.089769" lon="145.033807">
        <ele>220.4</ele>
        <time>2023-09-27T23:46:20.000Z</time>
        
      </trkpt>
      <trkpt lat="44.089054" lon="145.034335">
        <ele>225.2</ele>
        <time>2023-09-27T23:46:56.000Z</time>
        
      </trkpt>
      <trkpt lat="44.088415" lon="145.034855">
        <ele>230.2</ele>
        <time>2023-09-27T23:47:32.000Z</time>
        
      </trkpt>
      <trkpt lat="44.087866" lon="145.035471">
        <ele>236</ele>
        <time>2023-09-27T23:48:08.000Z</time>
        
      </trkpt>
      <trkpt lat="44.087407" lon="145.036172">
        <ele>241.6</ele>
        <time>2023-09-27T23:48:44.000Z</time>
        
      </trkpt>
      <trkpt lat="44.086954" lon="145.036894">
        <ele>247.6</ele>
        <time>2023-09-27T23:49:20.000Z</time>
        
      </trkpt>
      <trkpt lat="44.086533" lon="145.037664">
        <ele>253.2</ele>
        <time>2023-09-27T23:49:56.000Z</time>
        
      </trkpt>
      <trkpt lat="44.086201" lon="145.038512">
        <ele>259</ele>
        <time>2023-09-27T23:50:32.000Z</time>
        
      </trkpt>
      <trkpt lat="44.085867" lon="145.039299">
        <ele>265.4</ele>
        <time>2023-09-27T23:51:08.000Z</time>
        
      </trkpt>
      <trkpt lat="44.085489" lon="145.040025">
        <ele>271</ele>
        <time>2023-09-27T23:51:44.000Z</time>
        
      </trkpt>
      <trkpt lat="44.084917" lon="145.0405">
        <ele>277.6</ele>
        <time>2023-09-27T23:52:20.000Z</time>
        
      </trkpt>
      <trkpt lat="44.084471" lon="145.041127">
        <ele>283.6</ele>
        <time>2023-09-27T23:52:56.000Z</time>
        
      </trkpt>
      <trkpt lat="44.084112" lon="145.041933">
        <ele>289.8</ele>
        <time>2023-09-27T23:53:32.000Z</time>
        
      </trkpt>
      <trkpt lat="44.083656" lon="145.04281">
        <ele>294.6</ele>
        <time>2023-09-27T23:54:57.000Z</time>
        
      </trkpt>
      <trkpt lat="44.08296" lon="145.043746">
        <ele>300.4</ele>
        <time>2023-09-27T23:55:33.000Z</time>
        
      </trkpt>
      <trkpt lat="44.08217" lon="145.044343">
        <ele>305.6</ele>
        <time>2023-09-27T23:56:09.000Z</time>
        
      </trkpt>
      <trkpt lat="44.081586" lon="145.043422">
        <ele>311.2</ele>
        <time>2023-09-27T23:56:45.000Z</time>
        
      </trkpt>
      <trkpt lat="44.081128" lon="145.042175">
        <ele>315.2</ele>
        <time>2023-09-27T23:57:21.000Z</time>
        
      </trkpt>
      <trkpt lat="44.080586" lon="145.040725">
        <ele>319.6</ele>
        <time>2023-09-27T23:57:57.000Z</time>
        
      </trkpt>
      <trkpt lat="44.08007" lon="145.039985">
        <ele>324.2</ele>
        <time>2023-09-27T23:58:33.000Z</time>
        
      </trkpt>
      <trkpt lat="44.079422" lon="145.040189">
        <ele>330.2</ele>
        <time>2023-09-27T23:59:09.000Z</time>
        
      </trkpt>
      <trkpt lat="44.078971" lon="145.041182">
        <ele>335.8</ele>
        <time>2023-09-27T23:59:45.000Z</time>
        
      </trkpt>
      <trkpt lat="44.078524" lon="145.042389">
        <ele>340.6</ele>
        <time>2023-09-28T00:00:21.000Z</time>
        
      </trkpt>
      <trkpt lat="44.078107" lon="145.043513">
        <ele>345.6</ele>
        <time>2023-09-28T00:00:57.000Z</time>
        
      </trkpt>
      <trkpt lat="44.077719" lon="145.044565">
        <ele>351.6</ele>
        <time>2023-09-28T00:01:33.000Z</time>
        
      </trkpt>
      <trkpt lat="44.077305" lon="145.045618">
        <ele>357.2</ele>
        <time>2023-09-28T00:02:09.000Z</time>
        
      </trkpt>
      <trkpt lat="44.076917" lon="145.046723">
        <ele>361</ele>
        <time>2023-09-28T00:03:39.000Z</time>
        
      </trkpt>
      <trkpt lat="44.076304" lon="145.048366">
        <ele>363.6</ele>
        <time>2023-09-28T00:04:15.000Z</time>
        
      </trkpt>
      <trkpt lat="44.07586" lon="145.049582">
        <ele>367.6</ele>
        <time>2023-09-28T00:04:51.000Z</time>
        
      </trkpt>
      <trkpt lat="44.075441" lon="145.050689">
        <ele>369.2</ele>
        <time>2023-09-28T00:05:27.000Z</time>
        
      </trkpt>
      <trkpt lat="44.07508" lon="145.051833">
        <ele>373</ele>
        <time>2023-09-28T00:06:47.000Z</time>
        
      </trkpt>
      <trkpt lat="44.074772" lon="145.053146">
        <ele>377</ele>
        <time>2023-09-28T00:07:23.000Z</time>
        
      </trkpt>
      <trkpt lat="44.074544" lon="145.054606">
        <ele>381.4</ele>
        <time>2023-09-28T00:07:59.000Z</time>
        
      </trkpt>
      <trkpt lat="44.074341" lon="145.055857">
        <ele>384.6</ele>
        <time>2023-09-28T00:08:35.000Z</time>
        
      </trkpt>
      <trkpt lat="44.0741" lon="145.056954">
        <ele>388.8</ele>
        <time>2023-09-28T00:09:11.000Z</time>
        
      </trkpt>
      <trkpt lat="44.073677" lon="145.057932">
        <ele>393.2</ele>
        <time>2023-09-28T00:09:47.000Z</time>
        
      </trkpt>
      <trkpt lat="44.073151" lon="145.058678">
        <ele>398.2</ele>
        <time>2023-09-28T00:10:23.000Z</time>
        
      </trkpt>
      <trkpt lat="44.072644" lon="145.059318">
        <ele>403.2</ele>
        <time>2023-09-28T00:10:59.000Z</time>
        
      </trkpt>
      <trkpt lat="44.072137" lon="145.059955">
        <ele>408</ele>
        <time>2023-09-28T00:11:35.000Z</time>
        
      </trkpt>
      <trkpt lat="44.071583" lon="145.060586">
        <ele>412.4</ele>
        <time>2023-09-28T00:13:01.000Z</time>
        
      </trkpt>
      <trkpt lat="44.071035" lon="145.061274">
        <ele>417.4</ele>
        <time>2023-09-28T00:13:37.000Z</time>
        
      </trkpt>
      <trkpt lat="44.070553" lon="145.062131">
        <ele>421.8</ele>
        <time>2023-09-28T00:14:13.000Z</time>
        
      </trkpt>
      <trkpt lat="44.070389" lon="145.063194">
        <ele>426.4</ele>
        <time>2023-09-28T00:14:49.000Z</time>
        
      </trkpt>
      <trkpt lat="44.070487" lon="145.064314">
        <ele>431</ele>
        <time>2023-09-28T00:15:25.000Z</time>
        
      </trkpt>
      <trkpt lat="44.070574" lon="145.065284">
        <ele>436.6</ele>
        <time>2023-09-28T00:16:01.000Z</time>
        
      </trkpt>
      <trkpt lat="44.070399" lon="145.066246">
        <ele>440.4</ele>
        <time>2023-09-28T00:16:37.000Z</time>
        
      </trkpt>
      <trkpt lat="44.069986" lon="145.067068">
        <ele>443.8</ele>
        <time>2023-09-28T00:17:13.000Z</time>
        
      </trkpt>
      <trkpt lat="44.069546" lon="145.06782">
        <ele>448.4</ele>
        <time>2023-09-28T00:17:49.000Z</time>
        
      </trkpt>
      <trkpt lat="44.06917" lon="145.068573">
        <ele>452.4</ele>
        <time>2023-09-28T00:19:08.000Z</time>
        
      </trkpt>
      <trkpt lat="44.068899" lon="145.069537">
        <ele>458.2</ele>
        <time>2023-09-28T00:19:44.000Z</time>
        
      </trkpt>
      <trkpt lat="44.06884" lon="145.070532">
        <ele>463.4</ele>
        <time>2023-09-28T00:20:42.000Z</time>
        
      </trkpt>
      <trkpt lat="44.068784" lon="145.071529">
        <ele>468.4</ele>
        <time>2023-09-28T00:21:18.000Z</time>
        
      </trkpt>
      <trkpt lat="44.068762" lon="145.07244">
        <ele>472.2</ele>
        <time>2023-09-28T00:21:54.000Z</time>
        
      </trkpt>
      <trkpt lat="44.068723" lon="145.073354">
        <ele>478.6</ele>
        <time>2023-09-28T00:22:30.000Z</time>
        
      </trkpt>
      <trkpt lat="44.068677" lon="145.074311">
        <ele>484.2</ele>
        <time>2023-09-28T00:23:44.000Z</time>
        
      </trkpt>
      <trkpt lat="44.068645" lon="145.075272">
        <ele>489</ele>
        <time>2023-09-28T00:24:20.000Z</time>
        
      </trkpt>
      <trkpt lat="44.068607" lon="145.076273">
        <ele>492.8</ele>
        <time>2023-09-28T00:24:56.000Z</time>
        
      </trkpt>
      <trkpt lat="44.068551" lon="145.077368">
        <ele>497.6</ele>
        <time>2023-09-28T00:25:32.000Z</time>
        
      </trkpt>
      <trkpt lat="44.068385" lon="145.078493">
        <ele>503.8</ele>
        <time>2023-09-28T00:31:39.000Z</time>
        
      </trkpt>
      <trkpt lat="44.068118" lon="145.079431">
        <ele>508.8</ele>
        <time>2023-09-28T00:32:15.000Z</time>
        
      </trkpt>
      <trkpt lat="44.067817" lon="145.080288">
        <ele>514</ele>
        <time>2023-09-28T00:32:51.000Z</time>
        
      </trkpt>
      <trkpt lat="44.06752" lon="145.081101">
        <ele>518.8</ele>
        <time>2023-09-28T00:33:27.000Z</time>
        
      </trkpt>
      <trkpt lat="44.067231" lon="145.081917">
        <ele>523.2</ele>
        <time>2023-09-28T00:34:03.000Z</time>
        
      </trkpt>
      <trkpt lat="44.066839" lon="145.082846">
        <ele>531</ele>
        <time>2023-09-28T00:39:54.000Z</time>
        
      </trkpt>
      <trkpt lat="44.066417" lon="145.083633">
        <ele>534.2</ele>
        <time>2023-09-28T00:40:30.000Z</time>
        
      </trkpt>
      <trkpt lat="44.065955" lon="145.084406">
        <ele>537.8</ele>
        <time>2023-09-28T00:41:06.000Z</time>
        
      </trkpt>
      <trkpt lat="44.065501" lon="145.085177">
        <ele>541</ele>
        <time>2023-09-28T00:41:42.000Z</time>
        
      </trkpt>
      <trkpt lat="44.065088" lon="145.085877">
        <ele>543.8</ele>
        <time>2023-09-28T00:42:18.000Z</time>
        
      </trkpt>
      <trkpt lat="44.06464" lon="145.086634">
        <ele>546.8</ele>
        <time>2023-09-28T00:42:54.000Z</time>
        
      </trkpt>
      <trkpt lat="44.064214" lon="145.087343">
        <ele>551.6</ele>
        <time>2023-09-28T00:43:30.000Z</time>
        
      </trkpt>
      <trkpt lat="44.063662" lon="145.087872">
        <ele>556.2</ele>
        <time>2023-09-28T00:44:06.000Z</time>
        
      </trkpt>
      <trkpt lat="44.063031" lon="145.088018">
        <ele>561.4</ele>
        <time>2023-09-28T00:44:42.000Z</time>
        
      </trkpt>
      <trkpt lat="44.062378" lon="145.088047">
        <ele>566.6</ele>
        <time>2023-09-28T00:46:10.000Z</time>
        
      </trkpt>
      <trkpt lat="44.061714" lon="145.088131">
        <ele>570.8</ele>
        <time>2023-09-28T00:46:46.000Z</time>
        
      </trkpt>
      <trkpt lat="44.061211" lon="145.088683">
        <ele>576</ele>
        <time>2023-09-28T00:47:22.000Z</time>
        
      </trkpt>
      <trkpt lat="44.061082" lon="145.089601">
        <ele>581.8</ele>
        <time>2023-09-28T00:47:58.000Z</time>
        
      </trkpt>
      <trkpt lat="44.061032" lon="145.090576">
        <ele>587.2</ele>
        <time>2023-09-28T00:48:34.000Z</time>
        
      </trkpt>
      <trkpt lat="44.061114" lon="145.091445">
        <ele>591.6</ele>
        <time>2023-09-28T00:49:10.000Z</time>
        
      </trkpt>
      <trkpt lat="44.061279" lon="145.092406">
        <ele>596.4</ele>
        <time>2023-09-28T00:51:50.000Z</time>
        
      </trkpt>
      <trkpt lat="44.061525" lon="145.093283">
        <ele>601.8</ele>
        <time>2023-09-28T00:52:26.000Z</time>
        
      </trkpt>
      <trkpt lat="44.061399" lon="145.094184">
        <ele>606.2</ele>
        <time>2023-09-28T00:53:02.000Z</time>
        
      </trkpt>
      <trkpt lat="44.060915" lon="145.094937">
        <ele>608.4</ele>
        <time>2023-09-28T00:53:38.000Z</time>
        
      </trkpt>
      <trkpt lat="44.060442" lon="145.095666">
        <ele>611.8</ele>
        <time>2023-09-28T00:54:14.000Z</time>
        
      </trkpt>
      <trkpt lat="44.05999" lon="145.096313">
        <ele>616.6</ele>
        <time>2023-09-28T00:54:50.000Z</time>
        
      </trkpt>
      <trkpt lat="44.059494" lon="145.096929">
        <ele>621.4</ele>
        <time>2023-09-28T00:57:07.000Z</time>
        
      </trkpt>
      <trkpt lat="44.058916" lon="145.097308">
        <ele>627</ele>
        <time>2023-09-28T01:00:18.000Z</time>
        
      </trkpt>
      <trkpt lat="44.058225" lon="145.097447">
        <ele>632</ele>
        <time>2023-09-28T01:00:54.000Z</time>
        
      </trkpt>
      <trkpt lat="44.057548" lon="145.097289">
        <ele>636.6</ele>
        <time>2023-09-28T01:01:30.000Z</time>
        
      </trkpt>
      <trkpt lat="44.056915" lon="145.096928">
        <ele>641.8</ele>
        <time>2023-09-28T01:02:06.000Z</time>
        
      </trkpt>
      <trkpt lat="44.056216" lon="145.096503">
        <ele>647.6</ele>
        <time>2023-09-28T01:03:20.000Z</time>
        
      </trkpt>
      <trkpt lat="44.055773" lon="145.095518">
        <ele>652</ele>
        <time>2023-09-28T01:04:35.000Z</time>
        
      </trkpt>
      <trkpt lat="44.056248" lon="145.094592">
        <ele>654.4</ele>
        <time>2023-09-28T01:05:11.000Z</time>
        
      </trkpt>
      <trkpt lat="44.057041" lon="145.094089">
        <ele>660.4</ele>
        <time>2023-09-28T01:07:48.000Z</time>
        
      </trkpt>
      <trkpt lat="44.057363" lon="145.093132">
        <ele>668.4</ele>
        <time>2023-09-28T01:08:24.000Z</time>
        
      </trkpt>
      <trkpt lat="44.056765" lon="145.093024">
        <ele>672.4</ele>
        <time>2023-09-28T01:09:08.000Z</time>
        
      </trkpt>
      <trkpt lat="44.056025" lon="145.093472">
        <ele>676.4</ele>
        <time>2023-09-28T01:15:48.000Z</time>
        
      </trkpt>
      <trkpt lat="44.055298" lon="145.093924">
        <ele>680.2</ele>
        <time>2023-09-28T01:16:24.000Z</time>
        
      </trkpt>
      <trkpt lat="44.054704" lon="145.094703">
        <ele>686</ele>
        <time>2023-09-28T01:17:00.000Z</time>
        
      </trkpt>
      <trkpt lat="44.054875" lon="145.095732">
        <ele>691.4</ele>
        <time>2023-09-28T01:17:36.000Z</time>
        
      </trkpt>
      <trkpt lat="44.055136" lon="145.096682">
        <ele>697.2</ele>
        <time>2023-09-28T01:18:12.000Z</time>
        
      </trkpt>
      <trkpt lat="44.055055" lon="145.097519">
        <ele>702.2</ele>
        <time>2023-09-28T01:18:48.000Z</time>
        
      </trkpt>
      <trkpt lat="44.054527" lon="145.097955">
        <ele>703.8</ele>
        <time>2023-09-28T01:19:24.000Z</time>
        
      </trkpt>
      <trkpt lat="44.053879" lon="145.098236">
        <ele>707</ele>
        <time>2023-09-28T01:20:00.000Z</time>
        
      </trkpt>
      <trkpt lat="44.053276" lon="145.098881">
        <ele>710.4</ele>
        <time>2023-09-28T01:20:36.000Z</time>
        
      </trkpt>
      <trkpt lat="44.053058" lon="145.100128">
        <ele>713.8</ele>
        <time>2023-09-28T01:21:12.000Z</time>
        
      </trkpt>
      <trkpt lat="44.053498" lon="145.101233">
        <ele>718.4</ele>
        <time>2023-09-28T01:21:48.000Z</time>
        
      </trkpt>
      <trkpt lat="44.054217" lon="145.101879">
        <ele>723.8</ele>
        <time>2023-09-28T01:22:24.000Z</time>
        
      </trkpt>
      <trkpt lat="44.054842" lon="145.102403">
        <ele>728</ele>
        <time>2023-09-28T01:23:00.000Z</time>
        
      </trkpt>
      <trkpt lat="44.055409" lon="145.103028">
        <ele>733</ele>
        <time>2023-09-28T01:23:36.000Z</time>
        
      </trkpt>
      <trkpt lat="44.055563" lon="145.103966">
        <ele>737.6</ele>
        <time>2023-09-28T01:24:12.000Z</time>
        
      </trkpt>
      <trkpt lat="44.055188" lon="145.104814">
        <ele>740.4</ele>
        <time>2023-09-28T01:25:01.000Z</time>
        
      </trkpt>
      <trkpt lat="44.054495" lon="145.104918">
        <ele>742</ele>
        <time>2023-09-28T01:25:52.000Z</time>
        
      </trkpt>
      <trkpt lat="44.053882" lon="145.104942">
        <ele>743.8</ele>
        <time>2023-09-28T01:26:54.000Z</time>
        
      </trkpt>
      <trkpt lat="44.053241" lon="145.104562">
        <ele>742.8</ele>
        <time>2023-09-28T01:36:56.000Z</time>
        
      </trkpt>
      <trkpt lat="44.053934" lon="145.10496">
        <ele>743.6</ele>
        <time>2023-09-28T01:37:32.000Z</time>
        
      </trkpt>
      <trkpt lat="44.053361" lon="145.104455">
        <ele>741.8</ele>
        <time>2023-09-28T01:38:36.000Z</time>
        
      </trkpt>
      <trkpt lat="44.052052" lon="145.104081">
        <ele>738</ele>
        <time>2023-09-28T01:39:30.000Z</time>
        
      </trkpt>
      <trkpt lat="44.050209" lon="145.104008">
        <ele>730</ele>
        <time>2023-09-28T01:40:06.000Z</time>
        
      </trkpt>
      <trkpt lat="44.049062" lon="145.103275">
        <ele>733.2</ele>
        <time>2023-09-28T01:40:42.000Z</time>
        
      </trkpt>
      <trkpt lat="44.04822" lon="145.103334">
        <ele>736.8</ele>
        <time>2023-09-28T01:41:18.000Z</time>
        
      </trkpt>
      <trkpt lat="44.047364" lon="145.103384">
        <ele>740.6</ele>
        <time>2023-09-28T01:41:54.000Z</time>
        
      </trkpt>
      <trkpt lat="44.04683" lon="145.104261">
        <ele>745.6</ele>
        <time>2023-09-28T01:42:30.000Z</time>
        
      </trkpt>
      <trkpt lat="44.04578" lon="145.104323">
        <ele>746.8</ele>
        <time>2023-09-28T01:43:06.000Z</time>
        
      </trkpt>
      <trkpt lat="44.043658" lon="145.104008">
        <ele>733.6</ele>
        <time>2023-09-28T01:43:42.000Z</time>
        
      </trkpt>
      <trkpt lat="44.041555" lon="145.10371">
        <ele>714.8</ele>
        <time>2023-09-28T01:44:18.000Z</time>
        
      </trkpt>
      <trkpt lat="44.03961" lon="145.103756">
        <ele>702.4</ele>
        <time>2023-09-28T01:45:14.000Z</time>
        
      </trkpt>
      <trkpt lat="44.037995" lon="145.100623">
        <ele>688.8</ele>
        <time>2023-09-28T01:45:50.000Z</time>
        
      </trkpt>
      <trkpt lat="44.035938" lon="145.102436">
        <ele>679.4</ele>
        <time>2023-09-28T01:46:26.000Z</time>
        
      </trkpt>
      <trkpt lat="44.035349" lon="145.104143">
        <ele>679</ele>
        <time>2023-09-28T01:47:02.000Z</time>
        
      </trkpt>
      <trkpt lat="44.035265" lon="145.105314">
        <ele>683.8</ele>
        <time>2023-09-28T01:47:38.000Z</time>
        
      </trkpt>
      <trkpt lat="44.035182" lon="145.106145">
        <ele>687.2</ele>
        <time>2023-09-28T01:48:26.000Z</time>
        
      </trkpt>
      <trkpt lat="44.034143" lon="145.106726">
        <ele>687</ele>
        <time>2023-09-28T01:49:30.000Z</time>
        
      </trkpt>
      <trkpt lat="44.032748" lon="145.106894">
        <ele>682</ele>
        <time>2023-09-28T01:50:25.000Z</time>
        
      </trkpt>
      <trkpt lat="44.030865" lon="145.108493">
        <ele>670</ele>
        <time>2023-09-28T01:51:01.000Z</time>
        
      </trkpt>
      <trkpt lat="44.033002" lon="145.109408">
        <ele>651.6</ele>
        <time>2023-09-28T01:51:37.000Z</time>
        
      </trkpt>
      <trkpt lat="44.035706" lon="145.107972">
        <ele>633.4</ele>
        <time>2023-09-28T01:52:13.000Z</time>
        
      </trkpt>
      <trkpt lat="44.035018" lon="145.111098">
        <ele>614.2</ele>
        <time>2023-09-28T01:52:49.000Z</time>
        
      </trkpt>
      <trkpt lat="44.035576" lon="145.114252">
        <ele>601.6</ele>
        <time>2023-09-28T01:55:04.000Z</time>
        
      </trkpt>
      <trkpt lat="44.037324" lon="145.117722">
        <ele>585.4</ele>
        <time>2023-09-28T01:55:40.000Z</time>
        
      </trkpt>
      <trkpt lat="44.035826" lon="145.118698">
        <ele>576.4</ele>
        <time>2023-09-28T01:57:19.000Z</time>
        
      </trkpt>
      <trkpt lat="44.033432" lon="145.116795">
        <ele>562.4</ele>
        <time>2023-09-28T01:57:55.000Z</time>
        
      </trkpt>
      <trkpt lat="44.034291" lon="145.119327">
        <ele>550.8</ele>
        <time>2023-09-28T01:58:31.000Z</time>
        
      </trkpt>
      <trkpt lat="44.035759" lon="145.12276">
        <ele>534</ele>
        <time>2023-09-28T01:59:07.000Z</time>
        
      </trkpt>
      <trkpt lat="44.038346" lon="145.125349">
        <ele>517.2</ele>
        <time>2023-09-28T01:59:43.000Z</time>
        
      </trkpt>
      <trkpt lat="44.037723" lon="145.12613">
        <ele>504.8</ele>
        <time>2023-09-28T02:00:45.000Z</time>
        
      </trkpt>
      <trkpt lat="44.037388" lon="145.12666">
        <ele>488.8</ele>
        <time>2023-09-28T02:01:21.000Z</time>
        
      </trkpt>
      <trkpt lat="44.037769" lon="145.128996">
        <ele>471</ele>
        <time>2023-09-28T02:01:57.000Z</time>
        
      </trkpt>
      <trkpt lat="44.036626" lon="145.130448">
        <ele>452.6</ele>
        <time>2023-09-28T02:02:33.000Z</time>
        
      </trkpt>
      <trkpt lat="44.034668" lon="145.133914">
        <ele>433.8</ele>
        <time>2023-09-28T02:03:09.000Z</time>
        
      </trkpt>
      <trkpt lat="44.034072" lon="145.129173">
        <ele>410.2</ele>
        <time>2023-09-28T02:03:45.000Z</time>
        
      </trkpt>
      <trkpt lat="44.033223" lon="145.132671">
        <ele>388.6</ele>
        <time>2023-09-28T02:04:21.000Z</time>
        
      </trkpt>
      <trkpt lat="44.032604" lon="145.13771">
        <ele>358.6</ele>
        <time>2023-09-28T02:04:57.000Z</time>
        
      </trkpt>
      <trkpt lat="44.032399" lon="145.140202">
        <ele>338</ele>
        <time>2023-09-28T02:05:33.000Z</time>
        
      </trkpt>
      <trkpt lat="44.030384" lon="145.139596">
        <ele>310.4</ele>
        <time>2023-09-28T02:06:09.000Z</time>
        
      </trkpt>
      <trkpt lat="44.030576" lon="145.136721">
        <ele>295.2</ele>
        <time>2023-09-28T02:07:02.000Z</time>
        
      </trkpt>
      <trkpt lat="44.030241" lon="145.133303">
        <ele>274.6</ele>
        <time>2023-09-28T02:09:20.000Z</time>
        
      </trkpt>
      <trkpt lat="44.029689" lon="145.13492">
        <ele>254.4</ele>
        <time>2023-09-28T02:09:56.000Z</time>
        
      </trkpt>
      <trkpt lat="44.029178" lon="145.140044">
        <ele>223.4</ele>
        <time>2023-09-28T02:10:32.000Z</time>
        
      </trkpt>
      <trkpt lat="44.030051" lon="145.144924">
        <ele>196.2</ele>
        <time>2023-09-28T02:11:08.000Z</time>
        
      </trkpt>
      <trkpt lat="44.033284" lon="145.145146">
        <ele>175.4</ele>
        <time>2023-09-28T02:11:44.000Z</time>
        
      </trkpt>
      <trkpt lat="44.033994" lon="145.144679">
        <ele>169.6</ele>
        <time>2023-09-28T02:39:33.000Z</time>
        
      </trkpt>
      <trkpt lat="44.034057" lon="145.146891">
        <ele>162.4</ele>
        <time>2023-09-28T02:40:09.000Z</time>
        
      </trkpt>
      <trkpt lat="44.032715" lon="145.149976">
        <ele>150.6</ele>
        <time>2023-09-28T02:40:45.000Z</time>
        
      </trkpt>
      <trkpt lat="44.032941" lon="145.153533">
        <ele>141</ele>
        <time>2023-09-28T02:41:21.000Z</time>
        
      </trkpt>
      <trkpt lat="44.032417" lon="145.155214">
        <ele>126.6</ele>
        <time>2023-09-28T02:42:22.000Z</time>
        
      </trkpt>
      <trkpt lat="44.032103" lon="145.156828">
        <ele>116.8</ele>
        <time>2023-09-28T03:22:48.000Z</time>
        
      </trkpt>
      <trkpt lat="44.031735" lon="145.15971">
        <ele>101</ele>
        <time>2023-09-28T03:23:44.000Z</time>
        
      </trkpt>
      <trkpt lat="44.031844" lon="145.161228">
        <ele>88.4</ele>
        <time>2023-09-28T03:51:54.000Z</time>
        
      </trkpt>
      <trkpt lat="44.031465" lon="145.162618">
        <ele>85.2</ele>
        <time>2023-09-28T03:52:30.000Z</time>
        
      </trkpt>
      <trkpt lat="44.030286" lon="145.164533">
        <ele>79.4</ele>
        <time>2023-09-28T03:53:42.000Z</time>
        
      </trkpt>
      <trkpt lat="44.030428" lon="145.168056">
        <ele>66.8</ele>
        <time>2023-09-28T03:54:18.000Z</time>
        
      </trkpt>
      <trkpt lat="44.03029" lon="145.171618">
        <ele>58.4</ele>
        <time>2023-09-28T03:54:54.000Z</time>
        
      </trkpt>
      <trkpt lat="44.029966" lon="145.173609">
        <ele>53.6</ele>
        <time>2023-09-28T03:55:48.000Z</time>
        
      </trkpt>
      <trkpt lat="44.029656" lon="145.174835">
        <ele>51.8</ele>
        <time>2023-09-28T03:56:24.000Z</time>
        
      </trkpt>
      <trkpt lat="44.02959" lon="145.175663">
        <ele>50.6</ele>
        <time>2023-09-28T04:12:34.000Z</time>
        
      </trkpt>
      <trkpt lat="44.028774" lon="145.1773">
        <ele>47.8</ele>
        <time>2023-09-28T04:13:10.000Z</time>
        
      </trkpt>
      <trkpt lat="44.02907" lon="145.179726">
        <ele>47.2</ele>
        <time>2023-09-28T04:13:46.000Z</time>
        
      </trkpt>
      <trkpt lat="44.028255" lon="145.182132">
        <ele>40.6</ele>
        <time>2023-09-28T04:14:22.000Z</time>
        
      </trkpt>
      <trkpt lat="44.026258" lon="145.184471">
        <ele>31.4</ele>
        <time>2023-09-28T04:14:58.000Z</time>
        
      </trkpt>
      <trkpt lat="44.024022" lon="145.186455">
        <ele>23.4</ele>
        <time>2023-09-28T04:15:34.000Z</time>
        
      </trkpt>
      <trkpt lat="44.022968" lon="145.188415">
        <ele>18.6</ele>
        <time>2023-09-28T04:16:10.000Z</time>
        
      </trkpt>
      <trkpt lat="44.022872" lon="145.188528">
        <ele>17.8</ele>
        <time>2023-09-28T04:17:16.000Z</time>
        
      </trkpt>
      <trkpt lat="44.023488" lon="145.187494">
        <ele>19.8</ele>
        <time>2023-09-28T04:57:51.000Z</time>
        
      </trkpt>
      <trkpt lat="44.022701" lon="145.18885">
        <ele>17.8</ele>
        <time>2023-09-28T04:58:27.000Z</time>
        
      </trkpt>
      <trkpt lat="44.021618" lon="145.190722">
        <ele>15.2</ele>
        <time>2023-09-28T04:59:03.000Z</time>
        
      </trkpt>
      <trkpt lat="44.0202" lon="145.19283">
        <ele>11.2</ele>
        <time>2023-09-28T04:59:39.000Z</time>
        
      </trkpt>
      <trkpt lat="44.020623" lon="145.193909">
        <ele>11.4</ele>
        <time>2023-09-28T05:02:50.000Z</time>
        
      </trkpt>
      <trkpt lat="44.021024" lon="145.19488">
        <ele>18.4</ele>
        <time>2023-09-28T05:03:26.000Z</time>
        
      </trkpt>
      <trkpt lat="44.021483" lon="145.195827">
        <ele>23.2</ele>
        <time>2023-09-28T05:04:02.000Z</time>
        
      </trkpt>
      <trkpt lat="44.022142" lon="145.197583">
        <ele>24.4</ele>
        <time>2023-09-28T05:04:38.000Z</time>
        
      </trkpt>
      <trkpt lat="44.023511" lon="145.199629">
        <ele>19.4</ele>
        <time>2023-09-28T05:05:14.000Z</time>
        
      </trkpt>
      <trkpt lat="44.025357" lon="145.200941">
        <ele>18.8</ele>
        <time>2023-09-28T05:05:50.000Z</time>
        
      </trkpt>
      <trkpt lat="44.027323" lon="145.202703">
        <ele>14.4</ele>
        <time>2023-09-28T05:06:26.000Z</time>
        
      </trkpt>
      <trkpt lat="44.028535" lon="145.203848">
        <ele>15</ele>
        <time>2023-09-28T05:07:08.000Z</time>
        
      </trkpt>
      <trkpt lat="44.030049" lon="145.204836">
        <ele>12.2</ele>
        <time>2023-09-28T05:07:44.000Z</time>
        
      </trkpt>
      <trkpt lat="44.030738" lon="145.205788">
        <ele>14.6</ele>
        <time>2023-09-28T05:08:20.000Z</time>
        
      </trkpt>
      <trkpt lat="44.031367" lon="145.206751">
        <ele>14.6</ele>
        <time>2023-09-28T05:08:56.000Z</time>
        
      </trkpt>
      <trkpt lat="44.033146" lon="145.21021">
        <ele>14.2</ele>
        <time>2023-09-28T05:09:38.000Z</time>
        
      </trkpt>
      <trkpt lat="44.033318" lon="145.213468">
        <ele>12.2</ele>
        <time>2023-09-28T05:10:14.000Z</time>
        
      </trkpt>
      <trkpt lat="44.034228" lon="145.215708">
        <ele>14.8</ele>
        <time>2023-09-28T05:10:50.000Z</time>
        
      </trkpt>
      <trkpt lat="44.035842" lon="145.217102">
        <ele>13.4</ele>
        <time>2023-09-28T05:11:26.000Z</time>
        
      </trkpt>
      <trkpt lat="44.036817" lon="145.218719">
        <ele>16.6</ele>
        <time>2023-09-28T05:12:02.000Z</time>
        
      </trkpt>
      <trkpt lat="44.037478" lon="145.219733">
        <ele>17.8</ele>
        <time>2023-09-28T05:12:38.000Z</time>
        
      </trkpt>
      <trkpt lat="44.039547" lon="145.222664">
        <ele>17</ele>
        <time>2023-09-28T05:13:14.000Z</time>
        
      </trkpt>
      <trkpt lat="44.04127" lon="145.224194">
        <ele>17</ele>
        <time>2023-09-28T05:13:50.000Z</time>
        
      </trkpt>
      <trkpt lat="44.042883" lon="145.225667">
        <ele>16</ele>
        <time>2023-09-28T05:14:26.000Z</time>
        
      </trkpt>
      <trkpt lat="44.044749" lon="145.227582">
        <ele>14</ele>
        <time>2023-09-28T05:15:02.000Z</time>
        
      </trkpt>
      <trkpt lat="44.046481" lon="145.229306">
        <ele>13.4</ele>
        <time>2023-09-28T05:15:38.000Z</time>
        
      </trkpt>
      <trkpt lat="44.048525" lon="145.230188">
        <ele>12.8</ele>
        <time>2023-09-28T05:16:14.000Z</time>
        
      </trkpt>
      <trkpt lat="44.050155" lon="145.231156">
        <ele>14.4</ele>
        <time>2023-09-28T05:16:50.000Z</time>
        
      </trkpt>
      <trkpt lat="44.051947" lon="145.232754">
        <ele>13.2</ele>
        <time>2023-09-28T05:17:26.000Z</time>
        
      </trkpt>
      <trkpt lat="44.053392" lon="145.233618">
        <ele>12</ele>
        <time>2023-09-28T05:18:23.000Z</time>
        
      </trkpt>
      <trkpt lat="44.054858" lon="145.234927">
        <ele>12.6</ele>
        <time>2023-09-28T05:18:59.000Z</time>
        
      </trkpt>
      <trkpt lat="44.056378" lon="145.236993">
        <ele>11.8</ele>
        <time>2023-09-28T05:19:35.000Z</time>
        
      </trkpt>
      <trkpt lat="44.058136" lon="145.237979">
        <ele>13.2</ele>
        <time>2023-09-28T05:20:11.000Z</time>
        
      </trkpt>
      <trkpt lat="44.060094" lon="145.238008">
        <ele>13.2</ele>
        <time>2023-09-28T05:20:47.000Z</time>
        
      </trkpt>
      <trkpt lat="44.061874" lon="145.237445">
        <ele>13.2</ele>
        <time>2023-09-28T05:21:23.000Z</time>
        
      </trkpt>
      <trkpt lat="44.063824" lon="145.238219">
        <ele>12.4</ele>
        <time>2023-09-28T05:21:59.000Z</time>
        
      </trkpt>
      <trkpt lat="44.065404" lon="145.239966">
        <ele>11.4</ele>
        <time>2023-09-28T05:22:35.000Z</time>
        
      </trkpt>
      <trkpt lat="44.066226" lon="145.242682">
        <ele>10.8</ele>
        <time>2023-09-28T05:23:11.000Z</time>
        
      </trkpt>
      <trkpt lat="44.067783" lon="145.244353">
        <ele>11.8</ele>
        <time>2023-09-28T05:23:47.000Z</time>
        
      </trkpt>
      <trkpt lat="44.069779" lon="145.243684">
        <ele>11.6</ele>
        <time>2023-09-28T05:24:23.000Z</time>
        
      </trkpt>
      <trkpt lat="44.071733" lon="145.242523">
        <ele>11</ele>
        <time>2023-09-28T05:24:59.000Z</time>
        
      </trkpt>
      <trkpt lat="44.073738" lon="145.243052">
        <ele>11</ele>
        <time>2023-09-28T05:25:35.000Z</time>
        
      </trkpt>
      <trkpt lat="44.075459" lon="145.242578">
        <ele>12.8</ele>
        <time>2023-09-28T05:26:11.000Z</time>
        
      </trkpt>
      <trkpt lat="44.07696" lon="145.241019">
        <ele>13.2</ele>
        <time>2023-09-28T05:26:47.000Z</time>
        
      </trkpt>
      <trkpt lat="44.078106" lon="145.240337">
        <ele>14.2</ele>
        <time>2023-09-28T05:27:23.000Z</time>
        
      </trkpt>
      <trkpt lat="44.079063" lon="145.240244">
        <ele>14.6</ele>
        <time>2023-09-28T05:27:59.000Z</time>
        
      </trkpt>
      <trkpt lat="44.080021" lon="145.240152">
        <ele>14.6</ele>
        <time>2023-09-28T05:28:35.000Z</time>
        
      </trkpt>
      <trkpt lat="44.080978" lon="145.240059">
        <ele>14.6</ele>
        <time>2023-09-28T05:29:11.000Z</time>
        
      </trkpt>
      <trkpt lat="44.085729" lon="145.239381">
        <ele>14.8</ele>
        <time>2023-09-28T05:30:06.000Z</time>
        
      </trkpt>
      <trkpt lat="44.087456" lon="145.239113">
        <ele>13.6</ele>
        <time>2023-09-28T05:30:42.000Z</time>
        
      </trkpt>
      <trkpt lat="44.089275" lon="145.238874">
        <ele>12.8</ele>
        <time>2023-09-28T05:31:18.000Z</time>
        
      </trkpt>
      <trkpt lat="44.090148" lon="145.238948">
        <ele>12</ele>
        <time>2023-09-28T05:31:54.000Z</time>
        
      </trkpt>
      <trkpt lat="44.090967" lon="145.239274">
        <ele>10.8</ele>
        <time>2023-09-28T05:32:30.000Z</time>
        
      </trkpt>
      <trkpt lat="44.091785" lon="145.239601">
        <ele>10.2</ele>
        <time>2023-09-28T05:33:06.000Z</time>
        
      </trkpt>
      <trkpt lat="44.096044" lon="145.241497">
        <ele>9.2</ele>
        <time>2023-09-28T05:33:42.000Z</time>
        
      </trkpt>
      <trkpt lat="44.098625" lon="145.24255">
        <ele>9.6</ele>
        <time>2023-09-28T05:34:18.000Z</time>
        
      </trkpt>
      <trkpt lat="44.100597" lon="145.243455">
        <ele>9.4</ele>
        <time>2023-09-28T05:35:35.000Z</time>
        
      </trkpt>
      <trkpt lat="44.102379" lon="145.244234">
        <ele>8.2</ele>
        <time>2023-09-28T05:36:17.000Z</time>
        
      </trkpt>
      <trkpt lat="44.104101" lon="145.245059">
        <ele>10.4</ele>
        <time>2023-09-28T05:36:53.000Z</time>
        
      </trkpt>
      <trkpt lat="44.105414" lon="145.247255">
        <ele>9.4</ele>
        <time>2023-09-28T05:37:29.000Z</time>
        
      </trkpt>
      <trkpt lat="44.10732" lon="145.248509">
        <ele>9.8</ele>
        <time>2023-09-28T05:38:05.000Z</time>
        
      </trkpt>
      <trkpt lat="44.109245" lon="145.249281">
        <ele>9.6</ele>
        <time>2023-09-28T05:38:41.000Z</time>
        
      </trkpt>
      <trkpt lat="44.111225" lon="145.249456">
        <ele>10.8</ele>
        <time>2023-09-28T05:39:17.000Z</time>
        
      </trkpt>
      <trkpt lat="44.113274" lon="145.249953">
        <ele>11.6</ele>
        <time>2023-09-28T05:39:53.000Z</time>
        
      </trkpt>
      <trkpt lat="44.115294" lon="145.250636">
        <ele>11.4</ele>
        <time>2023-09-28T05:40:29.000Z</time>
        
      </trkpt>
      <trkpt lat="44.117414" lon="145.252013">
        <ele>9.4</ele>
        <time>2023-09-28T05:41:05.000Z</time>
        
      </trkpt>
      <trkpt lat="44.119577" lon="145.253238">
        <ele>9.8</ele>
        <time>2023-09-28T05:41:41.000Z</time>
        
      </trkpt>
      <trkpt lat="44.121343" lon="145.254222">
        <ele>12</ele>
        <time>2023-09-28T05:42:17.000Z</time>
        
      </trkpt>
      <trkpt lat="44.123487" lon="145.254525">
        <ele>11.2</ele>
        <time>2023-09-28T05:42:53.000Z</time>
        
      </trkpt>
      <trkpt lat="44.125637" lon="145.25482">
        <ele>10.4</ele>
        <time>2023-09-28T05:43:29.000Z</time>
        
      </trkpt>
      <trkpt lat="44.127453" lon="145.256527">
        <ele>9.4</ele>
        <time>2023-09-28T05:44:05.000Z</time>
        
      </trkpt>
      <trkpt lat="44.129399" lon="145.257719">
        <ele>9.4</ele>
        <time>2023-09-28T05:44:41.000Z</time>
        
      </trkpt>
      <trkpt lat="44.131137" lon="145.258499">
        <ele>10</ele>
        <time>2023-09-28T05:45:17.000Z</time>
        
      </trkpt>
      <trkpt lat="44.133401" lon="145.259088">
        <ele>9.8</ele>
        <time>2023-09-28T05:45:53.000Z</time>
        
      </trkpt>
      <trkpt lat="44.13508" lon="145.261161">
        <ele>8</ele>
        <time>2023-09-28T05:46:29.000Z</time>
        
      </trkpt>
      <trkpt lat="44.137193" lon="145.262309">
        <ele>9</ele>
        <time>2023-09-28T05:47:05.000Z</time>
        
      </trkpt>
      <trkpt lat="44.138796" lon="145.263679">
        <ele>8.6</ele>
        <time>2023-09-28T05:47:41.000Z</time>
        
      </trkpt>
      <trkpt lat="44.139046" lon="145.26469">
        <ele>8.4</ele>
        <time>2023-09-28T06:04:32.000Z</time>
        
      </trkpt>
      <trkpt lat="44.139918" lon="145.2665">
        <ele>8.8</ele>
        <time>2023-09-28T06:05:08.000Z</time>
        
      </trkpt>
      <trkpt lat="44.141354" lon="145.268466">
        <ele>8.4</ele>
        <time>2023-09-28T06:05:44.000Z</time>
        
      </trkpt>
      <trkpt lat="44.142772" lon="145.270056">
        <ele>10.4</ele>
        <time>2023-09-28T06:06:20.000Z</time>
        
      </trkpt>
      <trkpt lat="44.144032" lon="145.27246">
        <ele>8.4</ele>
        <time>2023-09-28T06:06:56.000Z</time>
        
      </trkpt>
      <trkpt lat="44.145376" lon="145.274632">
        <ele>8.4</ele>
        <time>2023-09-28T06:07:32.000Z</time>
        
      </trkpt>
      <trkpt lat="44.146264" lon="145.27695">
        <ele>9.2</ele>
        <time>2023-09-28T06:08:08.000Z</time>
        
      </trkpt>
      <trkpt lat="44.147189" lon="145.278653">
        <ele>9.8</ele>
        <time>2023-09-28T06:09:26.000Z</time>
        
      </trkpt>
      <trkpt lat="44.148343" lon="145.281238">
        <ele>8.4</ele>
        <time>2023-09-28T06:10:02.000Z</time>
        
      </trkpt>
      <trkpt lat="44.149721" lon="145.284265">
        <ele>7</ele>
        <time>2023-09-28T06:10:38.000Z</time>
        
      </trkpt>
      <trkpt lat="44.151535" lon="145.286659">
        <ele>7.2</ele>
        <time>2023-09-28T06:11:14.000Z</time>
        
      </trkpt>
      <trkpt lat="44.153648" lon="145.287937">
        <ele>7</ele>
        <time>2023-09-28T06:11:50.000Z</time>
        
      </trkpt>
      <trkpt lat="44.155168" lon="145.289938">
        <ele>7</ele>
        <time>2023-09-28T06:12:26.000Z</time>
        
      </trkpt>
      <trkpt lat="44.156576" lon="145.292105">
        <ele>7.8</ele>
        <time>2023-09-28T06:13:02.000Z</time>
        
      </trkpt>
      <trkpt lat="44.158328" lon="145.292735">
        <ele>10.4</ele>
        <time>2023-09-28T06:13:38.000Z</time>
        
      </trkpt>
      <trkpt lat="44.160213" lon="145.293573">
        <ele>9.6</ele>
        <time>2023-09-28T06:14:14.000Z</time>
        
      </trkpt>
      <trkpt lat="44.162196" lon="145.294785">
        <ele>7.4</ele>
        <time>2023-09-28T06:14:50.000Z</time>
        
      </trkpt>
      <trkpt lat="44.163973" lon="145.295447">
        <ele>8.8</ele>
        <time>2023-09-28T06:15:26.000Z</time>
        
      </trkpt>
      <trkpt lat="44.165128" lon="145.297625">
        <ele>8.2</ele>
        <time>2023-09-28T06:16:02.000Z</time>
        
      </trkpt>
      <trkpt lat="44.165715" lon="145.300344">
        <ele>8.2</ele>
        <time>2023-09-28T06:16:38.000Z</time>
        
      </trkpt>
      <trkpt lat="44.166489" lon="145.303026">
        <ele>7.6</ele>
        <time>2023-09-28T06:17:14.000Z</time>
        
      </trkpt>
      <trkpt lat="44.168173" lon="145.304702">
        <ele>7.6</ele>
        <time>2023-09-28T06:17:50.000Z</time>
        
      </trkpt>
      <trkpt lat="44.169676" lon="145.306619">
        <ele>7.2</ele>
        <time>2023-09-28T06:18:26.000Z</time>
        
      </trkpt>
      <trkpt lat="44.171469" lon="145.306663">
        <ele>7.6</ele>
        <time>2023-09-28T06:19:02.000Z</time>
        
      </trkpt>
      <trkpt lat="44.173275" lon="145.307346">
        <ele>8.2</ele>
        <time>2023-09-28T06:19:38.000Z</time>
        
      </trkpt>
      <trkpt lat="44.175033" lon="145.308432">
        <ele>8.8</ele>
        <time>2023-09-28T06:20:14.000Z</time>
        
      </trkpt>
      <trkpt lat="44.176687" lon="145.309739">
        <ele>9</ele>
        <time>2023-09-28T06:20:50.000Z</time>
        
      </trkpt>
      <trkpt lat="44.178051" lon="145.31143">
        <ele>9</ele>
        <time>2023-09-28T06:21:26.000Z</time>
        
      </trkpt>
      <trkpt lat="44.179571" lon="145.313619">
        <ele>8.6</ele>
        <time>2023-09-28T06:22:02.000Z</time>
        
      </trkpt>
      <trkpt lat="44.181199" lon="145.315806">
        <ele>8.2</ele>
        <time>2023-09-28T06:22:38.000Z</time>
        
      </trkpt>
      <trkpt lat="44.183314" lon="145.316987">
        <ele>8.6</ele>
        <time>2023-09-28T06:23:14.000Z</time>
        
      </trkpt>
      <trkpt lat="44.184655" lon="145.317265">
        <ele>9.6</ele>
        <time>2023-09-28T06:24:15.000Z</time>
        
      </trkpt>
      <trkpt lat="44.18641" lon="145.317745">
        <ele>9</ele>
        <time>2023-09-28T06:24:51.000Z</time>
        
      </trkpt>
      <trkpt lat="44.188149" lon="145.31894">
        <ele>7.6</ele>
        <time>2023-09-28T06:25:27.000Z</time>
        
      </trkpt>
      <trkpt lat="44.189436" lon="145.32099">
        <ele>7</ele>
        <time>2023-09-28T06:26:03.000Z</time>
        
      </trkpt>
      <trkpt lat="44.190418" lon="145.323213">
        <ele>7.8</ele>
        <time>2023-09-28T06:26:39.000Z</time>
        
      </trkpt>
      <trkpt lat="44.190777" lon="145.324397">
        <ele>7.8</ele>
        <time>2023-09-28T06:27:15.000Z</time>
        
      </trkpt>
      <trkpt lat="44.19077" lon="145.324403">
        <ele>8</ele>
        <time>2023-09-28T06:30:36.000Z</time>
        
      </trkpt>
      <trkpt lat="44.190502" lon="145.323892">
        <ele>7.8</ele>
        <time>2023-09-28T06:31:51.000Z</time>
        
      </trkpt>
      <trkpt lat="44.190237" lon="145.324214">
        <ele>4.4</ele>
        <time>2023-09-28T06:32:58.000Z</time>
        
      </trkpt>
      <trkpt lat="44.190368" lon="145.323177">
        <ele>8.2</ele>
        <time>2023-09-28T06:33:46.000Z</time>
        
      </trkpt>
      <trkpt lat="44.189687" lon="145.321538">
        <ele>7.8</ele>
        <time>2023-09-28T06:34:22.000Z</time>
        
      </trkpt>
      <trkpt lat="44.188758" lon="145.319756">
        <ele>7.4</ele>
        <time>2023-09-28T06:34:58.000Z</time>
        
      </trkpt>
      <trkpt lat="44.18739" lon="145.318339">
        <ele>8</ele>
        <time>2023-09-28T06:35:34.000Z</time>
        
      </trkpt>
      <trkpt lat="44.185815" lon="145.317525">
        <ele>9.4</ele>
        <time>2023-09-28T06:36:10.000Z</time>
        
      </trkpt>
      <trkpt lat="44.184426" lon="145.317338">
        <ele>10</ele>
        <time>2023-09-28T06:36:46.000Z</time>
        
      </trkpt>
      <trkpt lat="44.18461" lon="145.31733">
        <ele>10</ele>
        <time>2023-09-28T06:37:32.000Z</time>
        
      </trkpt>
      <trkpt lat="44.183072" lon="145.31699">
        <ele>10</ele>
        <time>2023-09-28T06:42:15.000Z</time>
        
      </trkpt>
      <trkpt lat="44.181389" lon="145.316124">
        <ele>9.4</ele>
        <time>2023-09-28T06:42:51.000Z</time>
        
      </trkpt>
      <trkpt lat="44.180283" lon="145.314375">
        <ele>9.6</ele>
        <time>2023-09-28T06:43:27.000Z</time>
        
      </trkpt>
      <trkpt lat="44.178966" lon="145.312926">
        <ele>10.2</ele>
        <time>2023-09-28T06:44:03.000Z</time>
        
      </trkpt>
      <trkpt lat="44.178081" lon="145.311624">
        <ele>10</ele>
        <time>2023-09-28T06:44:39.000Z</time>
        
      </trkpt>
      <trkpt lat="44.177676" lon="145.310788">
        <ele>10</ele>
        <time>2023-09-28T07:15:14.000Z</time>
        
      </trkpt>
      <trkpt lat="44.176281" lon="145.309557">
        <ele>9.8</ele>
        <time>2023-09-28T07:15:50.000Z</time>
        
      </trkpt>
      <trkpt lat="44.174684" lon="145.308166">
        <ele>9.2</ele>
        <time>2023-09-28T07:16:26.000Z</time>
        
      </trkpt>
      <trkpt lat="44.172898" lon="145.307185">
        <ele>8.6</ele>
        <time>2023-09-28T07:17:02.000Z</time>
        
      </trkpt>
      <trkpt lat="44.171002" lon="145.306644">
        <ele>8.2</ele>
        <time>2023-09-28T07:17:38.000Z</time>
        
      </trkpt>
      <trkpt lat="44.169054" lon="145.306388">
        <ele>7.6</ele>
        <time>2023-09-28T07:18:14.000Z</time>
        
      </trkpt>
      <trkpt lat="44.167885" lon="145.304426">
        <ele>7.4</ele>
        <time>2023-09-28T07:18:50.000Z</time>
        
      </trkpt>
      <trkpt lat="44.166331" lon="145.302919">
        <ele>7.4</ele>
        <time>2023-09-28T07:19:26.000Z</time>
        
      </trkpt>
      <trkpt lat="44.165714" lon="145.300743">
        <ele>8</ele>
        <time>2023-09-28T07:20:02.000Z</time>
        
      </trkpt>
      <trkpt lat="44.165301" lon="145.298353">
        <ele>8.6</ele>
        <time>2023-09-28T07:20:38.000Z</time>
        
      </trkpt>
      <trkpt lat="44.164404" lon="145.296139">
        <ele>8.8</ele>
        <time>2023-09-28T07:21:14.000Z</time>
        
      </trkpt>
      <trkpt lat="44.162867" lon="145.294955">
        <ele>8.8</ele>
        <time>2023-09-28T07:21:50.000Z</time>
        
      </trkpt>
      <trkpt lat="44.160994" lon="145.294145">
        <ele>8.4</ele>
        <time>2023-09-28T07:22:26.000Z</time>
        
      </trkpt>
      <trkpt lat="44.159394" lon="145.293207">
        <ele>10.2</ele>
        <time>2023-09-28T07:23:02.000Z</time>
        
      </trkpt>
      <trkpt lat="44.157666" lon="145.292545">
        <ele>11</ele>
        <time>2023-09-28T07:23:38.000Z</time>
        
      </trkpt>
      <trkpt lat="44.155777" lon="145.291333">
        <ele>8</ele>
        <time>2023-09-28T07:24:14.000Z</time>
        
      </trkpt>
      <trkpt lat="44.154665" lon="145.28927">
        <ele>7.6</ele>
        <time>2023-09-28T07:24:50.000Z</time>
        
      </trkpt>
      <trkpt lat="44.153195" lon="145.287599">
        <ele>7.8</ele>
        <time>2023-09-28T07:25:26.000Z</time>
        
      </trkpt>
      <trkpt lat="44.151333" lon="145.286595">
        <ele>8</ele>
        <time>2023-09-28T07:26:02.000Z</time>
        
      </trkpt>
      <trkpt lat="44.149939" lon="145.28474">
        <ele>7.8</ele>
        <time>2023-09-28T07:26:38.000Z</time>
        
      </trkpt>
      <trkpt lat="44.14878" lon="145.28267">
        <ele>8.4</ele>
        <time>2023-09-28T07:27:14.000Z</time>
        
      </trkpt>
      <trkpt lat="44.148033" lon="145.280606">
        <ele>9.8</ele>
        <time>2023-09-28T07:27:50.000Z</time>
        
      </trkpt>
      <trkpt lat="44.147145" lon="145.278678">
        <ele>11.2</ele>
        <time>2023-09-28T07:28:26.000Z</time>
        
      </trkpt>
      <trkpt lat="44.146136" lon="145.276663">
        <ele>11.2</ele>
        <time>2023-09-28T07:29:02.000Z</time>
        
      </trkpt>
      <trkpt lat="44.145119" lon="145.274255">
        <ele>10.2</ele>
        <time>2023-09-28T07:29:38.000Z</time>
        
      </trkpt>
      <trkpt lat="44.143757" lon="145.272155">
        <ele>10</ele>
        <time>2023-09-28T07:30:14.000Z</time>
        
      </trkpt>
      <trkpt lat="44.14277" lon="145.270161">
        <ele>12</ele>
        <time>2023-09-28T07:30:50.000Z</time>
        
      </trkpt>
      <trkpt lat="44.141215" lon="145.268372">
        <ele>9.8</ele>
        <time>2023-09-28T07:31:26.000Z</time>
        
      </trkpt>
      <trkpt lat="44.139832" lon="145.266447">
        <ele>11</ele>
        <time>2023-09-28T07:32:02.000Z</time>
        
      </trkpt>
      <trkpt lat="44.138762" lon="145.264217">
        <ele>9.6</ele>
        <time>2023-09-28T07:32:38.000Z</time>
        
      </trkpt>
      <trkpt lat="44.138514" lon="145.263639">
        <ele>9.4</ele>
        <time>2023-09-28T07:40:57.000Z</time>
        
      </trkpt>
      <trkpt lat="44.137296" lon="145.262419">
        <ele>9.4</ele>
        <time>2023-09-28T07:41:33.000Z</time>
        
      </trkpt>
      <trkpt lat="44.135451" lon="145.261447">
        <ele>8.4</ele>
        <time>2023-09-28T07:42:09.000Z</time>
        
      </trkpt>
      <trkpt lat="44.133979" lon="145.259888">
        <ele>8.4</ele>
        <time>2023-09-28T07:42:45.000Z</time>
        
      </trkpt>
      <trkpt lat="44.132473" lon="145.258722">
        <ele>9.2</ele>
        <time>2023-09-28T07:43:21.000Z</time>
        
      </trkpt>
      <trkpt lat="44.130656" lon="145.258177">
        <ele>9.2</ele>
        <time>2023-09-28T07:43:57.000Z</time>
        
      </trkpt>
      <trkpt lat="44.128623" lon="145.257091">
        <ele>8.6</ele>
        <time>2023-09-28T07:44:33.000Z</time>
        
      </trkpt>
      <trkpt lat="44.126923" lon="145.256033">
        <ele>9.2</ele>
        <time>2023-09-28T07:45:09.000Z</time>
        
      </trkpt>
      <trkpt lat="44.125391" lon="145.254772">
        <ele>9.4</ele>
        <time>2023-09-28T07:45:46.000Z</time>
        
      </trkpt>
      <trkpt lat="44.123577" lon="145.254593">
        <ele>9.8</ele>
        <time>2023-09-28T07:46:22.000Z</time>
        
      </trkpt>
      <trkpt lat="44.121777" lon="145.25441">
        <ele>10.6</ele>
        <time>2023-09-28T07:46:58.000Z</time>
        
      </trkpt>
      <trkpt lat="44.120087" lon="145.253593">
        <ele>10.6</ele>
        <time>2023-09-28T07:47:34.000Z</time>
        
      </trkpt>
      <trkpt lat="44.118271" lon="145.252587">
        <ele>8.4</ele>
        <time>2023-09-28T07:48:10.000Z</time>
        
      </trkpt>
      <trkpt lat="44.116593" lon="145.251544">
        <ele>8.4</ele>
        <time>2023-09-28T07:48:46.000Z</time>
        
      </trkpt>
      <trkpt lat="44.11506" lon="145.250561">
        <ele>10</ele>
        <time>2023-09-28T07:49:22.000Z</time>
        
      </trkpt>
      <trkpt lat="44.113347" lon="145.249998">
        <ele>10.4</ele>
        <time>2023-09-28T07:49:58.000Z</time>
        
      </trkpt>
      <trkpt lat="44.111505" lon="145.249592">
        <ele>10.6</ele>
        <time>2023-09-28T07:50:34.000Z</time>
        
      </trkpt>
      <trkpt lat="44.109493" lon="145.249354">
        <ele>9.6</ele>
        <time>2023-09-28T07:51:10.000Z</time>
        
      </trkpt>
      <trkpt lat="44.107539" lon="145.248719">
        <ele>9.2</ele>
        <time>2023-09-28T07:51:46.000Z</time>
        
      </trkpt>
      <trkpt lat="44.105706" lon="145.247978">
        <ele>10</ele>
        <time>2023-09-28T07:52:22.000Z</time>
        
      </trkpt>
      <trkpt lat="44.104723" lon="145.246042">
        <ele>10.6</ele>
        <time>2023-09-28T07:52:58.000Z</time>
        
      </trkpt>
      <trkpt lat="44.10323" lon="145.244676">
        <ele>9.8</ele>
        <time>2023-09-28T07:53:34.000Z</time>
        
      </trkpt>
      <trkpt lat="44.101276" lon="145.243783">
        <ele>8.8</ele>
        <time>2023-09-28T07:54:10.000Z</time>
        
      </trkpt>
      <trkpt lat="44.099751" lon="145.243145">
        <ele>10.2</ele>
        <time>2023-09-28T07:54:46.000Z</time>
        
      </trkpt>
      <trkpt lat="44.097981" lon="145.242457">
        <ele>9.4</ele>
        <time>2023-09-28T07:55:22.000Z</time>
        
      </trkpt>
      <trkpt lat="44.096362" lon="145.241513">
        <ele>9.6</ele>
        <time>2023-09-28T07:55:58.000Z</time>
        
      </trkpt>
      <trkpt lat="44.095504" lon="145.241191">
        <ele>10.2</ele>
        <time>2023-09-28T07:56:34.000Z</time>
        
      </trkpt>
      <trkpt lat="44.094665" lon="145.240891">
        <ele>10.2</ele>
        <time>2023-09-28T07:57:10.000Z</time>
        
      </trkpt>
      <trkpt lat="44.093826" lon="145.240591">
        <ele>10.2</ele>
        <time>2023-09-28T07:57:46.000Z</time>
        
      </trkpt>
      <trkpt lat="44.092988" lon="145.240291">
        <ele>12.8</ele>
        <time>2023-09-28T07:58:22.000Z</time>
        
      </trkpt>
      <trkpt lat="44.088188" lon="145.239084">
        <ele>14</ele>
        <time>2023-09-28T07:59:16.000Z</time>
        
      </trkpt>
      <trkpt lat="44.08648" lon="145.239335">
        <ele>15</ele>
        <time>2023-09-28T07:59:52.000Z</time>
        
      </trkpt>
      <trkpt lat="44.085006" lon="145.239679">
        <ele>15.6</ele>
        <time>2023-09-28T08:00:28.000Z</time>
        
      </trkpt>
      <trkpt lat="44.083889" lon="145.239991">
        <ele>15.2</ele>
        <time>2023-09-28T08:01:04.000Z</time>
        
      </trkpt>
      <trkpt lat="44.082851" lon="145.24017">
        <ele>15</ele>
        <time>2023-09-28T08:01:40.000Z</time>
        
      </trkpt>
      <trkpt lat="44.081813" lon="145.240349">
        <ele>14.6</ele>
        <time>2023-09-28T08:02:16.000Z</time>
        
      </trkpt>
      <trkpt lat="44.080774" lon="145.240527">
        <ele>14</ele>
        <time>2023-09-28T08:02:52.000Z</time>
        
      </trkpt>
      <trkpt lat="44.07546" lon="145.24269">
        <ele>13.8</ele>
        <time>2023-09-28T08:03:28.000Z</time>
        
      </trkpt>
      <trkpt lat="44.073414" lon="145.242986">
        <ele>12.8</ele>
        <time>2023-09-28T08:04:04.000Z</time>
        
      </trkpt>
      <trkpt lat="44.071448" lon="145.242779">
        <ele>11.8</ele>
        <time>2023-09-28T08:04:40.000Z</time>
        
      </trkpt>
      <trkpt lat="44.06964" lon="145.243838">
        <ele>12.6</ele>
        <time>2023-09-28T08:05:16.000Z</time>
        
      </trkpt>
      <trkpt lat="44.067739" lon="145.244399">
        <ele>13.4</ele>
        <time>2023-09-28T08:05:52.000Z</time>
        
      </trkpt>
      <trkpt lat="44.066194" lon="145.242721">
        <ele>12.6</ele>
        <time>2023-09-28T08:06:28.000Z</time>
        
      </trkpt>
      <trkpt lat="44.065397" lon="145.240276">
        <ele>11.8</ele>
        <time>2023-09-28T08:07:04.000Z</time>
        
      </trkpt>
      <trkpt lat="44.064399" lon="145.23862">
        <ele>13</ele>
        <time>2023-09-28T08:07:40.000Z</time>
        
      </trkpt>
      <trkpt lat="44.062932" lon="145.237705">
        <ele>13.6</ele>
        <time>2023-09-28T08:08:16.000Z</time>
        
      </trkpt>
      <trkpt lat="44.061295" lon="145.237517">
        <ele>13.6</ele>
        <time>2023-09-28T08:08:52.000Z</time>
        
      </trkpt>
      <trkpt lat="44.059504" lon="145.238161">
        <ele>13.4</ele>
        <time>2023-09-28T08:09:28.000Z</time>
        
      </trkpt>
      <trkpt lat="44.057421" lon="145.237843">
        <ele>13.4</ele>
        <time>2023-09-28T08:10:04.000Z</time>
        
      </trkpt>
      <trkpt lat="44.055714" lon="145.236323">
        <ele>11.8</ele>
        <time>2023-09-28T08:10:40.000Z</time>
        
      </trkpt>
      <trkpt lat="44.054517" lon="145.234446">
        <ele>12</ele>
        <time>2023-09-28T08:11:16.000Z</time>
        
      </trkpt>
      <trkpt lat="44.052893" lon="145.233458">
        <ele>11.4</ele>
        <time>2023-09-28T08:11:52.000Z</time>
        
      </trkpt>
      <trkpt lat="44.051284" lon="145.232209">
        <ele>12</ele>
        <time>2023-09-28T08:12:28.000Z</time>
        
      </trkpt>
      <trkpt lat="44.049687" lon="145.230942">
        <ele>13</ele>
        <time>2023-09-28T08:13:04.000Z</time>
        
      </trkpt>
      <trkpt lat="44.047796" lon="145.229814">
        <ele>10.8</ele>
        <time>2023-09-28T08:13:40.000Z</time>
        
      </trkpt>
      <trkpt lat="44.046046" lon="145.229114">
        <ele>11.4</ele>
        <time>2023-09-28T08:14:16.000Z</time>
        
      </trkpt>
      <trkpt lat="44.044601" lon="145.227524">
        <ele>11.6</ele>
        <time>2023-09-28T08:14:52.000Z</time>
        
      </trkpt>
      <trkpt lat="44.043155" lon="145.226064">
        <ele>12.8</ele>
        <time>2023-09-28T08:15:28.000Z</time>
        
      </trkpt>
      <trkpt lat="44.04181" lon="145.224775">
        <ele>15</ele>
        <time>2023-09-28T08:16:04.000Z</time>
        
      </trkpt>
      <trkpt lat="44.040213" lon="145.22334">
        <ele>13</ele>
        <time>2023-09-28T08:16:40.000Z</time>
        
      </trkpt>
      <trkpt lat="44.038876" lon="145.222045">
        <ele>14.6</ele>
        <time>2023-09-28T08:17:16.000Z</time>
        
      </trkpt>
      <trkpt lat="44.038201" lon="145.22101">
        <ele>15</ele>
        <time>2023-09-28T08:17:52.000Z</time>
        
      </trkpt>
      <trkpt lat="44.036301" lon="145.217931">
        <ele>15</ele>
        <time>2023-09-28T08:18:28.000Z</time>
        
      </trkpt>
      <trkpt lat="44.03458" lon="145.216096">
        <ele>16</ele>
        <time>2023-09-28T08:19:04.000Z</time>
        
      </trkpt>
      <trkpt lat="44.033305" lon="145.214113">
        <ele>17.4</ele>
        <time>2023-09-28T08:19:40.000Z</time>
        
      </trkpt>
      <trkpt lat="44.033164" lon="145.211595">
        <ele>10.6</ele>
        <time>2023-09-28T08:20:16.000Z</time>
        
      </trkpt>
      <trkpt lat="44.032968" lon="145.209399">
        <ele>11.8</ele>
        <time>2023-09-28T08:20:52.000Z</time>
        
      </trkpt>
      <trkpt lat="44.029522" lon="145.204554">
        <ele>12</ele>
        <time>2023-09-28T08:24:10.000Z</time>
        
      </trkpt>
      <trkpt lat="44.028168" lon="145.203651">
        <ele>14.8</ele>
        <time>2023-09-28T08:24:46.000Z</time>
        
      </trkpt>
      <trkpt lat="44.026779" lon="145.202143">
        <ele>13.6</ele>
        <time>2023-09-28T08:25:22.000Z</time>
        
      </trkpt>
      <trkpt lat="44.025469" lon="145.201088">
        <ele>17.4</ele>
        <time>2023-09-28T08:25:58.000Z</time>
        
      </trkpt>
      <trkpt lat="44.023937" lon="145.199927">
        <ele>17.4</ele>
        <time>2023-09-28T08:26:34.000Z</time>
        
      </trkpt>
      <trkpt lat="44.022423" lon="145.199003">
        <ele>19.6</ele>
        <time>2023-09-28T08:27:10.000Z</time>
        
      </trkpt>
      <trkpt lat="44.021235" lon="145.197247">
        <ele>10.4</ele>
        <time>2023-09-28T08:27:46.000Z</time>
        
      </trkpt>
      <trkpt lat="44.020524" lon="145.195532">
        <ele>10.4</ele>
        <time>2023-09-28T08:28:22.000Z</time>
        
      </trkpt>
      <trkpt lat="44.020219" lon="145.193848">
        <ele>8.6</ele>
        <time>2023-09-28T08:28:58.000Z</time>
        
      </trkpt>
      <trkpt lat="44.020045" lon="145.193021">
        <ele>8.8</ele>
        <time>2023-09-28T08:56:58.000Z</time>
        
      </trkpt>
      <trkpt lat="44.020829" lon="145.191848">
        <ele>10.6</ele>
        <time>2023-09-28T08:57:34.000Z</time>
        
      </trkpt>
      <trkpt lat="44.021583" lon="145.190649">
        <ele>13.2</ele>
        <time>2023-09-28T08:58:10.000Z</time>
        
      </trkpt>
      <trkpt lat="44.022324" lon="145.189461">
        <ele>15.4</ele>
        <time>2023-09-28T08:58:46.000Z</time>
        
      </trkpt>
      <trkpt lat="44.023057" lon="145.188142">
        <ele>17.4</ele>
        <time>2023-09-28T08:59:22.000Z</time>
        
      </trkpt>
      <trkpt lat="44.023801" lon="145.186869">
        <ele>20</ele>
        <time>2023-09-28T08:59:58.000Z</time>
        
      </trkpt>
      <trkpt lat="44.024432" lon="145.185795">
        <ele>22.4</ele>
        <time>2023-09-28T09:00:47.000Z</time>
        
      </trkpt>
      <trkpt lat="44.02521" lon="145.185004">
        <ele>26</ele>
        <time>2023-09-28T09:01:23.000Z</time>
        
      </trkpt>
      <trkpt lat="44.026116" lon="145.184365">
        <ele>28.4</ele>
        <time>2023-09-28T09:01:59.000Z</time>
        
      </trkpt>
      <trkpt lat="44.027015" lon="145.183689">
        <ele>31.4</ele>
        <time>2023-09-28T09:02:35.000Z</time>
        
      </trkpt>
      <trkpt lat="44.027627" lon="145.183065">
        <ele>35</ele>
        <time>2023-09-28T09:03:18.000Z</time>
        
      </trkpt>
      <trkpt lat="44.028389" lon="145.181978">
        <ele>38.6</ele>
        <time>2023-09-28T09:03:54.000Z</time>
        
      </trkpt>
      <trkpt lat="44.028941" lon="145.180758">
        <ele>42.2</ele>
        <time>2023-09-28T09:04:30.000Z</time>
        
      </trkpt>
      <trkpt lat="44.029079" lon="145.179272">
        <ele>45.6</ele>
        <time>2023-09-28T09:05:06.000Z</time>
        
      </trkpt>
      <trkpt lat="44.028812" lon="145.177449">
        <ele>46.2</ele>
        <time>2023-09-28T09:05:42.000Z</time>
        
      </trkpt>
      <trkpt lat="44.029635" lon="145.176433">
        <ele>48</ele>
        <time>2023-09-28T09:06:18.000Z</time>
        
      </trkpt>
      <trkpt lat="44.029998" lon="145.1751">
        <ele>50.4</ele>
        <time>2023-09-28T09:06:54.000Z</time>
        
      </trkpt>
      <trkpt lat="44.029855" lon="145.175121">
        <ele>50.2</ele>
        <time>2023-09-28T09:07:12.000Z</time>
        
      </trkpt>
    </trkseg>
  </trk>
</gpx>